{"type":"FeatureCollection","features":[{"type":"Feature","geometry":{"type":"Polygon","coordinates":[[[83.02516479657257,15.020079983638448],[83.08606538505883,15.174219425347559],[83.1079843279189,15.169294077335056],[83.11760979919329,15.160007401039405],[83.11139049428138,15.135119084989736],[83.06226588390878,15.008142929942371],[83.05593810239735,15.0022358819022],[83.04665368283592,15.00318312786587],[83.02699567703311,15.011491688495743],[83.02516479657257,15.020079983638448]]]},"properties":{"kind":"age","age_h":1,"in_age_prior":false}},{"type":"Feature","geometry":{"type":"Polygon","coordinates":[[[83.09450640560824,15.183823757202573],[83.09974480002553,15.190842826797265],[83.10888814609616,15.190281380970339],[83.1335880113779,15.179689353793792],[83.13707999910773,15.170809115523259],[83.11106827663016,15.087944135436347],[83.08066275371779,15.02159843511416],[83.06976596352429,15.017150573833543],[83.04504069406116,15.025655952068265],[83.03945509687499,15.042481972939088],[83.09450640560824,15.183823757202573]]]},"properties":{"kind":"age","age_h":2,"in_age_prior":false}},{"type":"Feature","geometry":{"type":"Polygon","coordinates":[[[83.05290790663467,15.067395617202036],[83.11233612548642,15.206202834307424],[83.11668808358415,15.20818262992217],[83.14573598588402,15.199440426197848],[83.15509153955824,15.191292681196876],[83.1572897168719,15.183732451901495],[83.15233532515046,15.16091625575842],[83.1306589150126,15.102021673345712],[83.1032375626834,15.040296447571976],[83.09822621126712,15.033013125974126],[83.0826302264381,15.032227238356786],[83.05979962436712,15.041780751149313],[83.0525811677487,15.054515784560138],[83.05290790663467,15.067395617202036]]]},"properties":{"kind":"age","age_h":3,"in_age_prior":true}},{"type":"Feature","geometry":{"type":"Polygon","coordinates":[[[83.13076780077023,15.20200739789291],[83.14974661102973,15.25521146449525],[83.15870112969166,15.260039400843679],[83.16888618954209,15.25993634206678],[83.20479099487116,15.248218357483298],[83.21375952689905,15.240321245979503],[83.22241880744939,15.22050581380379],[83.21266330854333,15.187352052446178],[83.16719529778197,15.082536204503075],[83.16164093392294,15.074554911004556],[83.15286303499103,15.070037427472707],[83.13887235947051,15.070781540209833],[83.10325902211872,15.084129683818713],[83.09773006638417,15.093721622948575],[83.09900513635357,15.136937527420258],[83.11034680997267,15.165149885279444],[83.13076780077023,15.20200739789291]]]},"properties":{"kind":"age","age_h":6,"in_age_prior":true}},{"type":"Feature","geometry":{"type":"Polygon","coordinates":[[[83.1698304848767,15.247720294717029],[83.19812248149671,15.311697200313619],[83.21303793043218,15.315406986631352],[83.23343973241661,15.31301720486615],[83.26277343163936,15.300610504357314],[83.27761902050395,15.291251534822434],[83.28864752600184,15.266189122273637],[83.28947447440282,15.25561718035227],[83.28415631351506,15.231158131602177],[83.2646947504342,15.183634786758212],[83.23246204967978,15.121001425097297],[83.2217827540129,15.109379690383482],[83.20369181432194,15.105855491504588],[83.1575080563701,15.119194597285553],[83.14723728515376,15.126224267208578],[83.14471636602036,15.14151040775821],[83.15090809160917,15.176991891315584],[83.14706367736696,15.195001223428411],[83.15036235109548,15.214708732444318],[83.1698304848767,15.247720294717029]]]},"properties":{"kind":"age","age_h":9,"in_age_prior":true}},{"type":"Feature","geometry":{"type":"Polygon","coordinates":[[[83.22529582674227,15.328443132601997],[83.24275112588015,15.374628373462956],[83.26720709017657,15.3786365223931],[83.28970512398608,15.374256459087961],[83.32529292982815,15.350197726571903],[83.33851128973886,15.338515346567915],[83.3569219450597,15.30593349917171],[83.35948640624538,15.294100085673728],[83.35570231636842,15.269075156986469],[83.2987983283524,15.15909926263243],[83.27699996809667,15.145094117407314],[83.26847886622258,15.145798417529695],[83.25106879142837,15.156370048514978],[83.20170615022997,15.15231983971152],[83.18547309331882,15.164529011088527],[83.20095362772375,15.237714351482717],[83.19299264731389,15.269733805681545],[83.22529582674227,15.328443132601997]]]},"properties":{"kind":"age","age_h":12,"in_age_prior":true}},{"type":"Feature","geometry":{"type":"Polygon","coordinates":[[[83.30373967147378,15.463226001344355],[83.32000800784911,15.502364688770657],[83.34254855999644,15.506265539342474],[83.38224375883395,15.503629656087679],[83.38570336610978,15.497237353163861],[83.38463456609483,15.485005365615566],[83.43276894096414,15.456903242628137],[83.4805347850388,15.393495771847167],[83.48262997103944,15.382536937383156],[83.48060106482158,15.36283070392019],[83.46254729847234,15.31761726942171],[83.43556532086637,15.264353906575668],[83.41805262423118,15.236613956607828],[83.41181592119842,15.233011072330692],[83.39661850534186,15.229562143571638],[83.36010917487741,15.244591827596977],[83.34561116440243,15.247429857467598],[83.28214444032565,15.216183190352838],[83.26225220016778,15.229334006427838],[83.25902348994806,15.234458084593594],[83.27253189482401,15.282454828381049],[83.28370067046112,15.299745253948085],[83.28885059237578,15.356810120431058],[83.27185981991677,15.389989366136598],[83.27282397048965,15.400149211230891],[83.27561634951137,15.411935085643123],[83.30373967147378,15.463226001344355]]]},"properties":{"kind":"age","age_h":18,"in_age_prior":true}},{"type":"Feature","geometry":{"type":"Polygon","coordinates":[[[83.3382492767135,15.51691060826767],[83.38079345047893,15.622322186315927],[83.40529387628763,15.626838617978906],[83.45297588034589,15.616879263921327],[83.53982686007426,15.53927668233721],[83.58389484894646,15.485714305032989],[83.58774509379012,15.474439732679746],[83.58725373260344,15.457743060070083],[83.57809507114074,15.422037473752159],[83.54572293168675,15.341966891875645],[83.5322488785085,15.320386605097873],[83.52325485607,15.312995868305292],[83.50245668415202,15.307139713825467],[83.4563400030404,15.320622715923658],[83.37937759540847,15.294696606866143],[83.35681403985015,15.272695147976556],[83.32912070625008,15.283884241723918],[83.35066017031377,15.360811932472268],[83.36098752679241,15.37624452460703],[83.3727139930492,15.407042088005484],[83.37143880253305,15.460063247453625],[83.3398810359843,15.506121407335831],[83.3382492767135,15.51691060826767]]]},"properties":{"kind":"age","age_h":24,"in_age_prior":true}},{"type":"Feature","geometry":{"type":"Polygon","coordinates":[[[83.49595012083616,15.81632082202642],[83.50506630063622,15.826385088609841],[83.52679345635894,15.831040207211425],[83.59858810246934,15.80234637641184],[83.70276990743558,15.723504206594141],[83.7719329650812,15.639005759926585],[83.77551188329232,15.62620796219801],[83.76118434151063,15.552463301952217],[83.7378612824286,15.472882046256176],[83.72772300067237,15.454854201102625],[83.71021768712458,15.444815007429469],[83.64340660978077,15.452756015696037],[83.52866033938277,15.39539506884005],[83.5057096343109,15.372349808704069],[83.49343620849169,15.369777616729232],[83.47195726825687,15.379161037438358],[83.4647207378151,15.38878297822037],[83.51225959304503,15.499178773613044],[83.53124775199674,15.577305250925733],[83.5285402977686,15.635472173780123],[83.47413922168201,15.708257814982801],[83.48494283658637,15.7822364673271],[83.49595012083616,15.81632082202642]]]},"properties":{"kind":"age","age_h":36,"in_age_prior":true}},{"type":"Feature","geometry":{"type":"Polygon","coordinates":[[[83.5888608093858,15.984792032343274],[83.61032629247099,16.02304060481814],[83.6219489878392,16.029058442446903],[83.63541941491141,16.025890040194444],[83.86589465443389,15.912917044644349],[83.9614371816964,15.790146581314724],[83.96355469620894,15.766178961329091],[83.90958102551343,15.602182308193001],[83.90117853835287,15.580423008190138],[83.89266664429287,15.571453392631819],[83.88153526268577,15.564520976169623],[83.80849877173875,15.567823413049938],[83.67250051282251,15.486145833923343],[83.64487147230182,15.470284299590329],[83.63803261955852,15.469141291299449],[83.61423652144842,15.47580059485091],[83.59128837863204,15.486164194257903],[83.58901769983694,15.490569637218012],[83.65443214931247,15.641527475421139],[83.67324655295285,15.737897204340122],[83.5818159952389,15.888898588569093],[83.57935543891794,15.941451740081257],[83.5888608093858,15.984792032343274]]]},"properties":{"kind":"age","age_h":48,"in_age_prior":true}},{"type":"Feature","geometry":{"type":"Polygon","coordinates":[[[83.6965470209617,16.23146961334649],[83.7161999854144,16.258065984367914],[83.73350831780076,16.2644540529048],[83.74799130394872,16.263846172912505],[83.86750331302609,16.162307241125962],[84.04083632856951,16.10515301399414],[84.16032520691186,15.95017299794228],[84.16527686778376,15.935495365028247],[84.1657879291684,15.919486440383102],[84.14001124355065,15.85054012302666],[84.0681573208283,15.692006962364689],[84.05891177552397,15.677743392604862],[84.05441370858243,15.676440726404824],[83.95829019081954,15.699236443694907],[83.83342501670957,15.597387384978628],[83.82335879369822,15.574219112844219],[83.80476695552883,15.566725913866579],[83.78649256910305,15.567884563530644],[83.76319025763637,15.574099610773231],[83.75885847667814,15.583996337897874],[83.79653538389421,15.656406439157609],[83.79441078205825,15.781538634656501],[83.8076814390389,15.88724376464531],[83.8065676939975,15.914013867038202],[83.68799594733099,16.059656114326174],[83.67314080078737,16.057156999983857],[83.66888536611924,16.060082319824488],[83.66406134077944,16.08831921152235],[83.6655216804876,16.115211753285056],[83.68460942441688,16.20525709410412],[83.6965470209617,16.23146961334649]]]},"properties":{"kind":"age","age_h":60,"in_age_prior":false}},{"type":"Feature","geometry":{"type":"Polygon","coordinates":[[[83.73850355158007,16.320262961824483],[83.79941175262753,16.523225254512493],[83.82443964147852,16.532606417141885],[83.98799091115852,16.39286371533573],[84.11436983925825,16.36893899578284],[84.13426217891666,16.369143112020744],[84.2076555533064,16.34711280333396],[84.21769009864994,16.33682406532658],[84.34494050790234,16.130753690397352],[84.340682366259,16.106475248824076],[84.3150255117061,16.038331408160214],[84.22269273804228,15.846328603386414],[84.21753236730254,15.845167871724883],[84.09696633923588,15.891756455176],[83.95548892871382,15.755936535043745],[83.95528087379707,15.681453559877019],[83.9446997205276,15.661600365858382],[83.9132028127283,15.662398734880542],[83.90908695350903,15.666451077197467],[83.91707225986795,15.746848728659273],[83.90957885876176,15.949585567686025],[83.9165159196082,16.068970100804325],[83.74989049939653,16.2532842846258],[83.73526270051849,16.28122361429318],[83.73850355158007,16.320262961824483]]]},"properties":{"kind":"age","age_h":72,"in_age_prior":false}},{"type":"Feature","geometry":{"type":"Polygon","coordinates":[[[83.1129188591615,15.206890557958365],[83.11656347581761,15.208189386150773],[83.12491604613565,15.224247449265441],[83.12993333913083,15.225768298279933],[83.13310489155678,15.234178924028239],[83.1445144014073,15.239974832531114],[83.14884463437723,15.254207782193383],[83.15965800941545,15.26021990148617],[83.16639988126242,15.27652937247902],[83.17524970151528,15.27766772098162],[83.17765527022566,15.28354390807558],[83.18965349700743,15.292904452066507],[83.1967710728924,15.310470086749849],[83.20616825813202,15.313911724215314],[83.21065541834342,15.328300656710777],[83.22103201177237,15.334701149098162],[83.22746825570616,15.351507139538569],[83.23489914267176,15.3541746589781],[83.24249146069378,15.374256662381287],[83.25076245424431,15.377008324699734],[83.25931659934731,15.39022791055325],[83.26675895931274,15.407964152549484],[83.27339012981403,15.413358314802679],[83.28570652387293,15.434772313058243],[83.2932219366587,15.45478264462418],[83.29838645110873,15.457613645549637],[83.30601344147175,15.477748934024325],[83.31051439329947,15.4807944242266],[83.33793206473977,15.54398294206716],[83.34396448573041,15.547083756729606],[83.35348393864079,15.564795625217211],[83.37859259590554,15.620326658836861],[83.38515114068059,15.623522247384535],[83.40061368515501,15.655039679991777],[83.40520117590073,15.657512360317458],[83.41743142701318,15.683550156287033],[83.46295429668393,15.754572455839888],[83.46563887328162,15.76458657783544],[83.47526482504253,15.7760345860443],[83.48615602756787,15.800092309169553],[83.49258004794899,15.805935994648348],[83.53401134273092,15.887146732048187],[83.54519692905467,15.90141161599314],[83.60998305012819,16.022736163256454],[83.62288293036887,16.029226364265458],[83.63575022932082,16.0257496307232],[83.86650429948264,15.912369966028137],[83.96211274064254,15.788073434466142],[83.96355922148814,15.765680882139485],[83.95875570835665,15.74819446702039],[83.90958102551343,15.602182308193001],[83.90117853835287,15.580423008190138],[83.89297805082604,15.571743529048097],[83.82209083492945,15.526814274974937],[83.70633087172253,15.438053740771757],[83.66605269484717,15.413382487038085],[83.63026733075672,15.385223692442938],[83.60282732077059,15.36867618822245],[83.5944504454387,15.359425551441113],[83.58484958182385,15.356182909695226],[83.57639350124796,15.347273794201667],[83.56711242526308,15.344651959312419],[83.55863584851919,15.335445571714175],[83.51543213502501,15.30992732619585],[83.46991397038781,15.274945165031491],[83.46177773218274,15.272618713374712],[83.4518299534775,15.261015171866152],[83.44309704676333,15.25892010561569],[83.43235383156029,15.246690802996554],[83.42335695192293,15.24499051924531],[83.41715418123064,15.235730295788208],[83.40345451636131,15.23074809040517],[83.39661973967118,15.221672637790673],[83.36283147793237,15.20101664916023],[83.35516795294456,15.192158141803613],[83.2762260455572,15.144959673101338],[83.26827389884961,15.136898129139633],[83.25372696670041,15.131664564477301],[83.23979340727779,15.118941206783687],[83.23113727843966,15.11904072367463],[83.2225403933508,15.109829962713041],[83.21028554586589,15.106318956698018],[83.19977194256653,15.09596777944154],[83.1889280589913,15.094288408935512],[83.18025291336068,15.084405513043025],[83.1674599346125,15.083162959241639],[83.15873937590698,15.072254181837428],[83.14636954661978,15.070328726116532],[83.1371802342476,15.058914629152333],[83.12588835907356,15.058124318530933],[83.11632753514202,15.045858497695797],[83.10544789472225,15.045715132192266],[83.09862699520187,15.03320974928982],[83.08223173981207,15.032285252053628],[83.05979962436712,15.041780751149313],[83.0525811677487,15.054515784560138],[83.05290790663467,15.067395617202036],[83.10291923039868,15.189077467724397],[83.1129188591615,15.206890557958365]]]},"properties":{"kind":"release_corridor","age_prior_h":{"min":3,"max":48,"label":"weak prior","spreading_min_h":3.3}}},{"type":"Feature","geometry":{"type":"Polygon","coordinates":[[[83.06059503196427,15.207834744619374],[83.13063307940934,15.305442323059173],[83.15072250873865,15.321235853948348],[83.20427062168876,15.400032190821127],[83.21928315360398,15.414570530741175],[83.33864472316323,15.643491192676633],[83.44071376937212,15.810528515773614],[83.56608610551802,16.04015461403487],[83.5867940109091,16.06210039301532],[83.61913724226513,16.074298101565635],[83.6506696715414,16.068609267810952],[83.88875464355169,15.952341421735936],[83.9038898442432,15.939307878934725],[84.00223430989972,15.811867338701912],[84.01006776998113,15.766578328197266],[84.00369262752244,15.736492674217837],[83.94492780008584,15.564989670442337],[83.92485181652948,15.538807291299166],[83.37969291270733,15.153735438145558],[83.12348935050781,14.994992516203734],[83.09662838599505,14.986831944062422],[83.06904649574231,14.988901930978932],[83.03488740410347,15.003349012063998],[83.01771354583755,15.02163552450883],[83.00621465580895,15.050247683927582],[83.01307460603135,15.09389584122346],[83.06059503196427,15.207834744619374]]]},"properties":{"kind":"expanded_corridor_for_veto","margin_km":5.0}}],"properties":{"physics":{"formula":"V_oil = V_current + V_tide + V_Stokes + alpha * V_wind10","current_source":"CMEMS SMOC (uo+utide, vo+vtide)","stokes_source":"CMEMS SMOC (vsdx, vsdy)","wind_source":"ERA5 10 m (u10, v10)","alpha":0.02,"alpha_range":[0.01,0.03],"current_scale_sd":0.15,"wind_rotation_sd_deg":10.0,"current_error_sd_ms":0.1,"diffusion_m2s":1.0,"time_step_s":900,"backward_members":10,"backward_particles":500,"forward_members":5,"max_age_h":72}}}