{"type":"FeatureCollection","features":[{"type":"Feature","geometry":{"type":"Polygon","coordinates":[[[82.60750196557282,14.905621022822812],[82.6138812400953,14.913015933291367],[82.63215980343034,14.91688393215014],[82.64894210020258,14.904304606606676],[82.65407666407361,14.895450333939246],[82.65512199801111,14.80279231389264],[82.66044550425279,14.772474345128366],[82.66091408417407,14.718352823116193],[82.65472553434005,14.711074839188695],[82.64579766112985,14.707743821360975],[82.62562440923901,14.708577269876969],[82.61132975905714,14.725069837621495],[82.61231470426303,14.796534358470689],[82.60273701931499,14.82835384926232],[82.6096522895762,14.860772419376932],[82.60248999835062,14.888615779624567],[82.60750196557282,14.905621022822812]]]},"properties":{"kind":"forecast_envelope","hours":24,"active_fraction":1.0}},{"type":"Feature","geometry":{"type":"Polygon","coordinates":[[[82.18022288924199,14.681842212669181],[82.17209010183801,14.727842254313192],[82.18398839756453,14.736351338398821],[82.19708346914408,14.739963161607603],[82.2205381068819,14.719987767809078],[82.23923104861515,14.69395010526945],[82.26863985479672,14.614692076351831],[82.29298830327801,14.568854510374983],[82.28850346285357,14.55885738080357],[82.2735064315113,14.549763950210828],[82.25931397851534,14.54731908596587],[82.23798372797663,14.558198901882484],[82.21667782063244,14.589019145525294],[82.20903458914273,14.64095645513539],[82.18022288924199,14.681842212669181]]]},"properties":{"kind":"forecast_envelope","hours":48,"active_fraction":1.0}},{"type":"Feature","geometry":{"type":"Polygon","coordinates":[[[81.44966307430421,14.724077097494021],[81.4487931127032,14.72827639364702],[81.4539478931731,14.738399104286733],[81.47672897902198,14.740975933653944],[81.5345662678937,14.727679393137274],[81.57180986536594,14.708350413573719],[81.6153893672045,14.66700432931714],[81.7037057126413,14.615282224445146],[81.70535716007367,14.61091707204813],[81.69960080669891,14.59691202016987],[81.69134967291673,14.589139382254976],[81.68622088477512,14.589087979318064],[81.57057217967584,14.642231670972613],[81.48550874306632,14.685777382936328],[81.44966307430421,14.724077097494021]]]},"properties":{"kind":"forecast_envelope","hours":72,"active_fraction":1.0}}],"properties":{"model":"OpenDrift OpenOil","oil_type":"GENERIC INTERMEDIATE FUEL OIL 180","hours":72,"coastal_impact":false,"stranded_elements":0,"elements":1500,"mass_budget_fraction":{"mass_oil":[1.0,0.9739999771118164,0.9495000243186951,0.9235000014305115,0.8981999754905701,0.8756999969482422,0.8561999797821045,0.8402000069618225,0.828499972820282,0.819100022315979,0.8016999959945679,0.7796000242233276,0.7583000063896179,0.7400000095367432,0.7217000126838684,0.7063999772071838,0.6970999836921692,0.6926000118255615,0.6895999908447266,0.6869999766349792,0.684499979019165,0.6816999912261963,0.6730999946594238,0.6629999876022339,0.6492000222206116,0.6377999782562256,0.6256999969482422,0.611299991607666,0.5974000096321106,0.5871000289916992,0.579200029373169,0.5723000168800354,0.5663999915122986,0.560699999332428,0.5543000102043152,0.5439000129699707,0.5291000008583069,0.5094000101089478,0.4900999963283539,0.47279998660087585,0.4571000039577484,0.44279998540878296,0.4296000003814697,0.41760000586509705,0.40630000829696655,0.3953999876976013,0.3824000060558319,0.3682999908924103,0.35440000891685486,0.34130001068115234,0.32989999651908875,0.32030001282691956,0.31139999628067017,0.30250000953674316,0.2937999963760376,0.2854999899864197,0.2775000035762787,0.2696000039577484,0.2605000138282776,0.25130000710487366,0.24330000579357147,0.23589999973773956,0.22930000722408295,0.22360000014305115,0.21870000660419464,0.21459999680519104,0.21140000224113464,0.2084999978542328,0.20569999516010284,0.20319999754428864,0.19949999451637268,0.195700004696846],"mass_evaporated":[0.0,0.017400000244379044,0.029899999499320984,0.04190000146627426,0.053199999034404755,0.06350000202655792,0.07280000299215317,0.08100000023841858,0.08820000290870667,0.09470000118017197,0.1014999970793724,0.10809999704360962,0.11420000344514847,0.11980000138282776,0.125,0.12960000336170197,0.13369999825954437,0.1370999962091446,0.14000000059604645,0.14259999990463257,0.14509999752044678,0.1476999968290329,0.15080000460147858,0.15369999408721924,0.1565999984741211,0.1565999984741211,0.1565999984741211,0.1565999984741211,0.1565999984741211,0.1565999984741211,0.1565999984741211,0.1565999984741211,0.1565999984741211,0.1565999984741211,0.1565999984741211,0.1565999984741211,0.1565999984741211,0.1565999984741211,0.1565999984741211,0.1565999984741211,0.1565999984741211,0.1565999984741211,0.1565999984741211,0.1565999984741211,0.1565999984741211,0.1565999984741211,0.1565999984741211,0.1565999984741211,0.1565999984741211,0.1565999984741211,0.1565999984741211,0.1565999984741211,0.1565999984741211,0.1565999984741211,0.1565999984741211,0.1565999984741211,0.1565999984741211,0.1565999984741211,0.1565999984741211,0.1565999984741211,0.1565999984741211,0.1565999984741211,0.1565999984741211,0.1565999984741211,0.1565999984741211,0.1565999984741211,0.1565999984741211,0.1565999984741211,0.1565999984741211,0.1565999984741211,0.1565999984741211,0.1565999984741211],"mass_dispersed":[0.0,0.00860000029206276,0.020600000396370888,0.03460000082850456,0.048500001430511475,0.06080000102519989,0.07100000232458115,0.0786999985575676,0.08330000191926956,0.08619999885559082,0.09690000116825104,0.11230000108480453,0.1273999959230423,0.14020000398159027,0.1534000039100647,0.1639000028371811,0.16920000314712524,0.17030000686645508,0.1703999936580658,0.1703999936580658,0.1703999936580658,0.17059999704360962,0.1761000007390976,0.18330000340938568,0.19429999589920044,0.20569999516010284,0.21770000457763672,0.2321999967098236,0.24609999358654022,0.2563999891281128,0.26429998874664307,0.2711000144481659,0.27709999680519104,0.28279998898506165,0.2892000079154968,0.2996000051498413,0.31439998745918274,0.33399999141693115,0.35339999198913574,0.37059998512268066,0.3862999975681305,0.40070000290870667,0.4138000011444092,0.42579999566078186,0.43720000982284546,0.4481000006198883,0.4611000120639801,0.47519999742507935,0.48899999260902405,0.5022000074386597,0.5134999752044678,0.5231000185012817,0.5321000218391418,0.5410000085830688,0.5496000051498413,0.5579000115394592,0.5659999847412109,0.5738999843597412,0.5830000042915344,0.5921000242233276,0.6001999974250793,0.6075999736785889,0.6141999959945679,0.6198999881744385,0.6248000264167786,0.6287999749183655,0.632099986076355,0.6349999904632568,0.6377000212669373,0.6402999758720398,0.6438999772071838,0.6477000117301941]}}}