{"type":"FeatureCollection","features":[{"type":"Feature","geometry":{"type":"Polygon","coordinates":[[[83.02314464045,14.983256303647615],[83.02314464045,14.985517232980007],[83.0208350482975,14.985517232980007],[83.0208350482975,14.987778162312399],[83.018525456145,14.987778162312399],[83.018525456145,14.992300020977185],[83.0162158639925,14.992300020977185],[83.0162158639925,15.001343738306756],[83.018525456145,15.001343738306756],[83.018525456145,15.008126526303935],[83.0208350482975,15.008126526303935],[83.0208350482975,15.014909314301113],[83.02314464045,15.014909314301113],[83.02314464045,15.02169210229829],[83.0254542326025,15.02169210229829],[83.0254542326025,15.023953031630684],[83.027763824755,15.023953031630684],[83.027763824755,15.030735819627862],[83.0300734169075,15.030735819627862],[83.0300734169075,15.035257678292648],[83.03238300906,15.035257678292648],[83.03238300906,15.042040466289826],[83.0346926012125,15.042040466289826],[83.0346926012125,15.044301395622218],[83.037002193365,15.044301395622218],[83.037002193365,15.048823254287004],[83.0393117855175,15.048823254287004],[83.0393117855175,15.060127900948968],[83.04162137767,15.060127900948968],[83.04162137767,15.066910688946146],[83.0439309698225,15.066910688946146],[83.0439309698225,15.071432547610932],[83.046240561975,15.071432547610932],[83.046240561975,15.080476264940504],[83.0485501541275,15.080476264940504],[83.0485501541275,15.082737194272896],[83.05085974628,15.082737194272896],[83.05085974628,15.089519982270074],[83.0531693384325,15.089519982270074],[83.0531693384325,15.096302770267254],[83.055478930585,15.096302770267254],[83.055478930585,15.098563699599646],[83.0577885227375,15.098563699599646],[83.0577885227375,15.105346487596824],[83.06009811489,15.105346487596824],[83.06009811489,15.112129275594002],[83.0624077070425,15.112129275594002],[83.0624077070425,15.121172992923574],[83.064717299195,15.121172992923574],[83.064717299195,15.12569485158836],[83.0670268913475,15.12569485158836],[83.0670268913475,15.127955780920752],[83.0693364835,15.127955780920752],[83.0693364835,15.13473856891793],[83.0716460756525,15.13473856891793],[83.0716460756525,15.143782286247502],[83.073955667805,15.143782286247502],[83.073955667805,15.148304144912288],[83.0762652599575,15.148304144912288],[83.0762652599575,15.15056507424468],[83.0808844442625,15.15056507424468],[83.0808844442625,15.152826003577072],[83.0901228128725,15.152826003577072],[83.0901228128725,15.15056507424468],[83.092432405025,15.15056507424468],[83.092432405025,15.141521356915108],[83.0901228128725,15.141521356915108],[83.0901228128725,15.130216710253144],[83.08781322072,15.130216710253144],[83.08781322072,15.123433922255966],[83.0855036285675,15.123433922255966],[83.0855036285675,15.118912063591182],[83.083194036415,15.118912063591182],[83.083194036415,15.114390204926396],[83.0808844442625,15.114390204926396],[83.0808844442625,15.107607416929216],[83.07857485211,15.107607416929216],[83.07857485211,15.103085558264432],[83.0762652599575,15.103085558264432],[83.0762652599575,15.096302770267254],[83.073955667805,15.096302770267254],[83.073955667805,15.091780911602468],[83.0716460756525,15.091780911602468],[83.0716460756525,15.087259052937682],[83.0693364835,15.087259052937682],[83.0693364835,15.075954406275718],[83.0670268913475,15.075954406275718],[83.0670268913475,15.06917161827854],[83.064717299195,15.06917161827854],[83.064717299195,15.064649759613754],[83.0624077070425,15.064649759613754],[83.0624077070425,15.06238883028136],[83.06009811489,15.06238883028136],[83.06009811489,15.060127900948968],[83.055478930585,15.060127900948968],[83.055478930585,15.05334511295179],[83.0531693384325,15.05334511295179],[83.0531693384325,15.051084183619398],[83.055478930585,15.051084183619398],[83.055478930585,15.048823254287004],[83.0577885227375,15.048823254287004],[83.0577885227375,15.046562324954612],[83.055478930585,15.046562324954612],[83.055478930585,15.044301395622218],[83.0531693384325,15.044301395622218],[83.0531693384325,15.03751860762504],[83.05085974628,15.03751860762504],[83.05085974628,15.035257678292648],[83.0485501541275,15.035257678292648],[83.0485501541275,15.02847489029547],[83.046240561975,15.02847489029547],[83.046240561975,15.017170243633506],[83.0439309698225,15.017170243633506],[83.0439309698225,15.010387455636327],[83.04162137767,15.010387455636327],[83.04162137767,15.003604667639149],[83.0393117855175,15.003604667639149],[83.0393117855175,14.99682187964197],[83.037002193365,14.99682187964197],[83.037002193365,14.994560950309578],[83.0346926012125,14.994560950309578],[83.0346926012125,14.987778162312399],[83.03238300906,14.987778162312399],[83.03238300906,14.985517232980007],[83.027763824755,14.985517232980007],[83.027763824755,14.983256303647615],[83.02314464045,14.983256303647615]]]},"properties":{"area_km2":39.35,"perimeter_km":54.88,"length_km":20.08,"mean_width_km":1.959,"elongation":10.3,"compactness":0.1642,"components":1,"orientation_deg":20.4,"centroid":[83.05404,15.06825],"taper":"undetermined","end_width_ratio":0.92,"edge_truncated":false,"wind_speed_ms":6.1,"wind_reliability":1,"age_prior_h":{"min":3,"max":48,"label":"weak prior","spreading_min_h":3.3},"shape_indicator":"elongated, few parts: consistent with a moving vessel","simulated":true,"source":"Outline only, no satellite image"}}]}