{"type":"FeatureCollection","features":[{"type":"Feature","geometry":{"type":"Polygon","coordinates":[[[75.91159852669682,8.91720336192298],[75.9133526709867,8.92431634789428],[75.92669371660864,8.929567230095415],[75.93658425911842,8.923916658364194],[75.94314724829465,8.91538063698361],[75.97568868037732,8.864010398400348],[75.98933355761179,8.831782202432468],[76.01757527771785,8.782891408754534],[76.02362127505755,8.7777863894027],[76.03509502042986,8.757481160746982],[76.04389801193001,8.736376511767014],[76.03904161568163,8.725707609737828],[76.02916634107585,8.721502090137488],[76.0249877336103,8.722769497754367],[75.98129207181861,8.779407508395781],[75.95859718851489,8.843506518268327],[75.93974222913978,8.87896512527123],[75.91159852669682,8.91720336192298]]]},"properties":{"kind":"age","age_h":1,"in_age_prior":false}},{"type":"Feature","geometry":{"type":"Polygon","coordinates":[[[75.91289641987096,8.920974285421549],[75.91326290715998,8.930238404917391],[75.93236346698102,8.939795633862431],[75.94030698305261,8.936461595662315],[75.94837515429784,8.927261180335034],[75.97910703619594,8.881258151732563],[76.00002025904848,8.830903575776718],[76.03295362597763,8.78366498396221],[76.05012841857524,8.74283491083269],[76.0472457066482,8.734697705113986],[76.02488146791198,8.72585216098822],[75.99289796897183,8.767521210519662],[75.97424896217026,8.800177406531487],[75.96310294102153,8.838411786939306],[75.94521575623108,8.87674706897538],[75.91289641987096,8.920974285421549]]]},"properties":{"kind":"age","age_h":2,"in_age_prior":true}},{"type":"Feature","geometry":{"type":"Polygon","coordinates":[[[75.91354588132509,8.932611423423845],[75.92087502224831,8.943303183788817],[75.942052682571,8.950560489917883],[75.96018025370412,8.93362164973825],[75.99011065520088,8.885921080494922],[76.02473507625196,8.80457993619649],[76.03863837556239,8.79223676974979],[76.05178366680244,8.764799518374106],[76.05685433629276,8.74637238745531],[76.05271978949004,8.739470384083399],[76.02619082595334,8.729099311455888],[76.01406220778397,8.741201068642486],[75.98222403561121,8.789245465398027],[75.97395996949962,8.80568052289284],[75.96540971935977,8.842589192530259],[75.94629331404762,8.881349494426313],[75.92562744071824,8.907431200825636],[75.91354588132509,8.932611423423845]]]},"properties":{"kind":"age","age_h":3,"in_age_prior":true}},{"type":"Feature","geometry":{"type":"Polygon","coordinates":[[[75.91718707600472,8.965286949947776],[75.9235938691615,8.985244906663988],[75.94539640060893,8.998071667715566],[75.96452836982873,8.994490998327091],[75.97816810200469,8.984191762907386],[76.0133001666748,8.92894437613419],[76.02833931909677,8.895417370476956],[76.03053924881111,8.876457733408879],[76.0684900436282,8.809196946014433],[76.07723124056464,8.78012213894612],[76.07064802841681,8.766629046214733],[76.02433724905733,8.749194428134953],[76.01938675339503,8.750555140680433],[75.99005140266101,8.793703811437986],[75.9759081095396,8.827258427337915],[75.96478609650248,8.871791843486214],[75.94519124092542,8.914635954885346],[75.91967357164245,8.952079144373544],[75.91718707600472,8.965286949947776]]]},"properties":{"kind":"age","age_h":6,"in_age_prior":true}},{"type":"Feature","geometry":{"type":"Polygon","coordinates":[[[75.91692313936998,8.986517564416298],[75.9284001355255,9.036447153059049],[75.94957775827756,9.051920751629503],[75.96173484283977,9.054175195960795],[75.99878022861819,9.035763764057904],[76.02984790530058,8.980711938962004],[76.04672961451816,8.94411738630978],[76.06040458183902,8.899138496501779],[76.09048898329819,8.853967042881798],[76.09765575660904,8.82270888641627],[76.09421056891267,8.799067552556318],[76.02565161628092,8.777641690542707],[76.00901909199531,8.791241167779487],[75.98575034748046,8.833413066486381],[75.96305654880935,8.91246337251157],[75.91692313936998,8.986517564416298]]]},"properties":{"kind":"age","age_h":9,"in_age_prior":true}},{"type":"Feature","geometry":{"type":"Polygon","coordinates":[[[75.88752216955582,9.045222327439479],[75.88708345898183,9.049741615793135],[75.90614762720637,9.082068401070261],[75.94656522392859,9.103314440562999],[75.98540874503216,9.091334463615123],[76.00913196922022,9.077952112422421],[76.03936088850871,9.022196994009136],[76.09100841577555,8.912335232279608],[76.10311469484192,8.893178205040474],[76.10633713225013,8.858199396580183],[76.10210699619938,8.831213332268527],[76.01950885454939,8.805387728336857],[76.00932491081889,8.806468989819155],[75.99614197115878,8.82116217021887],[75.97118167646008,8.872810072501823],[75.93509949251528,8.976099980757105],[75.88752216955582,9.045222327439479]]]},"properties":{"kind":"age","age_h":12,"in_age_prior":true}},{"type":"Feature","geometry":{"type":"Polygon","coordinates":[[[75.91138182077879,9.206137721786448],[75.91946715188848,9.213074479086863],[75.94631973207025,9.224022665340273],[75.98826200807302,9.219345150054561],[76.03848803388401,9.17793492962209],[76.07537122346264,9.102141554198841],[76.1038249814592,9.027927155401075],[76.13034153415401,8.988689324141724],[76.1307793632333,8.918764767323816],[76.12595243628488,8.910962437535431],[76.03439376355345,8.908381167979291],[76.00330867775354,8.876734433537232],[75.99606758296373,8.877275075122498],[75.98139413363286,8.890197449697839],[75.95511847282678,8.957089375574592],[75.94424773504586,9.01545820992312],[75.92718295480921,9.053566565138155],[75.88025263386699,9.121556397918685],[75.89591734660966,9.176452570321693],[75.91138182077879,9.206137721786448]]]},"properties":{"kind":"age","age_h":18,"in_age_prior":true}},{"type":"Feature","geometry":{"type":"Polygon","coordinates":[[[75.8974325156108,9.25447186380237],[75.90413533340552,9.31838601514559],[75.91069006208,9.32453887242392],[75.94380691223442,9.338885335376858],[75.95991698118561,9.336195593069485],[76.0122088513028,9.307357428395122],[76.04172340105389,9.286221393422657],[76.08169944025163,9.223999625968274],[76.12463803337553,9.114383332985252],[76.13927069088832,9.08890795088162],[76.14992022613139,9.061436490834884],[76.1580567600052,9.000527829358493],[76.15310300066965,8.979249986433219],[76.14863268289828,8.97813237677961],[76.1400078221871,8.982517576133574],[76.13161431537583,8.994147265030723],[76.03819847053518,8.986758881128242],[75.99721366509432,8.939833243815324],[75.98512723781724,8.941952098925375],[75.97044924442804,8.952585412248157],[75.94812944061962,9.020438054925387],[75.93621139603034,9.08138547240622],[75.91950843706705,9.117686243198671],[75.89475989228696,9.153827180239801],[75.8726056271294,9.179754593531557],[75.8974325156108,9.25447186380237]]]},"properties":{"kind":"age","age_h":24,"in_age_prior":true}},{"type":"Feature","geometry":{"type":"Polygon","coordinates":[[[75.76048726136365,9.336110264312964],[75.75918654896219,9.341093726898858],[75.79467807724765,9.43593741056448],[75.86817854360612,9.492068729830313],[75.95113590136029,9.523795625926338],[76.04276639381101,9.431354949359287],[76.0729083404118,9.407935298495055],[76.09671929646558,9.374237007135502],[76.11248543486438,9.339922884694852],[76.17664023333779,9.170880676401268],[76.20058639704581,9.072954695005203],[76.19216276103458,9.061858628248832],[76.1844822881245,9.059717006705501],[76.16754956626605,9.08258170783194],[76.02956801749522,9.092807635204517],[76.02400737073388,9.074512637559701],[75.97551249656614,9.015694648587548],[75.96984576473649,9.014575028389615],[75.9536348844502,9.027880047761546],[75.94775975971415,9.042403315823343],[75.93338573411128,9.084232532296227],[75.91481245478316,9.15754732486769],[75.8558492791301,9.254388621706347],[75.76048726136365,9.336110264312964]]]},"properties":{"kind":"age","age_h":36,"in_age_prior":true}},{"type":"Feature","geometry":{"type":"Polygon","coordinates":[[[75.76984839009718,9.567522337253433],[75.80066704586726,9.642695882545766],[75.80915541552488,9.651588606763246],[75.91263962444275,9.689990095475235],[75.95121458723936,9.671556612157595],[75.99177681675545,9.641900722496107],[76.07836531219367,9.549696424102331],[76.12200140609924,9.510049820596876],[76.15160914687206,9.44618299483596],[76.1713808846358,9.343100077277622],[76.20758594871148,9.236864073277296],[76.23528065085992,9.13935849440105],[76.23100352339885,9.1239885019833],[76.22311911386066,9.121921925249652],[76.20346256563673,9.137634292454509],[76.1572258687836,9.223295382388349],[76.06866594427623,9.268104929987222],[76.02505978947072,9.240361400125236],[76.00158105364457,9.15621057263843],[75.94667498517002,9.08693893518799],[75.94035410625598,9.084010064611457],[75.92667216221017,9.090569200026668],[75.90676530227395,9.122526145314025],[75.89224484395848,9.153575199663232],[75.87511297548743,9.22692141752975],[75.82045031703528,9.313519431159241],[75.73770189324853,9.372595194592327],[75.73306660937375,9.379477763389445],[75.76984839009718,9.567522337253433]]]},"properties":{"kind":"age","age_h":48,"in_age_prior":true}},{"type":"Feature","geometry":{"type":"Polygon","coordinates":[[[75.71848321834183,9.77992044884615],[75.72134224912422,9.791821850027043],[75.74460270155267,9.801492630415208],[75.89492176208205,9.821314921722323],[75.94087102253897,9.804718446858278],[76.02094899132923,9.730651230009299],[76.11151683995038,9.628165273795341],[76.15793950219778,9.597947778790804],[76.19902503017971,9.512506790277094],[76.21735943267709,9.430843873028078],[76.25220200865719,9.304501493749912],[76.30090169379235,9.159398950173687],[76.3072339645746,9.133880097719363],[76.29922767774003,9.124334393350349],[76.29345444343745,9.123849569281795],[76.27571306394638,9.14205244864003],[76.2275901969689,9.205047436217583],[76.21158938754502,9.242920904797893],[76.07839002989931,9.303607848099219],[76.00709737583311,9.18276188565383],[76.00452829414598,9.167831360975855],[75.99653874349892,9.149277251935542],[75.91974254582692,9.069200799933238],[75.91467581430223,9.06891438042145],[75.89999583178378,9.079747810476725],[75.86149244911144,9.13244365420183],[75.85230275247912,9.215820467767188],[75.82229344598373,9.277593648159785],[75.70488104191878,9.361794421734075],[75.70727711843419,9.381675199185873],[75.7496222719882,9.49628638210769],[75.72952077037874,9.545278182002926],[75.72795088379583,9.557655408749577],[75.74191092448854,9.620039829613445],[75.71848321834183,9.77992044884615]]]},"properties":{"kind":"age","age_h":60,"in_age_prior":false}},{"type":"Feature","geometry":{"type":"Polygon","coordinates":[[[75.65334565989576,9.87285537867603],[75.65649548472095,9.878796363642582],[75.68358967967657,9.896183836780663],[75.88670264585672,9.91624542280015],[75.9284344840683,9.902084313738973],[76.04565499134156,9.799818895043185],[76.14762496569978,9.688842539130393],[76.19708814751789,9.657529602423129],[76.20411246907888,9.64850049277784],[76.30601407454776,9.378629231311702],[76.38232884881602,9.147462307732567],[76.38138126616153,9.14299272883439],[76.36692868680198,9.140267920378307],[76.34412523492098,9.157779870879269],[76.33358848228478,9.176620379792626],[76.29394662227566,9.228189524983806],[76.27302769503392,9.270250005805917],[76.12802337941928,9.360877710157656],[76.02859313418216,9.208646269379926],[76.03914832200215,9.184703461823721],[76.04104168727869,9.161483190103526],[75.94479407282634,9.072742489382996],[75.93420906548198,9.068634591166166],[75.93023585641576,9.069951560120886],[75.87945313380763,9.131335415533712],[75.87768588205861,9.152768284399924],[75.86497705703557,9.207570878673181],[75.8090448891386,9.296756389316512],[75.69998604581619,9.336284999467019],[75.72343540872538,9.645335377180293],[75.68159821345238,9.818600231802497],[75.65540538252996,9.84005744529198],[75.65334565989576,9.87285537867603]]]},"properties":{"kind":"age","age_h":72,"in_age_prior":false}},{"type":"Feature","geometry":{"type":"Polygon","coordinates":[[[75.91220460357044,8.923143389640137],[75.9202762510375,8.981714262625706],[75.91704388296394,8.991360838703155],[75.89283819233141,9.027279982156806],[75.88680026758496,9.046784273844361],[75.8885883140258,9.052365690023969],[75.88565846457179,9.05831510063856],[75.88919509571151,9.073411095564937],[75.8857602244948,9.079286828044067],[75.88647574218304,9.100081105494647],[75.88229296343638,9.106826665119183],[75.88426188585007,9.115316592866114],[75.88025263386699,9.121556397918685],[75.88205855954628,9.129642280899752],[75.8761076258128,9.1471836904924],[75.87769118097253,9.154106614564103],[75.87240413386405,9.175399679586246],[75.87680434493505,9.197366479047941],[75.87286536681644,9.22149088239709],[75.80178917389918,9.29293760542631],[75.76704036940045,9.322652146493983],[75.76356590491648,9.332360087873333],[75.75632121780296,9.339513190123421],[75.74569255936834,9.366635695742403],[75.73706197843846,9.373148933719943],[75.73287701988936,9.380746970617865],[75.76995680972385,9.567974516104252],[75.80085913173816,9.643103648707825],[75.820659643974,9.657579485820586],[75.91401063256306,9.690247205827893],[75.95121458723936,9.671556612157595],[75.99177681675545,9.641900722496107],[76.07836531219367,9.549696424102331],[76.12225300057558,9.509669402321366],[76.15180914559502,9.445669915546459],[76.1713808846358,9.343100077277622],[76.20758594871148,9.236864073277296],[76.23545192050264,9.138127776509906],[76.23100352339885,9.1239885019833],[76.22568311484814,9.121393640092851],[76.2169883569308,9.122497880575038],[76.21465810077952,9.117806623993912],[76.21149828585413,9.109692662605879],[76.2129755620334,9.097741387658974],[76.20370747123546,9.086333756657218],[76.20329038283255,9.075388297157481],[76.19474342874503,9.065040405621051],[76.18587785937227,9.029473770421022],[76.17095685296697,8.999725561634378],[76.16063938168102,8.991618639899515],[76.14218584260662,8.966148198535736],[76.12363546284678,8.8848388997872],[76.11923180134872,8.879539786655524],[76.11811257846877,8.870239630244898],[76.10492411040052,8.83998290616157],[76.09550175887702,8.800763600825372],[76.09179948595435,8.797973892166798],[76.0895258807209,8.789034253786738],[76.08397088301437,8.786210358828049],[76.05595745912181,8.743383937936043],[76.0472457066482,8.734697705113986],[76.02488146791198,8.72585216098822],[75.99289796897183,8.767521210519662],[75.97424896217026,8.800177406531487],[75.96310294102153,8.838411786939306],[75.94521575623108,8.87674706897538],[75.91220460357044,8.923143389640137]]]},"properties":{"kind":"release_corridor","age_prior_h":{"min":2,"max":48,"label":"weak prior","spreading_min_h":0.1}}},{"type":"Feature","geometry":{"type":"Polygon","coordinates":[[[75.7357595943455,9.289845570977631],[75.69193755138006,9.360130023889091],[75.68792901231957,9.387784989093149],[75.72706132249535,9.582926888425622],[75.76182484922647,9.666269913665161],[75.79185711898538,9.693815688918384],[75.90013162019967,9.73346527118162],[75.92000190677709,9.735121637877498],[75.93478579751755,9.731031067890111],[75.97671259325917,9.708989775886684],[76.02036081034143,9.67705833131266],[76.16254368973912,9.530598659527172],[76.19586900277373,9.456776845459899],[76.21554240184814,9.354123350699384],[76.25132557250095,9.249160080313997],[76.27954172318879,9.149643176710269],[76.28045244186634,9.13148954951681],[76.27315581955733,9.106286109531167],[76.25706039322942,9.086870626719927],[76.23597809473841,9.043501168819452],[76.227910489684,9.012266141065888],[76.21121767326758,8.978734680564264],[76.18490945371755,8.947021434956147],[76.16674998603547,8.870523613772553],[76.13626526562392,8.780761023506326],[76.08864991872677,8.711482443521389],[76.06501275755451,8.692629227256935],[76.03249240090297,8.680294694045319],[76.00376661194699,8.685808971675888],[75.98735109614874,8.699690683314776],[75.94247365992751,8.762446241389164],[75.90629959779469,8.852755348521786],[75.88627426355603,8.878158872539904],[75.86785091074492,8.913008327182773],[75.87274709970379,8.97551418943022],[75.85159355098972,9.008278642534965],[75.84209946658532,9.03858404540531],[75.84049339364863,9.084091689030764],[75.82723137738863,9.170392114425708],[75.82855285648586,9.20239830021253],[75.7357595943455,9.289845570977631]]]},"properties":{"kind":"expanded_corridor_for_veto","margin_km":5.0}}],"properties":{"physics":{"formula":"V_oil = V_current + V_tide + V_Stokes + alpha * V_wind10","current_source":"CMEMS SMOC (uo+utide, vo+vtide)","stokes_source":"CMEMS SMOC (vsdx, vsdy)","wind_source":"ERA5 10 m (u10, v10)","alpha":0.02,"alpha_range":[0.01,0.03],"current_scale_sd":0.15,"wind_rotation_sd_deg":10.0,"current_error_sd_ms":0.1,"diffusion_m2s":1.0,"time_step_s":900,"backward_members":10,"backward_particles":500,"forward_members":5,"max_age_h":72}}}