{"type":"FeatureCollection","features":[{"type":"Feature","geometry":{"type":"Polygon","coordinates":[[[76.0439593590695,8.626053650264671],[75.98554126260618,8.695791634087495],[76.00100289428573,8.710228674074129],[76.01540840560975,8.712361249939587],[76.06629320671432,8.64822654851259],[76.08233075414826,8.620143219266442],[76.09003658963567,8.596718895222871],[76.13311956631027,8.541897764655625],[76.15736420605505,8.520482994204242],[76.17468414748379,8.496695132069213],[76.18273816701146,8.477701048969866],[76.18177231676674,8.469405328735528],[76.16517469975561,8.468509426820336],[76.10813675010863,8.518777282906465],[76.08767466326192,8.547483672080354],[76.0439593590695,8.626053650264671]]]},"properties":{"kind":"forecast_envelope","hours":24,"active_fraction":1.0}},{"type":"Feature","geometry":{"type":"Polygon","coordinates":[[[76.09114027234324,8.414814952608134],[76.08675713971039,8.424400542718585],[76.1050632293938,8.44196740070586],[76.11634516630002,8.443746721050235],[76.1246849771958,8.438114898028493],[76.18702346243897,8.382581228639788],[76.24121961019068,8.311428161444777],[76.31038550777963,8.251418306421833],[76.33550069644076,8.221745364691078],[76.34963609849241,8.194979847952576],[76.34890767067664,8.190376530871069],[76.33989523323368,8.18636152915328],[76.32653482771138,8.186749093967126],[76.25850495459761,8.237877576045953],[76.15752492451787,8.359557716581643],[76.09114027234324,8.414814952608134]]]},"properties":{"kind":"forecast_envelope","hours":48,"active_fraction":1.0}},{"type":"Feature","geometry":{"type":"Polygon","coordinates":[[[76.20875899503777,8.194184886864683],[76.22099141440765,8.208230255643858],[76.236786176051,8.2079040104948],[76.24645480433205,8.204441074987415],[76.2996584764219,8.168164971154148],[76.388743421153,8.088652734090726],[76.50655501666623,8.001520990116923],[76.51873905636809,7.970293317298928],[76.51893886399792,7.9545929495108565],[76.49814477235574,7.94412310141436],[76.43819544482365,7.983091796179332],[76.3514256180398,8.070050701373315],[76.26904929472877,8.136382924646842],[76.21477757882339,8.175222108073857],[76.20738653376436,8.185220662569835],[76.20875899503777,8.194184886864683]]]},"properties":{"kind":"forecast_envelope","hours":72,"active_fraction":1.0}}],"properties":{"model":"OpenDrift OpenOil","oil_type":"GENERIC INTERMEDIATE FUEL OIL 180","hours":72,"coastal_impact":false,"stranded_elements":0,"elements":1500,"mass_budget_fraction":{"mass_oil":[1.0,0.9797000288963318,0.9645000100135803,0.9506999850273132,0.9373999834060669,0.9247000217437744,0.9122999906539917,0.9004999995231628,0.8898000121116638,0.8805000185966492,0.873199999332428,0.864799976348877,0.8514999747276306,0.8357999920845032,0.8238999843597412,0.817799985408783,0.8138999938964844,0.8108999729156494,0.8080999851226807,0.8051999807357788,0.8021000027656555,0.7989000082015991,0.7955999970436096,0.7919999957084656,0.7883999943733215,0.788100004196167,0.7878000140190125,0.7874000072479248,0.7871000170707703,0.7868000268936157,0.7864000201225281,0.7858999967575073,0.7853000164031982,0.7843999862670898,0.7835000157356262,0.782800018787384,0.7817999720573425,0.7809000015258789,0.7807999849319458,0.7807999849319458,0.7807999849319458,0.7807999849319458,0.7807999849319458,0.7807999849319458,0.7807999849319458,0.7807999849319458,0.7807999849319458,0.7807999849319458,0.7807999849319458,0.7807999849319458,0.7807999849319458,0.7807999849319458,0.7807999849319458,0.7807999849319458,0.7807999849319458,0.7807999849319458,0.7807000279426575,0.7806000113487244,0.7799999713897705,0.7797999978065491,0.7797999978065491,0.7797999978065491,0.7797999978065491,0.7797999978065491,0.7797999978065491,0.7797999978065491,0.7797999978065491,0.7797999978065491,0.7797999978065491,0.7797999978065491,0.7797999978065491,0.7797999978065491],"mass_evaporated":[0.0,0.017000000923871994,0.02850000001490116,0.03929999843239784,0.04960000142455101,0.05939999967813492,0.06880000233650208,0.07760000228881836,0.0860000029206276,0.09359999746084213,0.10040000081062317,0.10729999840259552,0.11469999700784683,0.12210000306367874,0.12849999964237213,0.13359999656677246,0.13740000128746033,0.1404000073671341,0.14319999516010284,0.1460999995470047,0.14920000731945038,0.1525000035762787,0.15569999814033508,0.1590999960899353,0.1624000072479248,0.1624000072479248,0.1624000072479248,0.1624000072479248,0.1624000072479248,0.1624000072479248,0.1624000072479248,0.1624000072479248,0.1624000072479248,0.1624000072479248,0.1624000072479248,0.1624000072479248,0.1624000072479248,0.1624000072479248,0.1624000072479248,0.1624000072479248,0.1624000072479248,0.1624000072479248,0.1624000072479248,0.1624000072479248,0.1624000072479248,0.1624000072479248,0.1624000072479248,0.1624000072479248,0.1624000072479248,0.1624000072479248,0.1624000072479248,0.1624000072479248,0.1624000072479248,0.1624000072479248,0.1624000072479248,0.1624000072479248,0.1624000072479248,0.1624000072479248,0.1624000072479248,0.1624000072479248,0.1624000072479248,0.1624000072479248,0.1624000072479248,0.1624000072479248,0.1624000072479248,0.1624000072479248,0.1624000072479248,0.1624000072479248,0.1624000072479248,0.1624000072479248,0.1624000072479248,0.1624000072479248],"mass_dispersed":[0.0,0.0032999999821186066,0.007000000216066837,0.009999999776482582,0.013000000268220901,0.01590000092983246,0.01899999938905239,0.021800000220537186,0.024299999698996544,0.02590000070631504,0.026399999856948853,0.027899999171495438,0.033799998462200165,0.042100001126527786,0.047600001096725464,0.048700001090765,0.048700001090765,0.048700001090765,0.048700001090765,0.048700001090765,0.048700001090765,0.048700001090765,0.048700001090765,0.048900000751018524,0.04919999837875366,0.0494999997317791,0.04989999905228615,0.050200000405311584,0.05050000175833702,0.05079999938607216,0.05119999870657921,0.05169999971985817,0.052400000393390656,0.053199999034404755,0.054099999368190765,0.05480000004172325,0.055799998342990875,0.0568000003695488,0.05689999833703041,0.05689999833703041,0.05689999833703041,0.05689999833703041,0.05689999833703041,0.05689999833703041,0.05689999833703041,0.05689999833703041,0.05689999833703041,0.05689999833703041,0.05689999833703041,0.05689999833703041,0.05689999833703041,0.05689999833703041,0.05689999833703041,0.05689999833703041,0.05689999833703041,0.05689999833703041,0.05689999833703041,0.05700000002980232,0.0575999990105629,0.05779999867081642,0.05779999867081642,0.05779999867081642,0.05779999867081642,0.05779999867081642,0.05779999867081642,0.05779999867081642,0.05779999867081642,0.05779999867081642,0.05779999867081642,0.05779999867081642,0.05779999867081642,0.05779999867081642]}}}