{"type":"FeatureCollection","features":[{"type":"Feature","geometry":{"type":"Point","coordinates":[75.79552,9.14644]},"properties":{"peak_db":-1.7,"area_px":3,"approx_length_m":73,"platform":false}},{"type":"Feature","geometry":{"type":"Point","coordinates":[76.3559,9.0278]},"properties":{"peak_db":-7.5,"area_px":1,"approx_length_m":42,"platform":false}},{"type":"Feature","geometry":{"type":"Point","coordinates":[76.63116,8.96959]},"properties":{"peak_db":-2.4,"area_px":1,"approx_length_m":42,"platform":false}},{"type":"Feature","geometry":{"type":"Point","coordinates":[76.63038,8.96918]},"properties":{"peak_db":-2.0,"area_px":2,"approx_length_m":59,"platform":false}},{"type":"Feature","geometry":{"type":"Point","coordinates":[76.60843,8.97217]},"properties":{"peak_db":17.3,"area_px":6,"approx_length_m":103,"platform":false}},{"type":"Feature","geometry":{"type":"Point","coordinates":[76.60823,8.97052]},"properties":{"peak_db":7.8,"area_px":1,"approx_length_m":42,"platform":false}},{"type":"Feature","geometry":{"type":"Point","coordinates":[76.60871,8.97015]},"properties":{"peak_db":7.3,"area_px":1,"approx_length_m":42,"platform":false}},{"type":"Feature","geometry":{"type":"Point","coordinates":[76.60812,8.96998]},"properties":{"peak_db":3.6,"area_px":1,"approx_length_m":42,"platform":false}},{"type":"Feature","geometry":{"type":"Point","coordinates":[75.97742,9.0827]},"properties":{"peak_db":-6.3,"area_px":1,"approx_length_m":42,"platform":false}},{"type":"Feature","geometry":{"type":"Point","coordinates":[76.59566,8.95264]},"properties":{"peak_db":8.0,"area_px":2,"approx_length_m":59,"platform":false}},{"type":"Feature","geometry":{"type":"Point","coordinates":[76.59316,8.95131]},"properties":{"peak_db":1.9,"area_px":1,"approx_length_m":42,"platform":false}},{"type":"Feature","geometry":{"type":"Point","coordinates":[75.93771,9.06596]},"properties":{"peak_db":2.0,"area_px":3,"approx_length_m":73,"platform":false}},{"type":"Feature","geometry":{"type":"Point","coordinates":[75.85075,9.02033]},"properties":{"peak_db":19.8,"area_px":22,"approx_length_m":197,"platform":false}},{"type":"Feature","geometry":{"type":"Point","coordinates":[76.48169,8.87307]},"properties":{"peak_db":0.2,"area_px":3,"approx_length_m":73,"platform":false}},{"type":"Feature","geometry":{"type":"Point","coordinates":[76.5577,8.84961]},"properties":{"peak_db":-2.7,"area_px":4,"approx_length_m":84,"platform":false}},{"type":"Feature","geometry":{"type":"Point","coordinates":[76.51778,8.85593]},"properties":{"peak_db":0.1,"area_px":4,"approx_length_m":84,"platform":false}},{"type":"Feature","geometry":{"type":"Point","coordinates":[76.55027,8.848]},"properties":{"peak_db":-5.9,"area_px":2,"approx_length_m":59,"platform":false}},{"type":"Feature","geometry":{"type":"Point","coordinates":[76.55269,8.84704]},"properties":{"peak_db":1.1,"area_px":5,"approx_length_m":94,"platform":false}},{"type":"Feature","geometry":{"type":"Point","coordinates":[76.5367,8.84904]},"properties":{"peak_db":2.4,"area_px":8,"approx_length_m":119,"platform":false}},{"type":"Feature","geometry":{"type":"Point","coordinates":[76.55767,8.84469]},"properties":{"peak_db":-4.5,"area_px":1,"approx_length_m":42,"platform":false}},{"type":"Feature","geometry":{"type":"Point","coordinates":[76.52276,8.84785]},"properties":{"peak_db":-0.9,"area_px":3,"approx_length_m":73,"platform":false}},{"type":"Feature","geometry":{"type":"Point","coordinates":[76.52765,8.84635]},"properties":{"peak_db":3.6,"area_px":2,"approx_length_m":59,"platform":false}},{"type":"Feature","geometry":{"type":"Point","coordinates":[76.55798,8.83941]},"properties":{"peak_db":-6.3,"area_px":2,"approx_length_m":59,"platform":false}},{"type":"Feature","geometry":{"type":"Point","coordinates":[76.52378,8.84592]},"properties":{"peak_db":-0.7,"area_px":5,"approx_length_m":94,"platform":false}},{"type":"Feature","geometry":{"type":"Point","coordinates":[76.52991,8.84378]},"properties":{"peak_db":-6.4,"area_px":1,"approx_length_m":42,"platform":false}},{"type":"Feature","geometry":{"type":"Point","coordinates":[76.53954,8.84115]},"properties":{"peak_db":1.4,"area_px":4,"approx_length_m":84,"platform":false}},{"type":"Feature","geometry":{"type":"Point","coordinates":[76.53659,8.84033]},"properties":{"peak_db":3.6,"area_px":4,"approx_length_m":84,"platform":false}},{"type":"Feature","geometry":{"type":"Point","coordinates":[76.54387,8.83647]},"properties":{"peak_db":0.6,"area_px":6,"approx_length_m":103,"platform":false}},{"type":"Feature","geometry":{"type":"Point","coordinates":[76.53105,8.83708]},"properties":{"peak_db":-5.0,"area_px":1,"approx_length_m":42,"platform":false}},{"type":"Feature","geometry":{"type":"Point","coordinates":[76.54542,8.8318]},"properties":{"peak_db":2.1,"area_px":4,"approx_length_m":84,"platform":false}},{"type":"Feature","geometry":{"type":"Point","coordinates":[76.56188,8.81268]},"properties":{"peak_db":2.3,"area_px":3,"approx_length_m":73,"platform":false}},{"type":"Feature","geometry":{"type":"Point","coordinates":[75.95945,8.87902]},"properties":{"peak_db":7.7,"area_px":17,"approx_length_m":173,"platform":false}},{"type":"Feature","geometry":{"type":"Point","coordinates":[75.93815,8.87514]},"properties":{"peak_db":18.9,"area_px":22,"approx_length_m":197,"platform":false}},{"type":"Feature","geometry":{"type":"Point","coordinates":[76.00239,8.7718]},"properties":{"peak_db":18.1,"area_px":25,"approx_length_m":210,"platform":false}},{"type":"Feature","geometry":{"type":"Point","coordinates":[76.39074,8.66379]},"properties":{"peak_db":1.4,"area_px":5,"approx_length_m":94,"platform":false}},{"type":"Feature","geometry":{"type":"Point","coordinates":[75.67957,8.77834]},"properties":{"peak_db":-1.3,"area_px":2,"approx_length_m":59,"platform":false}},{"type":"Feature","geometry":{"type":"Point","coordinates":[76.10196,8.66565]},"properties":{"peak_db":18.7,"area_px":20,"approx_length_m":188,"platform":false}},{"type":"Feature","geometry":{"type":"Point","coordinates":[76.87731,8.4942]},"properties":{"peak_db":-6.0,"area_px":2,"approx_length_m":59,"platform":false}},{"type":"Feature","geometry":{"type":"Point","coordinates":[76.87574,8.49325]},"properties":{"peak_db":-8.0,"area_px":1,"approx_length_m":42,"platform":false}},{"type":"Feature","geometry":{"type":"Point","coordinates":[75.94851,8.67767]},"properties":{"peak_db":10.0,"area_px":15,"approx_length_m":163,"platform":false}},{"type":"Feature","geometry":{"type":"Point","coordinates":[76.09281,8.61571]},"properties":{"peak_db":-6.9,"area_px":3,"approx_length_m":73,"platform":false}},{"type":"Feature","geometry":{"type":"Point","coordinates":[76.14702,8.6018]},"properties":{"peak_db":16.9,"area_px":24,"approx_length_m":206,"platform":false}},{"type":"Feature","geometry":{"type":"Point","coordinates":[76.81787,8.45339]},"properties":{"peak_db":1.5,"area_px":4,"approx_length_m":84,"platform":false}},{"type":"Feature","geometry":{"type":"Point","coordinates":[75.56318,8.70273]},"properties":{"peak_db":20.1,"area_px":22,"approx_length_m":197,"platform":false}},{"type":"Feature","geometry":{"type":"Point","coordinates":[75.76888,8.62185]},"properties":{"peak_db":-4.3,"area_px":3,"approx_length_m":73,"platform":false}},{"type":"Feature","geometry":{"type":"Point","coordinates":[75.55243,8.65132]},"properties":{"peak_db":-5.3,"area_px":2,"approx_length_m":59,"platform":false}},{"type":"Feature","geometry":{"type":"Point","coordinates":[76.31902,8.49131]},"properties":{"peak_db":10.4,"area_px":18,"approx_length_m":178,"platform":false}},{"type":"Feature","geometry":{"type":"Point","coordinates":[76.16885,8.50809]},"properties":{"peak_db":0.5,"area_px":7,"approx_length_m":111,"platform":false}},{"type":"Feature","geometry":{"type":"Point","coordinates":[76.34257,8.45215]},"properties":{"peak_db":10.2,"area_px":19,"approx_length_m":183,"platform":false}},{"type":"Feature","geometry":{"type":"Point","coordinates":[76.38658,8.4386]},"properties":{"peak_db":13.3,"area_px":22,"approx_length_m":197,"platform":false}},{"type":"Feature","geometry":{"type":"Point","coordinates":[77.06356,8.23436]},"properties":{"peak_db":21.7,"area_px":19,"approx_length_m":183,"platform":false}},{"type":"Feature","geometry":{"type":"Point","coordinates":[75.88155,8.41291]},"properties":{"peak_db":6.2,"area_px":12,"approx_length_m":145,"platform":false}},{"type":"Feature","geometry":{"type":"Point","coordinates":[75.73543,8.4324]},"properties":{"peak_db":12.1,"area_px":25,"approx_length_m":210,"platform":false}},{"type":"Feature","geometry":{"type":"Point","coordinates":[75.60446,8.43202]},"properties":{"peak_db":-7.8,"area_px":1,"approx_length_m":42,"platform":false}},{"type":"Feature","geometry":{"type":"Point","coordinates":[77.04608,8.10575]},"properties":{"peak_db":6.8,"area_px":11,"approx_length_m":139,"platform":false}},{"type":"Feature","geometry":{"type":"Point","coordinates":[76.94266,8.07462]},"properties":{"peak_db":1.5,"area_px":2,"approx_length_m":59,"platform":false}},{"type":"Feature","geometry":{"type":"Point","coordinates":[76.94354,8.07379]},"properties":{"peak_db":8.4,"area_px":10,"approx_length_m":133,"platform":false}},{"type":"Feature","geometry":{"type":"Point","coordinates":[76.4332,8.17601]},"properties":{"peak_db":12.0,"area_px":17,"approx_length_m":173,"platform":false}},{"type":"Feature","geometry":{"type":"Point","coordinates":[77.11756,8.02461]},"properties":{"peak_db":-6.0,"area_px":1,"approx_length_m":42,"platform":false}},{"type":"Feature","geometry":{"type":"Point","coordinates":[76.79764,8.06588]},"properties":{"peak_db":20.2,"area_px":21,"approx_length_m":192,"platform":false}},{"type":"Feature","geometry":{"type":"Point","coordinates":[77.3826,7.89234]},"properties":{"peak_db":1.9,"area_px":4,"approx_length_m":84,"platform":false}},{"type":"Feature","geometry":{"type":"Point","coordinates":[77.3837,7.89176]},"properties":{"peak_db":14.3,"area_px":13,"approx_length_m":151,"platform":false}},{"type":"Feature","geometry":{"type":"Point","coordinates":[77.22216,7.86833]},"properties":{"peak_db":-1.9,"area_px":3,"approx_length_m":73,"platform":false}},{"type":"Feature","geometry":{"type":"Point","coordinates":[77.43479,7.77264]},"properties":{"peak_db":12.8,"area_px":6,"approx_length_m":103,"platform":false}},{"type":"Feature","geometry":{"type":"Point","coordinates":[77.43388,7.77316]},"properties":{"peak_db":2.0,"area_px":2,"approx_length_m":59,"platform":false}},{"type":"Feature","geometry":{"type":"Point","coordinates":[76.8197,7.88162]},"properties":{"peak_db":12.3,"area_px":16,"approx_length_m":168,"platform":false}}],"properties":{"method":"two-window CFAR, 30 m, 9.0 dB over local background","validated":false}}