{"type":"FeatureCollection","features":[{"type":"Feature","geometry":{"type":"MultiPolygon","coordinates":[[[[75.910693,8.923618],[75.912067,8.923618],[75.912067,8.922244],[75.912753,8.922244],[75.912753,8.921558],[75.914127,8.921558],[75.914127,8.920871],[75.9155,8.920871],[75.9155,8.919498],[75.916187,8.919498],[75.916187,8.918811],[75.916873,8.918811],[75.916873,8.918124],[75.91756,8.918124],[75.91756,8.918811],[75.918933,8.918811],[75.918933,8.918124],[75.91962,8.918124],[75.91962,8.917438],[75.920993,8.917438],[75.920993,8.916751],[75.922366,8.916751],[75.922366,8.916064],[75.923053,8.916064],[75.923053,8.914691],[75.92374,8.914691],[75.92374,8.914005],[75.924426,8.914005],[75.924426,8.913318],[75.925113,8.913318],[75.925113,8.912631],[75.9258,8.912631],[75.9258,8.910571],[75.927173,8.910571],[75.927173,8.909885],[75.927859,8.909885],[75.927859,8.909198],[75.929233,8.909198],[75.929233,8.908511],[75.929919,8.908511],[75.929919,8.907825],[75.930606,8.907825],[75.930606,8.905765],[75.931293,8.905765],[75.931293,8.905078],[75.931979,8.905078],[75.931979,8.903018],[75.932666,8.903018],[75.932666,8.901645],[75.933353,8.901645],[75.933353,8.900272],[75.934726,8.900272],[75.934726,8.899585],[75.935413,8.899585],[75.935413,8.896838],[75.936099,8.896838],[75.936099,8.896152],[75.936786,8.896152],[75.936786,8.894092],[75.937473,8.894092],[75.937473,8.893405],[75.938846,8.893405],[75.938846,8.889285],[75.939532,8.889285],[75.939532,8.888599],[75.940219,8.888599],[75.940219,8.887912],[75.940906,8.887912],[75.940906,8.887225],[75.941592,8.887225],[75.941592,8.885852],[75.942966,8.885852],[75.942966,8.885165],[75.943652,8.885165],[75.943652,8.884479],[75.944339,8.884479],[75.944339,8.883105],[75.945026,8.883105],[75.945026,8.881732],[75.945712,8.881732],[75.945712,8.880359],[75.946399,8.880359],[75.946399,8.878299],[75.947086,8.878299],[75.947086,8.876926],[75.947772,8.876926],[75.947772,8.876239],[75.948459,8.876239],[75.948459,8.875552],[75.949146,8.875552],[75.949146,8.874866],[75.949832,8.874866],[75.949832,8.873492],[75.951205,8.873492],[75.951205,8.872806],[75.951892,8.872806],[75.951892,8.872119],[75.953265,8.872119],[75.953265,8.871432],[75.953952,8.871432],[75.953952,8.870746],[75.954639,8.870746],[75.954639,8.869373],[75.955325,8.869373],[75.955325,8.868686],[75.956699,8.868686],[75.956699,8.866626],[75.958072,8.866626],[75.958072,8.865939],[75.958759,8.865939],[75.958759,8.865253],[75.959445,8.865253],[75.959445,8.863879],[75.960132,8.863879],[75.960132,8.861819],[75.960818,8.861819],[75.960818,8.861133],[75.961505,8.861133],[75.961505,8.85976],[75.962192,8.85976],[75.962192,8.858386],[75.963565,8.858386],[75.963565,8.856326],[75.964252,8.856326],[75.964252,8.854266],[75.964938,8.854266],[75.964938,8.852893],[75.965625,8.852893],[75.965625,8.852206],[75.964938,8.852206],[75.964938,8.85152],[75.965625,8.85152],[75.965625,8.8474],[75.966312,8.8474],[75.966312,8.846027],[75.966998,8.846027],[75.966998,8.84534],[75.967685,8.84534],[75.967685,8.844653],[75.966998,8.844653],[75.966998,8.843967],[75.967685,8.843967],[75.967685,8.84328],[75.968372,8.84328],[75.968372,8.84122],[75.969058,8.84122],[75.969058,8.840533],[75.969745,8.840533],[75.969745,8.83916],[75.971118,8.83916],[75.971118,8.836414],[75.970432,8.836414],[75.970432,8.83504],[75.971118,8.83504],[75.971118,8.833667],[75.971805,8.833667],[75.971805,8.83298],[75.973178,8.83298],[75.973178,8.832294],[75.974551,8.832294],[75.974551,8.83092],[75.975238,8.83092],[75.975238,8.832294],[75.975925,8.832294],[75.975925,8.831607],[75.976611,8.831607],[75.976611,8.830234],[75.975925,8.830234],[75.975925,8.829547],[75.976611,8.829547],[75.976611,8.82886],[75.975925,8.82886],[75.975925,8.825427],[75.976611,8.825427],[75.976611,8.824741],[75.975925,8.824741],[75.975925,8.823367],[75.976611,8.823367],[75.976611,8.821307],[75.977985,8.821307],[75.977985,8.819934],[75.977298,8.819934],[75.977298,8.818561],[75.977985,8.818561],[75.977985,8.817188],[75.979358,8.817188],[75.979358,8.815814],[75.980731,8.815814],[75.980731,8.813754],[75.980045,8.813754],[75.980045,8.813068],[75.979358,8.813068],[75.979358,8.808261],[75.980045,8.808261],[75.980045,8.807574],[75.978671,8.807574],[75.978671,8.806888],[75.979358,8.806888],[75.979358,8.806201],[75.978671,8.806201],[75.978671,8.804828],[75.979358,8.804828],[75.979358,8.804141],[75.980045,8.804141],[75.980045,8.803455],[75.979358,8.803455],[75.979358,8.801395],[75.980045,8.801395],[75.980045,8.800708],[75.980731,8.800708],[75.980731,8.798648],[75.981418,8.798648],[75.981418,8.796588],[75.982791,8.796588],[75.982791,8.795215],[75.983478,8.795215],[75.983478,8.793842],[75.984164,8.793842],[75.984164,8.792468],[75.985538,8.792468],[75.985538,8.791782],[75.986224,8.791782],[75.986224,8.793155],[75.986911,8.793155],[75.986911,8.792468],[75.987598,8.792468],[75.987598,8.791782],[75.988971,8.791782],[75.988971,8.791095],[75.989658,8.791095],[75.989658,8.790408],[75.988971,8.790408],[75.988971,8.789035],[75.989658,8.789035],[75.989658,8.788348],[75.990344,8.788348],[75.990344,8.787662],[75.991031,8.787662],[75.991031,8.785602],[75.990344,8.785602],[75.990344,8.784915],[75.989658,8.784915],[75.989658,8.781482],[75.991718,8.781482],[75.991718,8.780795],[75.992404,8.780795],[75.992404,8.780109],[75.993091,8.780109],[75.993091,8.779422],[75.994464,8.779422],[75.994464,8.777362],[75.995837,8.777362],[75.995837,8.776675],[75.997211,8.776675],[75.997211,8.775989],[75.999957,8.775989],[75.999957,8.775302],[76.000644,8.775302],[76.000644,8.771869],[75.998584,8.771869],[75.998584,8.771182],[76.000644,8.771182],[76.000644,8.770496],[76.001331,8.770496],[76.001331,8.769809],[76.000644,8.769809],[76.000644,8.769122],[76.001331,8.769122],[76.001331,8.768436],[76.002017,8.768436],[76.002017,8.765002],[76.002704,8.765002],[76.002704,8.764316],[76.003391,8.764316],[76.003391,8.762256],[76.004764,8.762256],[76.004764,8.760196],[76.00545,8.760196],[76.00545,8.759509],[76.006137,8.759509],[76.006137,8.758136],[76.006824,8.758136],[76.006824,8.756763],[76.00545,8.756763],[76.00545,8.757449],[76.004764,8.757449],[76.004764,8.758136],[76.004077,8.758136],[76.004077,8.760196],[76.003391,8.760196],[76.003391,8.760883],[76.001331,8.760883],[76.001331,8.762256],[75.998584,8.762256],[75.998584,8.762943],[75.997897,8.762943],[75.997897,8.763629],[75.997211,8.763629],[75.997211,8.765689],[75.995837,8.765689],[75.995837,8.766376],[75.995151,8.766376],[75.995151,8.767062],[75.994464,8.767062],[75.994464,8.768436],[75.993777,8.768436],[75.993777,8.769122],[75.992404,8.769122],[75.992404,8.769809],[75.991031,8.769809],[75.991031,8.771182],[75.990344,8.771182],[75.990344,8.771869],[75.991031,8.771869],[75.991031,8.772556],[75.990344,8.772556],[75.990344,8.773929],[75.988971,8.773929],[75.988971,8.774615],[75.988284,8.774615],[75.988284,8.775989],[75.987598,8.775989],[75.987598,8.776675],[75.986911,8.776675],[75.986911,8.777362],[75.986224,8.777362],[75.986224,8.776675],[75.985538,8.776675],[75.985538,8.777362],[75.984851,8.777362],[75.984851,8.779422],[75.985538,8.779422],[75.985538,8.780109],[75.984851,8.780109],[75.984851,8.780795],[75.984164,8.780795],[75.984164,8.781482],[75.984851,8.781482],[75.984851,8.782169],[75.984164,8.782169],[75.984164,8.784229],[75.983478,8.784229],[75.983478,8.785602],[75.982104,8.785602],[75.982104,8.788348],[75.980731,8.788348],[75.980731,8.790408],[75.979358,8.790408],[75.979358,8.793842],[75.978671,8.793842],[75.978671,8.794528],[75.977985,8.794528],[75.977985,8.797275],[75.978671,8.797275],[75.978671,8.797961],[75.977985,8.797961],[75.977985,8.801395],[75.977298,8.801395],[75.977298,8.802081],[75.975925,8.802081],[75.975925,8.802768],[75.977985,8.802768],[75.977985,8.804828],[75.977298,8.804828],[75.977298,8.807574],[75.976611,8.807574],[75.976611,8.808948],[75.975238,8.808948],[75.975238,8.811008],[75.975925,8.811008],[75.975925,8.810321],[75.976611,8.810321],[75.976611,8.809634],[75.977985,8.809634],[75.977985,8.811008],[75.977298,8.811008],[75.977298,8.812381],[75.975925,8.812381],[75.975925,8.815814],[75.975238,8.815814],[75.975238,8.816501],[75.974551,8.816501],[75.974551,8.817188],[75.973178,8.817188],[75.973178,8.817874],[75.973865,8.817874],[75.973865,8.818561],[75.973178,8.818561],[75.973178,8.819247],[75.972491,8.819247],[75.972491,8.825427],[75.970432,8.825427],[75.970432,8.828174],[75.969745,8.828174],[75.969745,8.830234],[75.969058,8.830234],[75.969058,8.83092],[75.968372,8.83092],[75.968372,8.832294],[75.967685,8.832294],[75.967685,8.83298],[75.966998,8.83298],[75.966998,8.834354],[75.966312,8.834354],[75.966312,8.83504],[75.964938,8.83504],[75.964938,8.83916],[75.964252,8.83916],[75.964252,8.840533],[75.962878,8.840533],[75.962878,8.84122],[75.963565,8.84122],[75.963565,8.841907],[75.962192,8.841907],[75.962192,8.843967],[75.962878,8.843967],[75.962878,8.844653],[75.963565,8.844653],[75.963565,8.846027],[75.962878,8.846027],[75.962878,8.846713],[75.961505,8.846713],[75.961505,8.848087],[75.962192,8.848087],[75.962192,8.848773],[75.961505,8.848773],[75.961505,8.84946],[75.960818,8.84946],[75.960818,8.850146],[75.960132,8.850146],[75.960132,8.850833],[75.960818,8.850833],[75.960818,8.85152],[75.959445,8.85152],[75.959445,8.85358],[75.958759,8.85358],[75.958759,8.85564],[75.958072,8.85564],[75.958072,8.8577],[75.956699,8.8577],[75.956699,8.859073],[75.957385,8.859073],[75.957385,8.861819],[75.956699,8.861819],[75.956699,8.864566],[75.956012,8.864566],[75.956012,8.865253],[75.955325,8.865253],[75.955325,8.866626],[75.954639,8.866626],[75.954639,8.867313],[75.953265,8.867313],[75.953265,8.869373],[75.952579,8.869373],[75.952579,8.870059],[75.950519,8.870059],[75.950519,8.870746],[75.949832,8.870746],[75.949832,8.871432],[75.949146,8.871432],[75.949146,8.872119],[75.948459,8.872119],[75.948459,8.872806],[75.947772,8.872806],[75.947772,8.873492],[75.946399,8.873492],[75.946399,8.874866],[75.945712,8.874866],[75.945712,8.876239],[75.944339,8.876239],[75.944339,8.876926],[75.943652,8.876926],[75.943652,8.878299],[75.942279,8.878299],[75.942279,8.878986],[75.943652,8.878986],[75.943652,8.879672],[75.942966,8.879672],[75.942966,8.880359],[75.942279,8.880359],[75.942279,8.881732],[75.941592,8.881732],[75.941592,8.882419],[75.940906,8.882419],[75.940906,8.884479],[75.940219,8.884479],[75.940219,8.885165],[75.939532,8.885165],[75.939532,8.885852],[75.938159,8.885852],[75.938159,8.886539],[75.936786,8.886539],[75.936786,8.887225],[75.937473,8.887225],[75.937473,8.888599],[75.936786,8.888599],[75.936786,8.889285],[75.936099,8.889285],[75.936099,8.887912],[75.935413,8.887912],[75.935413,8.888599],[75.934726,8.888599],[75.934726,8.889285],[75.934039,8.889285],[75.934039,8.889972],[75.933353,8.889972],[75.933353,8.890659],[75.932666,8.890659],[75.932666,8.891345],[75.931979,8.891345],[75.931979,8.892032],[75.931293,8.892032],[75.931293,8.892719],[75.930606,8.892719],[75.930606,8.894778],[75.929233,8.894778],[75.929233,8.896838],[75.929919,8.896838],[75.929919,8.897525],[75.928546,8.897525],[75.928546,8.898212],[75.927859,8.898212],[75.927859,8.898898],[75.927173,8.898898],[75.927173,8.898212],[75.92374,8.898212],[75.92374,8.898898],[75.923053,8.898898],[75.923053,8.900272],[75.92374,8.900272],[75.92374,8.900958],[75.924426,8.900958],[75.924426,8.903705],[75.925113,8.903705],[75.925113,8.905078],[75.927859,8.905078],[75.927859,8.906451],[75.9258,8.906451],[75.9258,8.907138],[75.924426,8.907138],[75.924426,8.909198],[75.92374,8.909198],[75.92374,8.909885],[75.922366,8.909885],[75.922366,8.909198],[75.92168,8.909198],[75.92168,8.908511],[75.920993,8.908511],[75.920993,8.909198],[75.920306,8.909198],[75.920306,8.909885],[75.91962,8.909885],[75.91962,8.910571],[75.918933,8.910571],[75.918933,8.911945],[75.91756,8.911945],[75.91756,8.912631],[75.916187,8.912631],[75.916187,8.913318],[75.9155,8.913318],[75.9155,8.914005],[75.914813,8.914005],[75.914813,8.914691],[75.914127,8.914691],[75.914127,8.914005],[75.91344,8.914005],[75.91344,8.914691],[75.912753,8.914691],[75.912753,8.915378],[75.91344,8.915378],[75.91344,8.916751],[75.912753,8.916751],[75.912753,8.918124],[75.912067,8.918124],[75.912067,8.918811],[75.91138,8.918811],[75.91138,8.919498],[75.910693,8.919498],[75.910693,8.921558],[75.910007,8.921558],[75.910007,8.922244],[75.90932,8.922244],[75.90932,8.922931],[75.910693,8.922931],[75.910693,8.923618]],[[75.998584,8.771869],[75.998584,8.772556],[75.995837,8.772556],[75.995837,8.771869],[75.998584,8.771869]],[[75.986911,8.790408],[75.986911,8.789722],[75.986224,8.789722],[75.986224,8.789035],[75.987598,8.789035],[75.987598,8.790408],[75.986911,8.790408]],[[75.934726,8.890659],[75.934726,8.889972],[75.936099,8.889972],[75.936099,8.890659],[75.934726,8.890659]],[[75.933353,8.894092],[75.933353,8.893405],[75.934039,8.893405],[75.934039,8.894092],[75.933353,8.894092]],[[75.931293,8.896838],[75.931293,8.896152],[75.931979,8.896152],[75.931979,8.896838],[75.931293,8.896838]],[[75.931979,8.896152],[75.931979,8.894778],[75.933353,8.894778],[75.933353,8.896152],[75.931979,8.896152]],[[75.927859,8.904391],[75.927859,8.903018],[75.928546,8.903018],[75.928546,8.904391],[75.927859,8.904391]],[[75.928546,8.903018],[75.928546,8.900958],[75.929233,8.900958],[75.929233,8.899585],[75.930606,8.899585],[75.930606,8.901645],[75.929919,8.901645],[75.929919,8.902332],[75.929233,8.902332],[75.929233,8.903018],[75.928546,8.903018]],[[75.930606,8.899585],[75.930606,8.898212],[75.931293,8.898212],[75.931293,8.899585],[75.930606,8.899585]]],[[[76.006824,8.758136],[76.006824,8.758823],[76.00751,8.758823],[76.00751,8.759509],[76.006824,8.759509],[76.006824,8.760196],[76.006137,8.760196],[76.006137,8.761569],[76.00545,8.761569],[76.00545,8.762256],[76.004764,8.762256],[76.004764,8.762943],[76.00545,8.762943],[76.00545,8.764316],[76.004764,8.764316],[76.004764,8.765689],[76.004077,8.765689],[76.004077,8.768436],[76.003391,8.768436],[76.003391,8.769122],[76.004077,8.769122],[76.004077,8.769809],[76.004764,8.769809],[76.004764,8.770496],[76.006137,8.770496],[76.006137,8.769809],[76.00957,8.769809],[76.00957,8.769122],[76.01163,8.769122],[76.01163,8.768436],[76.013004,8.768436],[76.013004,8.763629],[76.014377,8.763629],[76.014377,8.762256],[76.015063,8.762256],[76.015063,8.759509],[76.01575,8.759509],[76.01575,8.757449],[76.016437,8.757449],[76.016437,8.756076],[76.017123,8.756076],[76.017123,8.755389],[76.01781,8.755389],[76.01781,8.754703],[76.018497,8.754703],[76.018497,8.751956],[76.01987,8.751956],[76.01987,8.75127],[76.020557,8.75127],[76.020557,8.751956],[76.021243,8.751956],[76.021243,8.749896],[76.020557,8.749896],[76.020557,8.74921],[76.021243,8.74921],[76.021243,8.748523],[76.022617,8.748523],[76.022617,8.747836],[76.023303,8.747836],[76.023303,8.748523],[76.025363,8.748523],[76.025363,8.746463],[76.024677,8.746463],[76.024677,8.745776],[76.025363,8.745776],[76.025363,8.744403],[76.02605,8.744403],[76.02605,8.74509],[76.026736,8.74509],[76.026736,8.744403],[76.027423,8.744403],[76.027423,8.742343],[76.026736,8.742343],[76.026736,8.74097],[76.027423,8.74097],[76.027423,8.741656],[76.02811,8.741656],[76.02811,8.739597],[76.028796,8.739597],[76.028796,8.738223],[76.029483,8.738223],[76.029483,8.737537],[76.03017,8.737537],[76.03017,8.735477],[76.030856,8.735477],[76.030856,8.73479],[76.031543,8.73479],[76.031543,8.734103],[76.03223,8.734103],[76.03223,8.733417],[76.032916,8.733417],[76.032916,8.731357],[76.033603,8.731357],[76.033603,8.727924],[76.03429,8.727924],[76.03429,8.72655],[76.034976,8.72655],[76.034976,8.725177],[76.03223,8.725177],[76.03223,8.72449],[76.031543,8.72449],[76.031543,8.723804],[76.03017,8.723804],[76.03017,8.72449],[76.029483,8.72449],[76.029483,8.725177],[76.02811,8.725177],[76.02811,8.725864],[76.027423,8.725864],[76.027423,8.72861],[76.026736,8.72861],[76.026736,8.73067],[76.024677,8.73067],[76.024677,8.731357],[76.02399,8.731357],[76.02399,8.732043],[76.022617,8.732043],[76.022617,8.73273],[76.020557,8.73273],[76.020557,8.733417],[76.01987,8.733417],[76.01987,8.73479],[76.019183,8.73479],[76.019183,8.736163],[76.018497,8.736163],[76.018497,8.73685],[76.01781,8.73685],[76.01781,8.737537],[76.017123,8.737537],[76.017123,8.73891],[76.016437,8.73891],[76.016437,8.740283],[76.01575,8.740283],[76.01575,8.74097],[76.015063,8.74097],[76.015063,8.74303],[76.014377,8.74303],[76.014377,8.74509],[76.01369,8.74509],[76.01369,8.746463],[76.013004,8.746463],[76.013004,8.747836],[76.012317,8.747836],[76.012317,8.74921],[76.01163,8.74921],[76.01163,8.749896],[76.010257,8.749896],[76.010257,8.751956],[76.00957,8.751956],[76.00957,8.754016],[76.008884,8.754016],[76.008884,8.754703],[76.008197,8.754703],[76.008197,8.756763],[76.00751,8.756763],[76.00751,8.758136],[76.006824,8.758136]],[[76.02193,8.739597],[76.02193,8.738223],[76.023303,8.738223],[76.023303,8.73891],[76.02399,8.73891],[76.02399,8.739597],[76.02193,8.739597]]],[[[75.980045,8.807574],[75.980731,8.807574],[75.980731,8.806888],[75.980045,8.806888],[75.980045,8.807574]]],[[[76.00545,8.772556],[76.006137,8.772556],[76.006137,8.771869],[76.00545,8.771869],[76.00545,8.772556]]],[[[75.983478,8.796588],[75.984164,8.796588],[75.984164,8.795901],[75.983478,8.795901],[75.983478,8.796588]]],[[[75.984164,8.795901],[75.984851,8.795901],[75.984851,8.795215],[75.984164,8.795215],[75.984164,8.795901]]],[[[75.982791,8.799335],[75.983478,8.799335],[75.983478,8.798648],[75.982791,8.798648],[75.982791,8.799335]]],[[[75.885974,8.94765],[75.886661,8.94765],[75.886661,8.946964],[75.885974,8.946964],[75.885974,8.94765]]],[[[75.799457,9.06644],[75.80083,9.06644],[75.80083,9.065753],[75.801517,9.065753],[75.801517,9.065067],[75.802203,9.065067],[75.802203,9.06438],[75.801517,9.06438],[75.801517,9.063693],[75.802203,9.063693],[75.802203,9.063007],[75.80289,9.063007],[75.80289,9.06232],[75.805637,9.06232],[75.805637,9.060947],[75.80495,9.060947],[75.80495,9.06026],[75.802203,9.06026],[75.802203,9.0582],[75.80083,9.0582],[75.80083,9.058887],[75.800143,9.058887],[75.800143,9.059573],[75.799457,9.059573],[75.799457,9.06232],[75.798083,9.06232],[75.798083,9.063693],[75.799457,9.063693],[75.799457,9.06438],[75.79877,9.06438],[75.79877,9.065067],[75.799457,9.065067],[75.799457,9.06644]]],[[[75.802203,9.0582],[75.80289,9.0582],[75.80289,9.057513],[75.802203,9.057513],[75.802203,9.0582]]]]},"properties":{"area_km2":16.482,"perimeter_km":98.48,"length_km":45.77,"mean_width_km":0.36,"elongation":127.1,"compactness":0.0214,"components":3,"orientation_deg":146.8,"centroid":[75.97747,8.81412],"taper":"clear","end_width_ratio":0.42,"fresh_end_bearing_deg":326.8,"edge_truncated":false,"wind_speed_ms":5.3,"wind_reliability":1.0,"age_prior_h":{"min":2,"max":48,"label":"weak prior","spreading_min_h":0.1},"shape_indicator":"elongated, few parts: consistent with a moving vessel","cerulean_slick_id":3887341,"cerulean_machine_confidence":0.958,"cerulean_class":5,"s1_scene_id":"S1A_IW_GRDH_1SDV_20250329T004138_20250329T004157_058512_073D50_D708","source":"SkyTruth Cerulean slick polygon"}}]}