{"type":"FeatureCollection","features":[{"type":"Feature","geometry":{"type":"Polygon","coordinates":[[[-92.08485199850837,27.902000516901776],[-92.08340045740235,27.908366661564415],[-92.07600005212608,27.912370646039676],[-92.02722458884789,27.921011402270164],[-91.93989154886923,27.92966452968964],[-91.83030988658872,27.921768178864223],[-91.82623909974646,27.917966181482285],[-91.82570454416239,27.910671005029876],[-91.82896659962354,27.90326088901382],[-91.84345895323712,27.899675648904395],[-91.9697770659798,27.899433517979148],[-92.07181284653595,27.892568689782944],[-92.08152003644204,27.894212632200457],[-92.08485199850837,27.902000516901776]]]},"properties":{"kind":"age","age_h":1,"in_age_prior":true}},{"type":"Feature","geometry":{"type":"Polygon","coordinates":[[[-92.0839460523513,27.90682914788532],[-92.07781147936196,27.913388620113214],[-92.0120362497252,27.92495735534499],[-91.93118512567676,27.93170404853033],[-91.85571848668884,27.92791198961645],[-91.82753255536846,27.923390832123594],[-91.82049727560815,27.91226804253184],[-91.82193170448538,27.898712004949726],[-91.83018709534792,27.892623636014566],[-91.86063029889553,27.890172810836965],[-91.94191509349031,27.89313799528483],[-92.05924468895857,27.883942456671907],[-92.08061945834832,27.886950808625787],[-92.0839460523513,27.90682914788532]]]},"properties":{"kind":"age","age_h":2,"in_age_prior":true}},{"type":"Feature","geometry":{"type":"Polygon","coordinates":[[[-92.08338646605533,27.905306159665212],[-92.07945381519865,27.91392439873252],[-92.0516107611163,27.9196849398437],[-91.92295585526445,27.933724505138066],[-91.82748780927517,27.927768304547012],[-91.81709419790529,27.923447440164967],[-91.8144887519184,27.910300872917176],[-91.81635809892627,27.890875366993622],[-91.82613793880641,27.88524477710482],[-91.86724653838002,27.882642343247035],[-91.90478863249581,27.885405879587122],[-91.96311962728113,27.88449764898872],[-92.05959884251112,27.87537223227542],[-92.07794926664921,27.878183563338606],[-92.08161586603256,27.885511454542666],[-92.08338646605533,27.905306159665212]]]},"properties":{"kind":"age","age_h":3,"in_age_prior":true}},{"type":"Feature","geometry":{"type":"Polygon","coordinates":[[[-92.08302626699955,27.90791460381662],[-92.0697647120972,27.917254191508256],[-91.98386055913687,27.933334693867362],[-91.89762149576855,27.937983956746127],[-91.81912172201393,27.93836474177462],[-91.80389315620168,27.93211030173074],[-91.79992030301614,27.927093897869028],[-91.79684787093115,27.882472441632224],[-91.79938040302953,27.867545728441783],[-91.8070361727831,27.86411621145127],[-91.83920016451185,27.8611906425762],[-91.95865856840186,27.86055028393771],[-92.06609379082524,27.84903480185792],[-92.07614723594904,27.854340937538105],[-92.07904133519008,27.86034713293115],[-92.0838709448964,27.883974891942803],[-92.08302626699955,27.90791460381662]]]},"properties":{"kind":"age","age_h":6,"in_age_prior":true}},{"type":"Feature","geometry":{"type":"Polygon","coordinates":[[[-92.08841126477992,27.893971730154426],[-92.08536018159174,27.90976113447897],[-92.07092440278551,27.918680734384083],[-92.04869549381087,27.925033573725692],[-91.95855885661769,27.93924438552161],[-91.8659324027974,27.944436940643982],[-91.7863732451955,27.939698925802396],[-91.77715021956818,27.913954215019444],[-91.77473715329755,27.89270136874488],[-91.77910902882446,27.865338575761964],[-91.79012929495045,27.843081518725615],[-91.8289444882162,27.83991328449176],[-91.95276709996529,27.838424938841417],[-92.06490172707409,27.823244822580087],[-92.07496733943702,27.833085237009673],[-92.08258848295603,27.85368975116865],[-92.0873551150323,27.869741133991422],[-92.08841126477992,27.893971730154426]]]},"properties":{"kind":"age","age_h":9,"in_age_prior":true}},{"type":"Feature","geometry":{"type":"Polygon","coordinates":[[[-92.09364446364374,27.881805917251363],[-92.09085793001452,27.91167306449879],[-92.07152478563478,27.9225157494229],[-92.0466212618984,27.930237714595634],[-91.91017075186873,27.949091585775665],[-91.86041939586684,27.951825605645052],[-91.77646542413453,27.94845627163321],[-91.76852406401072,27.944472505687607],[-91.76381591565666,27.93769547753503],[-91.75455883512116,27.906177158272],[-91.75780517505372,27.851650919453068],[-91.76970831819106,27.828933097723404],[-91.78349224415419,27.822910274346295],[-91.82893608876134,27.81706713318385],[-91.8869026353483,27.82115535092757],[-91.9482403738292,27.818549185973254],[-92.04788543532499,27.797872509032274],[-92.06302779157643,27.801479398580337],[-92.07327947533025,27.811122126006037],[-92.09121263612043,27.857762214557894],[-92.09364446364374,27.881805917251363]]]},"properties":{"kind":"age","age_h":12,"in_age_prior":true}},{"type":"Feature","geometry":{"type":"Polygon","coordinates":[[[-92.09601634189274,27.92626503389529],[-92.08939175127229,27.934849053155165],[-92.07088113400924,27.941538682812727],[-92.01289067987793,27.95456836889315],[-91.78987261180215,27.971837181254948],[-91.73334498038321,27.96900855883685],[-91.72422453189054,27.957968349039096],[-91.70960825201709,27.911169059416412],[-91.70819355961636,27.836967006050504],[-91.71850153870768,27.80904307490445],[-91.73651334571109,27.79837325297192],[-91.80905704084373,27.78899006692604],[-91.91892045155977,27.789803992817287],[-92.05054685800005,27.75749919662198],[-92.07342448745094,27.782308163712926],[-92.09091142246227,27.816217101652033],[-92.09973213653502,27.84423821557065],[-92.10029643222477,27.883546146617938],[-92.09601634189274,27.92626503389529]]]},"properties":{"kind":"age","age_h":18,"in_age_prior":true}},{"type":"Feature","geometry":{"type":"Polygon","coordinates":[[[-92.09771613399062,27.85477895679003],[-92.0912228308619,27.95989610088183],[-92.08019265793764,27.968839910524334],[-91.98878105554174,27.982020693505266],[-91.91159564751153,27.98271559358471],[-91.73441632884754,28.0055583268859],[-91.67336072266241,28.00571258855994],[-91.66214403942013,27.993792947612658],[-91.63976752166462,27.93596535980168],[-91.63547603067346,27.845899604467807],[-91.63824430232435,27.837762123149858],[-91.66811795020217,27.809909192875896],[-91.71076331115377,27.7979741915088],[-91.81127705824015,27.78163342784023],[-91.9001343981094,27.780976390427234],[-92.03639070466701,27.740808564083466],[-92.05979901398555,27.76372027226175],[-92.0837845029543,27.815668289126684],[-92.09771613399062,27.85477895679003]]]},"properties":{"kind":"age","age_h":24,"in_age_prior":true}},{"type":"Feature","geometry":{"type":"Polygon","coordinates":[[[-92.06321342913327,27.969777019331943],[-92.05435091459474,28.045100565530475],[-92.03734639640967,28.05573781346083],[-91.96450978038784,28.075388129935238],[-91.74732714631982,28.106448810967137],[-91.61027774829297,28.13621517542047],[-91.55132591672967,28.136661427224297],[-91.53413259821728,28.12226304668834],[-91.48999195857043,28.01840627840397],[-91.46055221132158,27.910096562751736],[-91.46556420286868,27.90017076356857],[-91.52747133276458,27.87640774172235],[-91.62202347856183,27.851114728008238],[-91.76482523965717,27.806957533082215],[-91.8442127498401,27.797100111756507],[-91.87737233986765,27.798140554519975],[-91.93942431462321,27.790817957039902],[-92.00910000220158,27.743521050812458],[-92.05801148673204,27.747297282180313],[-92.07163629128165,27.762323984608226],[-92.07509773338826,27.85131908888158],[-92.08694187223834,27.899868580489404],[-92.06321342913327,27.969777019331943]]]},"properties":{"kind":"age","age_h":36,"in_age_prior":false}},{"type":"Feature","geometry":{"type":"Polygon","coordinates":[[[-92.12607420819624,28.134471382549652],[-92.17002151769378,28.31133331936494],[-92.15658999208891,28.323801954041713],[-92.08648686448161,28.34514181118821],[-91.97592563603494,28.363021370677],[-91.83344559171074,28.377387641729463],[-91.67212036103427,28.402472512249233],[-91.6085968361423,28.400256989636606],[-91.5837839562596,28.384808771892374],[-91.50024316302957,28.160966695891748],[-91.44311963380085,28.08071615128726],[-91.4414965257178,28.07473948886186],[-91.44409594581158,28.071103004775157],[-91.46609475475394,28.06262161236289],[-91.73751549310005,27.9766473237941],[-91.78765901694892,27.955378995926562],[-91.93299057818669,27.92774008536293],[-92.15535803555986,27.83237089954426],[-92.16573928777969,27.841372961305133],[-92.17783364734085,27.85896447055551],[-92.14114321599898,28.015293717129985],[-92.12607420819624,28.134471382549652]]]},"properties":{"kind":"age","age_h":48,"in_age_prior":false}},{"type":"Feature","geometry":{"type":"Polygon","coordinates":[[[-92.34203535455714,28.41908700309011],[-92.37678260584146,28.423269396733954],[-92.37643709788706,28.427830362098778],[-92.36506068925928,28.442553024259492],[-92.34687252780155,28.45541590095028],[-92.31611353077908,28.46381943721902],[-92.24698358693142,28.474807658651542],[-91.8754879698526,28.494190371056494],[-91.8007987879284,28.493291281748938],[-91.79000129336231,28.49003819178098],[-91.76190973079716,28.47334484367614],[-91.758936504634,28.46784117313505],[-91.76112273580452,28.456572280689056],[-91.82699853915736,28.459557372762646],[-91.88066801003262,28.45770923726714],[-91.92584486412602,28.446839404078567],[-91.97678020353759,28.439489372600715],[-91.91788712282454,28.22872056546997],[-91.81096943154817,28.185298486020304],[-91.70731437205633,28.195729239286173],[-91.64887991583113,28.186113484653706],[-91.59930487107825,28.186622726678394],[-91.5514999276927,28.098345005679175],[-91.71817945706731,28.059181428890014],[-91.93706533912056,28.00036055701416],[-91.9646974774977,27.984752691529692],[-92.01785939753337,27.962233668702286],[-92.0669928588641,27.950195510886047],[-92.17624302539522,27.93062247594203],[-92.40523270313076,27.86346889207052],[-92.40812230635053,27.866789530558016],[-92.4119971333782,27.890666558196955],[-92.39646906294773,27.91012738753501],[-92.320683638178,28.041811965133178],[-92.27256232065548,28.16784787478364],[-92.26402882128905,28.180298918332944],[-92.22028975296872,28.191535689986193],[-92.15486079619403,28.196028837868244],[-92.10549421301619,28.194972260983132],[-92.05006007903914,28.20767328076328],[-91.9906130324591,28.213909709512443],[-91.96196965575473,28.22380498821535],[-92.00965287584658,28.436457014348616],[-92.03584539943112,28.43903467312186],[-92.1241628133125,28.437998715547717],[-92.15974376613597,28.4283128242164],[-92.18205387533186,28.426386113473004],[-92.2457383782546,28.43185217549945],[-92.34203535455714,28.41908700309011]]]},"properties":{"kind":"age","age_h":60,"in_age_prior":false}},{"type":"Feature","geometry":{"type":"Polygon","coordinates":[[[-92.38983411746857,28.31413764887472],[-92.4509261816598,28.314468375701075],[-92.45441329332766,28.32001018018219],[-92.43546905269055,28.33866651141667],[-92.40669819098235,28.357652171751234],[-92.28278335868293,28.37591210478541],[-92.14071382844598,28.38952986657839],[-91.91126582677194,28.387750817990838],[-91.82654447895123,28.39633333979317],[-91.73795957904889,28.39874613391623],[-91.70241801170967,28.38879838205234],[-91.68880386713953,28.375605019353877],[-91.69104386337587,28.365726293984718],[-91.66734077245762,28.123601216058507],[-91.6367119091106,28.12452704081372],[-91.52479807430173,28.106754065737995],[-91.47839239328123,27.961032624180064],[-91.47928557027122,27.953067760882018],[-91.70841803639209,27.865288318294667],[-91.94232902132963,27.821828492589507],[-92.09484886621267,27.768894212643698],[-92.15170076209061,27.76435975501737],[-92.38091014916229,27.692818215307785],[-92.46982477608091,27.681162878645456],[-92.47951334716943,27.6865424927283],[-92.48258824863004,27.69258381047921],[-92.48448443184589,27.70536714800553],[-92.48046790674324,27.713323991572594],[-92.36806689312252,27.892912322369288],[-92.23759748479453,28.07418034616437],[-92.23036659133714,28.08987919735485],[-92.24703281451912,28.330484235350784],[-92.2896995727439,28.330324604969405],[-92.38983411746857,28.31413764887472]]]},"properties":{"kind":"age","age_h":72,"in_age_prior":false}},{"type":"Feature","geometry":{"type":"Polygon","coordinates":[[[-92.10110896947181,27.880138743576786],[-92.09167296110402,27.959165171035856],[-92.07971340657377,27.96894074119149],[-91.98878105554174,27.982020693505266],[-91.91159564751153,27.98271559358471],[-91.73441632884754,28.0055583268859],[-91.6738228526408,28.00580798267158],[-91.66214403942013,27.993792947612658],[-91.63976752166462,27.93596535980168],[-91.63537586942041,27.846334662005837],[-91.63824430232435,27.837762123149858],[-91.66811795020217,27.809909192875896],[-91.7249302850247,27.78920985329257],[-91.81462851909981,27.779236938035226],[-91.90429639135968,27.77968985098409],[-92.03592671407995,27.74070907064711],[-92.05827713990271,27.759821262606433],[-92.06903442465222,27.774272492948672],[-92.09091142246227,27.816217101652033],[-92.09991394705041,27.842858777146105],[-92.10110896947181,27.880138743576786]]]},"properties":{"kind":"release_corridor","age_prior_h":{"min":1,"max":24,"label":"weak prior","spreading_min_h":0.2}}},{"type":"Feature","geometry":{"type":"Polygon","coordinates":[[[-92.15105038481114,27.888934980538448],[-92.13919472058508,27.975211284972776],[-92.12368350802821,27.995097874862154],[-92.09708916031802,28.011489330420765],[-91.996033640135,28.02677661728297],[-91.91565565082621,28.027916456559044],[-91.74112772560046,28.050381016069],[-91.6674701139437,28.05067400269383],[-91.63559571827412,28.037289235410938],[-91.6138904720149,28.008086261703273],[-91.5897382395056,27.943970315458056],[-91.58476785835144,27.842092537165517],[-91.59953529469516,27.808455296323118],[-91.63307654261281,27.77709056668784],[-91.6614270523912,27.76157993931221],[-91.71015677033212,27.74594333959215],[-91.7677359805792,27.737692777198124],[-91.89481299186833,27.734750699670663],[-92.00693934313516,27.700126000602555],[-92.0379267849768,27.69548367287688],[-92.07143072511778,27.707446891476796],[-92.0982593445129,27.731899949200443],[-92.11443166226434,27.75393268695323],[-92.13790459199862,27.79898294780163],[-92.1495947070916,27.833298788426415],[-92.15105038481114,27.888934980538448]]]},"properties":{"kind":"expanded_corridor_for_veto","margin_km":5.0}}],"properties":{"physics":{"formula":"V_oil = V_current + V_tide + V_Stokes + alpha * V_wind10","current_source":"CMEMS SMOC (uo+utide, vo+vtide)","stokes_source":"CMEMS SMOC (vsdx, vsdy)","wind_source":"ERA5 10 m (u10, v10)","alpha":0.02,"alpha_range":[0.01,0.03],"current_scale_sd":0.15,"wind_rotation_sd_deg":10.0,"current_error_sd_ms":0.1,"diffusion_m2s":1.0,"time_step_s":900,"backward_members":10,"backward_particles":500,"forward_members":5,"max_age_h":72}}}