{"type":"FeatureCollection","features":[{"type":"Feature","geometry":{"type":"Polygon","coordinates":[[[-92.04195438247787,27.971929575961497],[-92.04560406261724,27.983890357835993],[-92.04279097362192,27.98821954623625],[-92.0074151250174,28.00067750432028],[-91.96654354658472,28.006409463143708],[-91.9452005395626,28.015315779648002],[-91.91589165622376,28.012481421558956],[-91.88915847733355,28.01851644241971],[-91.86683128068006,28.019182580541038],[-91.8589769768312,28.01612573229221],[-91.85478925754354,28.00871080170178],[-91.85499265740846,28.00207505851357],[-91.86537760967187,27.988174345517308],[-91.88671242972399,27.986547792262378],[-91.90284015273696,27.98084343497987],[-91.91742359934352,27.98178466695449],[-91.94573741069621,27.96875385984042],[-91.97514574380698,27.969235244193687],[-92.02361256579395,27.962761364972554],[-92.04195438247787,27.971929575961497]]]},"properties":{"kind":"forecast_envelope","hours":24,"active_fraction":1.0}},{"type":"Feature","geometry":{"type":"Polygon","coordinates":[[[-91.90004489334905,27.610792681074287],[-91.89344502424308,27.62438623922921],[-91.881613309817,27.630329230419377],[-91.86709984990999,27.6449489918452],[-91.81712987061366,27.671564798682933],[-91.7883881851124,27.67133095795393],[-91.77707979484279,27.675770268761518],[-91.74664443292735,27.678889171233475],[-91.73421898134372,27.663775323622634],[-91.73539691490258,27.656624865497406],[-91.74567023782015,27.643646818204395],[-91.78630133929576,27.62129938265449],[-91.86189938597465,27.599143660437377],[-91.87200975602406,27.592840054324448],[-91.88672707876414,27.592884992724255],[-91.89335727587984,27.59827403718009],[-91.90004489334905,27.610792681074287]]]},"properties":{"kind":"forecast_envelope","hours":48,"active_fraction":1.0}},{"type":"Feature","geometry":{"type":"Polygon","coordinates":[[[-91.68271817804316,27.39064841634872],[-91.67939301604079,27.404364325891063],[-91.67117077853558,27.40942337048872],[-91.65584900369531,27.41095834891632],[-91.63313771573337,27.404696471309844],[-91.61952629111799,27.382969068306704],[-91.62745876911167,27.349567320361622],[-91.62226759460673,27.335426164744046],[-91.64624034490657,27.324930724452436],[-91.65638772030486,27.31167348029833],[-91.67923942287187,27.31482764480025],[-91.69842302570297,27.324170969254826],[-91.7089705959784,27.335995925358798],[-91.6969916190486,27.352571754614427],[-91.6946691770003,27.3736619267847],[-91.68271817804316,27.39064841634872]]]},"properties":{"kind":"forecast_envelope","hours":72,"active_fraction":1.0}}],"properties":{"model":"OpenDrift OpenOil","oil_type":"GENERIC INTERMEDIATE FUEL OIL 180","hours":72,"coastal_impact":false,"stranded_elements":0,"elements":1500,"mass_budget_fraction":{"mass_oil":[1.0,0.9660999774932861,0.9358000159263611,0.9027000069618225,0.8683000206947327,0.8357999920845032,0.8069000244140625,0.7856000065803528,0.7764000296592712,0.7730000019073486,0.7709000110626221,0.7699000239372253,0.7688000202178955,0.7670000195503235,0.7646999955177307,0.7623999714851379,0.760200023651123,0.7584999799728394,0.7573000192642212,0.7565000057220459,0.7555999755859375,0.7537999749183655,0.7509999871253967,0.7444000244140625,0.7185999751091003,0.6754999756813049,0.6233000159263611,0.5702999830245972,0.5163999795913696,0.4602999985218048,0.4004000127315521,0.3391999900341034,0.2831999957561493,0.23600000143051147,0.1915999948978424,0.1517000049352646,0.12150000035762787,0.10040000081062317,0.08619999885559082,0.07670000195503235,0.07010000199079514,0.06530000269412994,0.0617000013589859,0.05889999866485596,0.05640000104904175,0.05429999902844429,0.05249999836087227,0.05090000107884407,0.04960000142455101,0.048500001430511475,0.047600001096725464,0.046799998730421066,0.04600000008940697,0.04540000110864639,0.04500000178813934,0.044599998742341995,0.04430000111460686,0.04399999976158142,0.043800000101327896,0.04360000044107437,0.043299999088048935,0.04309999942779541,0.0430000014603138,0.042899999767541885,0.04280000180006027,0.04280000180006027,0.04280000180006027,0.04270000010728836,0.04270000010728836,0.04270000010728836,0.04270000010728836,0.04270000010728836,0.04270000010728836],"mass_evaporated":[0.0,0.011900000274181366,0.01860000006854534,0.02500000037252903,0.031099999323487282,0.03689999878406525,0.04230000078678131,0.04699999839067459,0.050999999046325684,0.05429999902844429,0.056299999356269836,0.05739999935030937,0.058400001376867294,0.06019999831914902,0.0625,0.0649000033736229,0.06700000166893005,0.06870000064373016,0.06989999860525131,0.07069999724626541,0.07159999758005142,0.07339999824762344,0.07609999924898148,0.07940000295639038,0.0835999995470047,0.0835999995470047,0.0835999995470047,0.0835999995470047,0.0835999995470047,0.0835999995470047,0.0835999995470047,0.0835999995470047,0.0835999995470047,0.0835999995470047,0.0835999995470047,0.0835999995470047,0.0835999995470047,0.0835999995470047,0.0835999995470047,0.0835999995470047,0.0835999995470047,0.0835999995470047,0.0835999995470047,0.0835999995470047,0.0835999995470047,0.0835999995470047,0.0835999995470047,0.0835999995470047,0.0835999995470047,0.0835999995470047,0.0835999995470047,0.0835999995470047,0.0835999995470047,0.0835999995470047,0.0835999995470047,0.0835999995470047,0.0835999995470047,0.0835999995470047,0.0835999995470047,0.0835999995470047,0.0835999995470047,0.0835999995470047,0.0835999995470047,0.0835999995470047,0.0835999995470047,0.0835999995470047,0.0835999995470047,0.0835999995470047,0.0835999995470047,0.0835999995470047,0.0835999995470047,0.0835999995470047,0.0835999995470047],"mass_dispersed":[0.0,0.02199999988079071,0.04560000076889992,0.07240000367164612,0.1005999967455864,0.12729999423027039,0.1509000062942505,0.1673000007867813,0.17260000109672546,0.1728000044822693,0.1728000044822693,0.1728000044822693,0.1728000044822693,0.1728000044822693,0.1728000044822693,0.1728000044822693,0.1728000044822693,0.1728000044822693,0.1728000044822693,0.1728000044822693,0.1728000044822693,0.1728000044822693,0.1729000061750412,0.1762000024318695,0.19789999723434448,0.24089999496936798,0.2930999994277954,0.34610000252723694,0.4000000059604645,0.4560999870300293,0.515999972820282,0.5771999955177307,0.6331999897956848,0.680400013923645,0.7247999906539917,0.7646999955177307,0.7949000000953674,0.8159999847412109,0.8302000164985657,0.8396999835968018,0.8463000059127808,0.8511000275611877,0.8547000288963318,0.8575000166893005,0.8600000143051147,0.8621000051498413,0.8639000058174133,0.8654999732971191,0.8668000102043152,0.867900013923645,0.8687999844551086,0.8695999979972839,0.8704000115394592,0.8709999918937683,0.871399998664856,0.8718000054359436,0.8720999956130981,0.8723999857902527,0.8726000189781189,0.8729000091552734,0.8730999827384949,0.8733000159263611,0.8733999729156494,0.8734999895095825,0.8736000061035156,0.8736000061035156,0.8737000226974487,0.8737000226974487,0.8737000226974487,0.8737000226974487,0.8737000226974487,0.8737000226974487,0.8737000226974487]}}}