{"type":"FeatureCollection","features":[{"type":"Feature","geometry":{"type":"Point","coordinates":[-91.91292,27.36536]},"properties":{"peak_db":10.1,"area_px":30,"approx_length_m":230,"platform":false}},{"type":"Feature","geometry":{"type":"Point","coordinates":[-90.4412,27.6249]},"properties":{"peak_db":8.0,"area_px":23,"approx_length_m":201,"platform":true}},{"type":"Feature","geometry":{"type":"Point","coordinates":[-90.5693,27.61972]},"properties":{"peak_db":-5.6,"area_px":3,"approx_length_m":73,"platform":false}},{"type":"Feature","geometry":{"type":"Point","coordinates":[-91.58905,27.46517]},"properties":{"peak_db":9.6,"area_px":12,"approx_length_m":145,"platform":false}},{"type":"Feature","geometry":{"type":"Point","coordinates":[-90.27547,27.6917]},"properties":{"peak_db":3.6,"area_px":11,"approx_length_m":139,"platform":true}},{"type":"Feature","geometry":{"type":"Point","coordinates":[-90.51918,27.77946]},"properties":{"peak_db":10.9,"area_px":21,"approx_length_m":192,"platform":true}},{"type":"Feature","geometry":{"type":"Point","coordinates":[-90.64785,27.79532]},"properties":{"peak_db":9.7,"area_px":23,"approx_length_m":201,"platform":true}},{"type":"Feature","geometry":{"type":"Point","coordinates":[-91.10851,27.72977]},"properties":{"peak_db":9.7,"area_px":16,"approx_length_m":168,"platform":true}},{"type":"Feature","geometry":{"type":"Point","coordinates":[-92.53792,27.51123]},"properties":{"peak_db":11.5,"area_px":15,"approx_length_m":163,"platform":false}},{"type":"Feature","geometry":{"type":"Point","coordinates":[-92.44358,27.54607]},"properties":{"peak_db":10.2,"area_px":22,"approx_length_m":197,"platform":true}},{"type":"Feature","geometry":{"type":"Point","coordinates":[-90.23905,27.95975]},"properties":{"peak_db":6.0,"area_px":10,"approx_length_m":133,"platform":false}},{"type":"Feature","geometry":{"type":"Point","coordinates":[-91.51613,27.76765]},"properties":{"peak_db":6.4,"area_px":13,"approx_length_m":151,"platform":true}},{"type":"Feature","geometry":{"type":"Point","coordinates":[-90.90164,27.88319]},"properties":{"peak_db":9.1,"area_px":18,"approx_length_m":178,"platform":true}},{"type":"Feature","geometry":{"type":"Point","coordinates":[-90.32593,27.99283]},"properties":{"peak_db":7.1,"area_px":15,"approx_length_m":163,"platform":true}},{"type":"Feature","geometry":{"type":"Point","coordinates":[-91.99375,27.73333]},"properties":{"peak_db":11.7,"area_px":14,"approx_length_m":157,"platform":true}},{"type":"Feature","geometry":{"type":"Point","coordinates":[-92.062,27.73271]},"properties":{"peak_db":-0.9,"area_px":5,"approx_length_m":94,"platform":false}},{"type":"Feature","geometry":{"type":"Point","coordinates":[-90.31396,28.01636]},"properties":{"peak_db":10.5,"area_px":19,"approx_length_m":183,"platform":false}},{"type":"Feature","geometry":{"type":"Point","coordinates":[-90.86822,27.93124]},"properties":{"peak_db":3.1,"area_px":6,"approx_length_m":103,"platform":false}},{"type":"Feature","geometry":{"type":"Point","coordinates":[-90.29747,28.02095]},"properties":{"peak_db":15.0,"area_px":21,"approx_length_m":192,"platform":false}},{"type":"Feature","geometry":{"type":"Point","coordinates":[-90.4287,28.00713]},"properties":{"peak_db":9.6,"area_px":18,"approx_length_m":178,"platform":false}},{"type":"Feature","geometry":{"type":"Point","coordinates":[-90.74657,27.97721]},"properties":{"peak_db":-0.6,"area_px":2,"approx_length_m":59,"platform":false}},{"type":"Feature","geometry":{"type":"Point","coordinates":[-90.75033,27.97726]},"properties":{"peak_db":11.1,"area_px":9,"approx_length_m":126,"platform":false}},{"type":"Feature","geometry":{"type":"Point","coordinates":[-90.99705,27.94589]},"properties":{"peak_db":10.2,"area_px":14,"approx_length_m":157,"platform":true}},{"type":"Feature","geometry":{"type":"Point","coordinates":[-92.58175,27.68673]},"properties":{"peak_db":12.7,"area_px":16,"approx_length_m":168,"platform":false}},{"type":"Feature","geometry":{"type":"Point","coordinates":[-91.02919,27.94361]},"properties":{"peak_db":14.9,"area_px":20,"approx_length_m":188,"platform":true}},{"type":"Feature","geometry":{"type":"Point","coordinates":[-91.5101,27.89932]},"properties":{"peak_db":5.6,"area_px":17,"approx_length_m":173,"platform":true}},{"type":"Feature","geometry":{"type":"Point","coordinates":[-90.54776,28.05356]},"properties":{"peak_db":4.8,"area_px":10,"approx_length_m":133,"platform":true}},{"type":"Feature","geometry":{"type":"Point","coordinates":[-91.98778,27.84032]},"properties":{"peak_db":9.9,"area_px":13,"approx_length_m":151,"platform":true}},{"type":"Feature","geometry":{"type":"Point","coordinates":[-92.45931,27.7962]},"properties":{"peak_db":17.0,"area_px":22,"approx_length_m":197,"platform":false}},{"type":"Feature","geometry":{"type":"Point","coordinates":[-91.99113,27.87499]},"properties":{"peak_db":11.2,"area_px":22,"approx_length_m":197,"platform":true}},{"type":"Feature","geometry":{"type":"Point","coordinates":[-91.98657,27.87543]},"properties":{"peak_db":6.3,"area_px":7,"approx_length_m":111,"platform":true}},{"type":"Feature","geometry":{"type":"Point","coordinates":[-90.67217,28.0881]},"properties":{"peak_db":1.6,"area_px":9,"approx_length_m":126,"platform":true}},{"type":"Feature","geometry":{"type":"Point","coordinates":[-90.53249,28.11999]},"properties":{"peak_db":7.4,"area_px":10,"approx_length_m":133,"platform":false}},{"type":"Feature","geometry":{"type":"Point","coordinates":[-90.7371,28.08909]},"properties":{"peak_db":5.4,"area_px":8,"approx_length_m":119,"platform":true}},{"type":"Feature","geometry":{"type":"Point","coordinates":[-90.81941,28.08398]},"properties":{"peak_db":5.2,"area_px":8,"approx_length_m":119,"platform":true}},{"type":"Feature","geometry":{"type":"Point","coordinates":[-90.81796,28.08546]},"properties":{"peak_db":0.6,"area_px":4,"approx_length_m":84,"platform":true}},{"type":"Feature","geometry":{"type":"Point","coordinates":[-90.35878,28.16335]},"properties":{"peak_db":7.8,"area_px":12,"approx_length_m":145,"platform":true}},{"type":"Feature","geometry":{"type":"Point","coordinates":[-91.06162,28.06136]},"properties":{"peak_db":12.0,"area_px":20,"approx_length_m":188,"platform":true}},{"type":"Feature","geometry":{"type":"Point","coordinates":[-90.79289,28.10431]},"properties":{"peak_db":7.3,"area_px":21,"approx_length_m":192,"platform":true}},{"type":"Feature","geometry":{"type":"Point","coordinates":[-92.27914,27.87382]},"properties":{"peak_db":11.6,"area_px":14,"approx_length_m":157,"platform":false}},{"type":"Feature","geometry":{"type":"Point","coordinates":[-92.28943,27.88482]},"properties":{"peak_db":14.7,"area_px":13,"approx_length_m":151,"platform":false}},{"type":"Feature","geometry":{"type":"Point","coordinates":[-90.34474,28.19751]},"properties":{"peak_db":0.3,"area_px":9,"approx_length_m":126,"platform":true}},{"type":"Feature","geometry":{"type":"Point","coordinates":[-91.90971,27.95906]},"properties":{"peak_db":8.9,"area_px":17,"approx_length_m":173,"platform":true}},{"type":"Feature","geometry":{"type":"Point","coordinates":[-92.59031,27.86205]},"properties":{"peak_db":11.3,"area_px":14,"approx_length_m":157,"platform":false}},{"type":"Feature","geometry":{"type":"Point","coordinates":[-90.42021,28.21424]},"properties":{"peak_db":2.5,"area_px":12,"approx_length_m":145,"platform":true}},{"type":"Feature","geometry":{"type":"Point","coordinates":[-90.54125,28.19601]},"properties":{"peak_db":7.3,"area_px":16,"approx_length_m":168,"platform":true}},{"type":"Feature","geometry":{"type":"Point","coordinates":[-92.55534,27.9136]},"properties":{"peak_db":5.0,"area_px":4,"approx_length_m":84,"platform":false}},{"type":"Feature","geometry":{"type":"Point","coordinates":[-92.55405,27.92282]},"properties":{"peak_db":3.2,"area_px":8,"approx_length_m":119,"platform":true}},{"type":"Feature","geometry":{"type":"Point","coordinates":[-91.47942,28.10814]},"properties":{"peak_db":-1.0,"area_px":5,"approx_length_m":94,"platform":true}},{"type":"Feature","geometry":{"type":"Point","coordinates":[-91.10269,28.19253]},"properties":{"peak_db":-4.1,"area_px":3,"approx_length_m":73,"platform":true}},{"type":"Feature","geometry":{"type":"Point","coordinates":[-91.37702,28.14991]},"properties":{"peak_db":-4.6,"area_px":5,"approx_length_m":94,"platform":true}},{"type":"Feature","geometry":{"type":"Point","coordinates":[-92.46223,27.97881]},"properties":{"peak_db":-2.4,"area_px":1,"approx_length_m":42,"platform":false}},{"type":"Feature","geometry":{"type":"Point","coordinates":[-92.52808,27.96927]},"properties":{"peak_db":4.0,"area_px":3,"approx_length_m":73,"platform":true}},{"type":"Feature","geometry":{"type":"Point","coordinates":[-92.52739,27.9692]},"properties":{"peak_db":-0.3,"area_px":2,"approx_length_m":59,"platform":true}},{"type":"Feature","geometry":{"type":"Point","coordinates":[-91.65707,28.11587]},"properties":{"peak_db":5.3,"area_px":11,"approx_length_m":139,"platform":true}},{"type":"Feature","geometry":{"type":"Point","coordinates":[-91.36894,28.16387]},"properties":{"peak_db":15.2,"area_px":20,"approx_length_m":188,"platform":true}},{"type":"Feature","geometry":{"type":"Point","coordinates":[-92.25427,28.01874]},"properties":{"peak_db":4.8,"area_px":7,"approx_length_m":111,"platform":true}},{"type":"Feature","geometry":{"type":"Point","coordinates":[-91.66934,28.11777]},"properties":{"peak_db":6.9,"area_px":14,"approx_length_m":157,"platform":true}},{"type":"Feature","geometry":{"type":"Point","coordinates":[-91.07577,28.22854]},"properties":{"peak_db":3.7,"area_px":7,"approx_length_m":111,"platform":true}},{"type":"Feature","geometry":{"type":"Point","coordinates":[-91.11014,28.22357]},"properties":{"peak_db":6.4,"area_px":11,"approx_length_m":139,"platform":true}},{"type":"Feature","geometry":{"type":"Point","coordinates":[-91.66688,28.13629]},"properties":{"peak_db":8.8,"area_px":7,"approx_length_m":111,"platform":true}},{"type":"Feature","geometry":{"type":"Point","coordinates":[-92.2152,28.05731]},"properties":{"peak_db":5.6,"area_px":11,"approx_length_m":139,"platform":true}},{"type":"Feature","geometry":{"type":"Point","coordinates":[-91.50668,28.18452]},"properties":{"peak_db":1.1,"area_px":8,"approx_length_m":119,"platform":true}},{"type":"Feature","geometry":{"type":"Point","coordinates":[-92.27125,28.05973]},"properties":{"peak_db":6.1,"area_px":9,"approx_length_m":126,"platform":true}},{"type":"Feature","geometry":{"type":"Point","coordinates":[-91.13249,28.24816]},"properties":{"peak_db":12.7,"area_px":14,"approx_length_m":157,"platform":true}},{"type":"Feature","geometry":{"type":"Point","coordinates":[-91.06096,28.25951]},"properties":{"peak_db":-3.8,"area_px":2,"approx_length_m":59,"platform":true}},{"type":"Feature","geometry":{"type":"Point","coordinates":[-91.71703,28.15508]},"properties":{"peak_db":5.4,"area_px":12,"approx_length_m":145,"platform":true}},{"type":"Feature","geometry":{"type":"Point","coordinates":[-90.43433,28.3575]},"properties":{"peak_db":-3.2,"area_px":2,"approx_length_m":59,"platform":false}},{"type":"Feature","geometry":{"type":"Point","coordinates":[-91.53775,28.2024]},"properties":{"peak_db":9.1,"area_px":12,"approx_length_m":145,"platform":true}},{"type":"Feature","geometry":{"type":"Point","coordinates":[-91.09279,28.27459]},"properties":{"peak_db":4.6,"area_px":7,"approx_length_m":111,"platform":true}},{"type":"Feature","geometry":{"type":"Point","coordinates":[-90.49704,28.36752]},"properties":{"peak_db":10.4,"area_px":10,"approx_length_m":133,"platform":false}},{"type":"Feature","geometry":{"type":"Point","coordinates":[-91.90773,28.14774]},"properties":{"peak_db":9.8,"area_px":16,"approx_length_m":168,"platform":true}},{"type":"Feature","geometry":{"type":"Point","coordinates":[-91.73241,28.17763]},"properties":{"peak_db":5.0,"area_px":11,"approx_length_m":139,"platform":true}},{"type":"Feature","geometry":{"type":"Point","coordinates":[-91.66705,28.19624]},"properties":{"peak_db":9.0,"area_px":22,"approx_length_m":197,"platform":true}},{"type":"Feature","geometry":{"type":"Point","coordinates":[-91.53734,28.22303]},"properties":{"peak_db":4.1,"area_px":10,"approx_length_m":133,"platform":true}},{"type":"Feature","geometry":{"type":"Point","coordinates":[-90.64579,28.36459]},"properties":{"peak_db":4.8,"area_px":8,"approx_length_m":119,"platform":false}},{"type":"Feature","geometry":{"type":"Point","coordinates":[-91.08759,28.29953]},"properties":{"peak_db":5.5,"area_px":10,"approx_length_m":133,"platform":true}},{"type":"Feature","geometry":{"type":"Point","coordinates":[-90.308,28.4298]},"properties":{"peak_db":6.6,"area_px":10,"approx_length_m":133,"platform":true}},{"type":"Feature","geometry":{"type":"Point","coordinates":[-91.43367,28.25528]},"properties":{"peak_db":-2.3,"area_px":3,"approx_length_m":73,"platform":true}},{"type":"Feature","geometry":{"type":"Point","coordinates":[-92.51934,28.08468]},"properties":{"peak_db":6.5,"area_px":6,"approx_length_m":103,"platform":true}},{"type":"Feature","geometry":{"type":"Point","coordinates":[-90.3469,28.43372]},"properties":{"peak_db":-0.0,"area_px":5,"approx_length_m":94,"platform":true}},{"type":"Feature","geometry":{"type":"Point","coordinates":[-91.69393,28.22299]},"properties":{"peak_db":11.5,"area_px":17,"approx_length_m":173,"platform":true}},{"type":"Feature","geometry":{"type":"Point","coordinates":[-92.53858,28.08564]},"properties":{"peak_db":-0.5,"area_px":3,"approx_length_m":73,"platform":true}},{"type":"Feature","geometry":{"type":"Point","coordinates":[-92.72993,28.05523]},"properties":{"peak_db":8.2,"area_px":15,"approx_length_m":163,"platform":false}},{"type":"Feature","geometry":{"type":"Point","coordinates":[-92.65938,28.06804]},"properties":{"peak_db":-3.5,"area_px":2,"approx_length_m":59,"platform":true}},{"type":"Feature","geometry":{"type":"Point","coordinates":[-92.1811,28.15008]},"properties":{"peak_db":2.1,"area_px":4,"approx_length_m":84,"platform":true}},{"type":"Feature","geometry":{"type":"Point","coordinates":[-92.44515,28.10781]},"properties":{"peak_db":4.7,"area_px":6,"approx_length_m":103,"platform":true}},{"type":"Feature","geometry":{"type":"Point","coordinates":[-91.20884,28.31109]},"properties":{"peak_db":7.0,"area_px":15,"approx_length_m":163,"platform":true}},{"type":"Feature","geometry":{"type":"Point","coordinates":[-91.82469,28.21452]},"properties":{"peak_db":-3.1,"area_px":1,"approx_length_m":42,"platform":true}},{"type":"Feature","geometry":{"type":"Point","coordinates":[-91.67294,28.24208]},"properties":{"peak_db":8.3,"area_px":14,"approx_length_m":157,"platform":true}},{"type":"Feature","geometry":{"type":"Point","coordinates":[-92.69903,28.07392]},"properties":{"peak_db":4.3,"area_px":4,"approx_length_m":84,"platform":true}},{"type":"Feature","geometry":{"type":"Point","coordinates":[-91.21268,28.32081]},"properties":{"peak_db":4.2,"area_px":9,"approx_length_m":126,"platform":true}},{"type":"Feature","geometry":{"type":"Point","coordinates":[-91.6606,28.25295]},"properties":{"peak_db":4.6,"area_px":9,"approx_length_m":126,"platform":true}},{"type":"Feature","geometry":{"type":"Point","coordinates":[-90.3834,28.45381]},"properties":{"peak_db":-5.0,"area_px":1,"approx_length_m":42,"platform":true}},{"type":"Feature","geometry":{"type":"Point","coordinates":[-92.74577,28.07941]},"properties":{"peak_db":4.0,"area_px":8,"approx_length_m":119,"platform":false}},{"type":"Feature","geometry":{"type":"Point","coordinates":[-91.19421,28.33462]},"properties":{"peak_db":-2.7,"area_px":5,"approx_length_m":94,"platform":true}},{"type":"Feature","geometry":{"type":"Point","coordinates":[-91.64755,28.26247]},"properties":{"peak_db":7.3,"area_px":10,"approx_length_m":133,"platform":true}},{"type":"Feature","geometry":{"type":"Point","coordinates":[-91.74058,28.24841]},"properties":{"peak_db":4.3,"area_px":11,"approx_length_m":139,"platform":true}},{"type":"Feature","geometry":{"type":"Point","coordinates":[-91.63291,28.26559]},"properties":{"peak_db":0.9,"area_px":5,"approx_length_m":94,"platform":false}},{"type":"Feature","geometry":{"type":"Point","coordinates":[-92.46707,28.12806]},"properties":{"peak_db":7.8,"area_px":8,"approx_length_m":119,"platform":false}},{"type":"Feature","geometry":{"type":"Point","coordinates":[-91.06956,28.35665]},"properties":{"peak_db":5.2,"area_px":9,"approx_length_m":126,"platform":true}},{"type":"Feature","geometry":{"type":"Point","coordinates":[-91.08851,28.35729]},"properties":{"peak_db":8.3,"area_px":11,"approx_length_m":139,"platform":true}},{"type":"Feature","geometry":{"type":"Point","coordinates":[-91.75171,28.25319]},"properties":{"peak_db":1.2,"area_px":7,"approx_length_m":111,"platform":true}},{"type":"Feature","geometry":{"type":"Point","coordinates":[-91.74033,28.25599]},"properties":{"peak_db":5.1,"area_px":15,"approx_length_m":163,"platform":true}},{"type":"Feature","geometry":{"type":"Point","coordinates":[-92.83761,28.07425]},"properties":{"peak_db":-2.7,"area_px":1,"approx_length_m":42,"platform":true}},{"type":"Feature","geometry":{"type":"Point","coordinates":[-91.08701,28.36953]},"properties":{"peak_db":1.1,"area_px":6,"approx_length_m":103,"platform":true}},{"type":"Feature","geometry":{"type":"Point","coordinates":[-91.73062,28.26985]},"properties":{"peak_db":1.4,"area_px":9,"approx_length_m":126,"platform":true}},{"type":"Feature","geometry":{"type":"Point","coordinates":[-91.39575,28.32367]},"properties":{"peak_db":-3.8,"area_px":3,"approx_length_m":73,"platform":true}},{"type":"Feature","geometry":{"type":"Point","coordinates":[-91.86319,28.2513]},"properties":{"peak_db":4.1,"area_px":10,"approx_length_m":133,"platform":true}},{"type":"Feature","geometry":{"type":"Point","coordinates":[-91.67292,28.28322]},"properties":{"peak_db":-4.0,"area_px":4,"approx_length_m":84,"platform":true}},{"type":"Feature","geometry":{"type":"Point","coordinates":[-90.40886,28.48204]},"properties":{"peak_db":-3.7,"area_px":2,"approx_length_m":59,"platform":true}},{"type":"Feature","geometry":{"type":"Point","coordinates":[-92.01654,28.22785]},"properties":{"peak_db":4.5,"area_px":12,"approx_length_m":145,"platform":true}},{"type":"Feature","geometry":{"type":"Point","coordinates":[-92.7807,28.1052]},"properties":{"peak_db":4.4,"area_px":7,"approx_length_m":111,"platform":false}},{"type":"Feature","geometry":{"type":"Point","coordinates":[-92.78142,28.10586]},"properties":{"peak_db":-1.3,"area_px":2,"approx_length_m":59,"platform":false}},{"type":"Feature","geometry":{"type":"Point","coordinates":[-90.86501,28.42087]},"properties":{"peak_db":-2.4,"area_px":1,"approx_length_m":42,"platform":true}},{"type":"Feature","geometry":{"type":"Point","coordinates":[-90.86658,28.4215]},"properties":{"peak_db":13.0,"area_px":14,"approx_length_m":157,"platform":true}},{"type":"Feature","geometry":{"type":"Point","coordinates":[-91.625,28.30209]},"properties":{"peak_db":3.2,"area_px":9,"approx_length_m":126,"platform":true}},{"type":"Feature","geometry":{"type":"Point","coordinates":[-91.62571,28.30339]},"properties":{"peak_db":10.8,"area_px":5,"approx_length_m":94,"platform":true}},{"type":"Feature","geometry":{"type":"Point","coordinates":[-90.87331,28.42468]},"properties":{"peak_db":9.6,"area_px":15,"approx_length_m":163,"platform":true}},{"type":"Feature","geometry":{"type":"Point","coordinates":[-92.01088,28.24258]},"properties":{"peak_db":-1.8,"area_px":5,"approx_length_m":94,"platform":true}},{"type":"Feature","geometry":{"type":"Point","coordinates":[-90.38072,28.50105]},"properties":{"peak_db":-6.4,"area_px":4,"approx_length_m":84,"platform":true}},{"type":"Feature","geometry":{"type":"Point","coordinates":[-91.86608,28.27302]},"properties":{"peak_db":-1.0,"area_px":4,"approx_length_m":84,"platform":true}},{"type":"Feature","geometry":{"type":"Point","coordinates":[-90.37992,28.50973]},"properties":{"peak_db":-0.2,"area_px":7,"approx_length_m":111,"platform":true}},{"type":"Feature","geometry":{"type":"Point","coordinates":[-92.82361,28.11745]},"properties":{"peak_db":2.3,"area_px":4,"approx_length_m":84,"platform":true}},{"type":"Feature","geometry":{"type":"Point","coordinates":[-91.61504,28.31941]},"properties":{"peak_db":2.5,"area_px":5,"approx_length_m":94,"platform":true}},{"type":"Feature","geometry":{"type":"Point","coordinates":[-92.12815,28.24199]},"properties":{"peak_db":3.7,"area_px":11,"approx_length_m":139,"platform":true}},{"type":"Feature","geometry":{"type":"Point","coordinates":[-91.8304,28.29045]},"properties":{"peak_db":-6.1,"area_px":1,"approx_length_m":42,"platform":true}},{"type":"Feature","geometry":{"type":"Point","coordinates":[-91.53753,28.34254]},"properties":{"peak_db":-2.6,"area_px":7,"approx_length_m":111,"platform":true}},{"type":"Feature","geometry":{"type":"Point","coordinates":[-90.89355,28.44579]},"properties":{"peak_db":1.7,"area_px":7,"approx_length_m":111,"platform":true}},{"type":"Feature","geometry":{"type":"Point","coordinates":[-91.88204,28.28834]},"properties":{"peak_db":5.9,"area_px":15,"approx_length_m":163,"platform":true}},{"type":"Feature","geometry":{"type":"Point","coordinates":[-91.0449,28.43082]},"properties":{"peak_db":8.4,"area_px":5,"approx_length_m":94,"platform":true}},{"type":"Feature","geometry":{"type":"Point","coordinates":[-91.03443,28.43436]},"properties":{"peak_db":13.7,"area_px":13,"approx_length_m":151,"platform":true}},{"type":"Feature","geometry":{"type":"Point","coordinates":[-90.5408,28.51683]},"properties":{"peak_db":-7.4,"area_px":1,"approx_length_m":42,"platform":false}},{"type":"Feature","geometry":{"type":"Point","coordinates":[-91.28715,28.40121]},"properties":{"peak_db":0.9,"area_px":12,"approx_length_m":145,"platform":true}},{"type":"Feature","geometry":{"type":"Point","coordinates":[-91.13686,28.42565]},"properties":{"peak_db":4.5,"area_px":7,"approx_length_m":111,"platform":true}},{"type":"Feature","geometry":{"type":"Point","coordinates":[-92.6856,28.17389]},"properties":{"peak_db":5.2,"area_px":5,"approx_length_m":94,"platform":true}},{"type":"Feature","geometry":{"type":"Point","coordinates":[-91.90094,28.30784]},"properties":{"peak_db":16.9,"area_px":16,"approx_length_m":168,"platform":true}},{"type":"Feature","geometry":{"type":"Point","coordinates":[-90.43608,28.54085]},"properties":{"peak_db":-4.0,"area_px":4,"approx_length_m":84,"platform":true}},{"type":"Feature","geometry":{"type":"Point","coordinates":[-91.27559,28.41149]},"properties":{"peak_db":3.8,"area_px":8,"approx_length_m":119,"platform":true}},{"type":"Feature","geometry":{"type":"Point","coordinates":[-92.69448,28.17995]},"properties":{"peak_db":-2.8,"area_px":2,"approx_length_m":59,"platform":true}},{"type":"Feature","geometry":{"type":"Point","coordinates":[-92.69465,28.18076]},"properties":{"peak_db":-1.9,"area_px":2,"approx_length_m":59,"platform":true}},{"type":"Feature","geometry":{"type":"Point","coordinates":[-91.99264,28.29964]},"properties":{"peak_db":5.2,"area_px":8,"approx_length_m":119,"platform":true}},{"type":"Feature","geometry":{"type":"Point","coordinates":[-91.0287,28.45505]},"properties":{"peak_db":-5.4,"area_px":2,"approx_length_m":59,"platform":true}},{"type":"Feature","geometry":{"type":"Point","coordinates":[-92.20941,28.26501]},"properties":{"peak_db":-3.8,"area_px":2,"approx_length_m":59,"platform":true}},{"type":"Feature","geometry":{"type":"Point","coordinates":[-92.01156,28.29825]},"properties":{"peak_db":4.8,"area_px":19,"approx_length_m":183,"platform":true}},{"type":"Feature","geometry":{"type":"Point","coordinates":[-90.87448,28.48074]},"properties":{"peak_db":3.1,"area_px":7,"approx_length_m":111,"platform":true}},{"type":"Feature","geometry":{"type":"Point","coordinates":[-91.90907,28.31657]},"properties":{"peak_db":20.3,"area_px":25,"approx_length_m":210,"platform":true}},{"type":"Feature","geometry":{"type":"Point","coordinates":[-90.88396,28.48109]},"properties":{"peak_db":-0.6,"area_px":6,"approx_length_m":103,"platform":true}},{"type":"Feature","geometry":{"type":"Point","coordinates":[-91.31227,28.41611]},"properties":{"peak_db":1.4,"area_px":10,"approx_length_m":133,"platform":true}},{"type":"Feature","geometry":{"type":"Point","coordinates":[-90.86661,28.48615]},"properties":{"peak_db":2.3,"area_px":9,"approx_length_m":126,"platform":true}},{"type":"Feature","geometry":{"type":"Point","coordinates":[-91.99482,28.30715]},"properties":{"peak_db":-0.2,"area_px":3,"approx_length_m":73,"platform":false}},{"type":"Feature","geometry":{"type":"Point","coordinates":[-91.08134,28.45523]},"properties":{"peak_db":5.2,"area_px":16,"approx_length_m":168,"platform":true}},{"type":"Feature","geometry":{"type":"Point","coordinates":[-91.98897,28.30974]},"properties":{"peak_db":7.3,"area_px":11,"approx_length_m":139,"platform":true}},{"type":"Feature","geometry":{"type":"Point","coordinates":[-91.08239,28.45555]},"properties":{"peak_db":-5.7,"area_px":2,"approx_length_m":59,"platform":true}},{"type":"Feature","geometry":{"type":"Point","coordinates":[-90.87269,28.4892]},"properties":{"peak_db":-1.1,"area_px":3,"approx_length_m":73,"platform":true}},{"type":"Feature","geometry":{"type":"Point","coordinates":[-92.00912,28.31002]},"properties":{"peak_db":5.2,"area_px":13,"approx_length_m":151,"platform":true}},{"type":"Feature","geometry":{"type":"Point","coordinates":[-92.26363,28.27028]},"properties":{"peak_db":8.5,"area_px":9,"approx_length_m":126,"platform":true}},{"type":"Feature","geometry":{"type":"Point","coordinates":[-90.90171,28.49146]},"properties":{"peak_db":2.3,"area_px":7,"approx_length_m":111,"platform":true}},{"type":"Feature","geometry":{"type":"Point","coordinates":[-92.53026,28.22874]},"properties":{"peak_db":-1.9,"area_px":2,"approx_length_m":59,"platform":true}},{"type":"Feature","geometry":{"type":"Point","coordinates":[-91.08738,28.47014]},"properties":{"peak_db":12.6,"area_px":15,"approx_length_m":163,"platform":true}},{"type":"Feature","geometry":{"type":"Point","coordinates":[-90.8642,28.5062]},"properties":{"peak_db":6.9,"area_px":9,"approx_length_m":126,"platform":true}},{"type":"Feature","geometry":{"type":"Point","coordinates":[-92.09595,28.31033]},"properties":{"peak_db":4.9,"area_px":8,"approx_length_m":119,"platform":true}},{"type":"Feature","geometry":{"type":"Point","coordinates":[-90.39274,28.58047]},"properties":{"peak_db":-0.5,"area_px":6,"approx_length_m":103,"platform":true}},{"type":"Feature","geometry":{"type":"Point","coordinates":[-90.90261,28.50692]},"properties":{"peak_db":-4.4,"area_px":3,"approx_length_m":73,"platform":true}},{"type":"Feature","geometry":{"type":"Point","coordinates":[-92.79533,28.19994]},"properties":{"peak_db":0.4,"area_px":4,"approx_length_m":84,"platform":true}},{"type":"Feature","geometry":{"type":"Point","coordinates":[-90.90306,28.50838]},"properties":{"peak_db":0.9,"area_px":4,"approx_length_m":84,"platform":true}},{"type":"Feature","geometry":{"type":"Point","coordinates":[-91.14583,28.47288]},"properties":{"peak_db":-4.0,"area_px":4,"approx_length_m":84,"platform":true}},{"type":"Feature","geometry":{"type":"Point","coordinates":[-90.88505,28.51611]},"properties":{"peak_db":-1.6,"area_px":10,"approx_length_m":133,"platform":true}},{"type":"Feature","geometry":{"type":"Point","coordinates":[-91.44462,28.43043]},"properties":{"peak_db":3.0,"area_px":9,"approx_length_m":126,"platform":true}},{"type":"Feature","geometry":{"type":"Point","coordinates":[-90.86724,28.52137]},"properties":{"peak_db":9.8,"area_px":12,"approx_length_m":145,"platform":true}},{"type":"Feature","geometry":{"type":"Point","coordinates":[-92.715,28.22094]},"properties":{"peak_db":0.5,"area_px":3,"approx_length_m":73,"platform":false}},{"type":"Feature","geometry":{"type":"Point","coordinates":[-90.86209,28.5224]},"properties":{"peak_db":0.9,"area_px":7,"approx_length_m":111,"platform":true}},{"type":"Feature","geometry":{"type":"Point","coordinates":[-90.97007,28.50567]},"properties":{"peak_db":-5.0,"area_px":3,"approx_length_m":73,"platform":true}},{"type":"Feature","geometry":{"type":"Point","coordinates":[-91.47504,28.42777]},"properties":{"peak_db":-0.2,"area_px":7,"approx_length_m":111,"platform":true}},{"type":"Feature","geometry":{"type":"Point","coordinates":[-91.05015,28.49544]},"properties":{"peak_db":-3.2,"area_px":4,"approx_length_m":84,"platform":true}},{"type":"Feature","geometry":{"type":"Point","coordinates":[-91.46964,28.43032]},"properties":{"peak_db":2.2,"area_px":6,"approx_length_m":103,"platform":true}},{"type":"Feature","geometry":{"type":"Point","coordinates":[-92.04993,28.33654]},"properties":{"peak_db":1.7,"area_px":6,"approx_length_m":103,"platform":true}},{"type":"Feature","geometry":{"type":"Point","coordinates":[-90.90874,28.51989]},"properties":{"peak_db":5.2,"area_px":7,"approx_length_m":111,"platform":true}},{"type":"Feature","geometry":{"type":"Point","coordinates":[-90.9021,28.52103]},"properties":{"peak_db":-2.5,"area_px":5,"approx_length_m":94,"platform":true}},{"type":"Feature","geometry":{"type":"Point","coordinates":[-91.31432,28.45689]},"properties":{"peak_db":-3.0,"area_px":3,"approx_length_m":73,"platform":true}},{"type":"Feature","geometry":{"type":"Point","coordinates":[-91.09989,28.4922]},"properties":{"peak_db":0.4,"area_px":8,"approx_length_m":119,"platform":true}},{"type":"Feature","geometry":{"type":"Point","coordinates":[-90.87003,28.52865]},"properties":{"peak_db":6.4,"area_px":19,"approx_length_m":183,"platform":true}},{"type":"Feature","geometry":{"type":"Point","coordinates":[-91.09984,28.49308]},"properties":{"peak_db":-6.5,"area_px":2,"approx_length_m":59,"platform":true}},{"type":"Feature","geometry":{"type":"Point","coordinates":[-90.89408,28.52551]},"properties":{"peak_db":-6.6,"area_px":2,"approx_length_m":59,"platform":true}},{"type":"Feature","geometry":{"type":"Point","coordinates":[-90.8766,28.52906]},"properties":{"peak_db":-6.5,"area_px":1,"approx_length_m":42,"platform":true}},{"type":"Feature","geometry":{"type":"Point","coordinates":[-90.90573,28.52713]},"properties":{"peak_db":5.7,"area_px":9,"approx_length_m":126,"platform":true}},{"type":"Feature","geometry":{"type":"Point","coordinates":[-90.8942,28.52887]},"properties":{"peak_db":1.1,"area_px":7,"approx_length_m":111,"platform":true}},{"type":"Feature","geometry":{"type":"Point","coordinates":[-92.79438,28.21973]},"properties":{"peak_db":5.0,"area_px":4,"approx_length_m":84,"platform":true}},{"type":"Feature","geometry":{"type":"Point","coordinates":[-91.27922,28.47453]},"properties":{"peak_db":4.8,"area_px":13,"approx_length_m":151,"platform":true}},{"type":"Feature","geometry":{"type":"Point","coordinates":[-90.89016,28.53553]},"properties":{"peak_db":-0.8,"area_px":5,"approx_length_m":94,"platform":true}},{"type":"Feature","geometry":{"type":"Point","coordinates":[-91.44945,28.44885]},"properties":{"peak_db":7.0,"area_px":7,"approx_length_m":111,"platform":true}},{"type":"Feature","geometry":{"type":"Point","coordinates":[-91.07166,28.50902]},"properties":{"peak_db":-1.5,"area_px":3,"approx_length_m":73,"platform":true}},{"type":"Feature","geometry":{"type":"Point","coordinates":[-91.28645,28.47729]},"properties":{"peak_db":3.7,"area_px":7,"approx_length_m":111,"platform":true}},{"type":"Feature","geometry":{"type":"Point","coordinates":[-91.1019,28.50663]},"properties":{"peak_db":3.7,"area_px":15,"approx_length_m":163,"platform":true}},{"type":"Feature","geometry":{"type":"Point","coordinates":[-91.45456,28.45055]},"properties":{"peak_db":3.7,"area_px":3,"approx_length_m":73,"platform":true}},{"type":"Feature","geometry":{"type":"Point","coordinates":[-91.29701,28.47738]},"properties":{"peak_db":-0.9,"area_px":6,"approx_length_m":103,"platform":true}},{"type":"Feature","geometry":{"type":"Point","coordinates":[-90.97875,28.52876]},"properties":{"peak_db":6.2,"area_px":30,"approx_length_m":230,"platform":true}},{"type":"Feature","geometry":{"type":"Point","coordinates":[-91.45645,28.45366]},"properties":{"peak_db":4.7,"area_px":8,"approx_length_m":119,"platform":true}},{"type":"Feature","geometry":{"type":"Point","coordinates":[-91.39047,28.46514]},"properties":{"peak_db":7.4,"area_px":12,"approx_length_m":145,"platform":true}},{"type":"Feature","geometry":{"type":"Point","coordinates":[-90.85341,28.54923]},"properties":{"peak_db":-1.6,"area_px":4,"approx_length_m":84,"platform":true}},{"type":"Feature","geometry":{"type":"Point","coordinates":[-91.36495,28.47468]},"properties":{"peak_db":9.5,"area_px":9,"approx_length_m":126,"platform":true}},{"type":"Feature","geometry":{"type":"Point","coordinates":[-91.46492,28.45921]},"properties":{"peak_db":3.6,"area_px":6,"approx_length_m":103,"platform":true}},{"type":"Feature","geometry":{"type":"Point","coordinates":[-90.98046,28.53654]},"properties":{"peak_db":-5.0,"area_px":3,"approx_length_m":73,"platform":true}},{"type":"Feature","geometry":{"type":"Point","coordinates":[-91.46494,28.46005]},"properties":{"peak_db":-6.5,"area_px":1,"approx_length_m":42,"platform":true}},{"type":"Feature","geometry":{"type":"Point","coordinates":[-90.80303,28.56457]},"properties":{"peak_db":3.1,"area_px":12,"approx_length_m":145,"platform":true}},{"type":"Feature","geometry":{"type":"Point","coordinates":[-91.32088,28.4855]},"properties":{"peak_db":1.3,"area_px":6,"approx_length_m":103,"platform":true}},{"type":"Feature","geometry":{"type":"Point","coordinates":[-91.34977,28.48375]},"properties":{"peak_db":-1.3,"area_px":5,"approx_length_m":94,"platform":true}},{"type":"Feature","geometry":{"type":"Point","coordinates":[-91.41532,28.47745]},"properties":{"peak_db":-7.9,"area_px":1,"approx_length_m":42,"platform":true}},{"type":"Feature","geometry":{"type":"Point","coordinates":[-91.09986,28.52933]},"properties":{"peak_db":5.3,"area_px":17,"approx_length_m":173,"platform":true}},{"type":"Feature","geometry":{"type":"Point","coordinates":[-90.80544,28.57489]},"properties":{"peak_db":-8.0,"area_px":1,"approx_length_m":42,"platform":true}},{"type":"Feature","geometry":{"type":"Point","coordinates":[-91.44101,28.47766]},"properties":{"peak_db":5.6,"area_px":12,"approx_length_m":145,"platform":true}},{"type":"Feature","geometry":{"type":"Point","coordinates":[-90.41904,28.63948]},"properties":{"peak_db":2.5,"area_px":4,"approx_length_m":84,"platform":false}},{"type":"Feature","geometry":{"type":"Point","coordinates":[-91.00017,28.55046]},"properties":{"peak_db":-1.0,"area_px":4,"approx_length_m":84,"platform":true}},{"type":"Feature","geometry":{"type":"Point","coordinates":[-90.80471,28.58646]},"properties":{"peak_db":3.3,"area_px":6,"approx_length_m":103,"platform":true}},{"type":"Feature","geometry":{"type":"Point","coordinates":[-90.7872,28.59636]},"properties":{"peak_db":-4.5,"area_px":2,"approx_length_m":59,"platform":false}},{"type":"Feature","geometry":{"type":"Point","coordinates":[-91.42341,28.50462]},"properties":{"peak_db":-2.4,"area_px":1,"approx_length_m":42,"platform":true}},{"type":"Feature","geometry":{"type":"Point","coordinates":[-91.97304,28.42173]},"properties":{"peak_db":6.1,"area_px":15,"approx_length_m":163,"platform":true}},{"type":"Feature","geometry":{"type":"Point","coordinates":[-92.05437,28.4115]},"properties":{"peak_db":3.7,"area_px":6,"approx_length_m":103,"platform":true}},{"type":"Feature","geometry":{"type":"Point","coordinates":[-91.57034,28.49716]},"properties":{"peak_db":3.5,"area_px":11,"approx_length_m":139,"platform":true}},{"type":"Feature","geometry":{"type":"Point","coordinates":[-90.94898,28.5994]},"properties":{"peak_db":-7.5,"area_px":1,"approx_length_m":42,"platform":false}},{"type":"Feature","geometry":{"type":"Point","coordinates":[-91.56397,28.50285]},"properties":{"peak_db":-1.0,"area_px":5,"approx_length_m":94,"platform":true}},{"type":"Feature","geometry":{"type":"Point","coordinates":[-90.92052,28.60647]},"properties":{"peak_db":-5.8,"area_px":2,"approx_length_m":59,"platform":false}},{"type":"Feature","geometry":{"type":"Point","coordinates":[-91.01988,28.59293]},"properties":{"peak_db":2.4,"area_px":10,"approx_length_m":133,"platform":true}},{"type":"Feature","geometry":{"type":"Point","coordinates":[-92.01499,28.43693]},"properties":{"peak_db":-4.6,"area_px":2,"approx_length_m":59,"platform":false}},{"type":"Feature","geometry":{"type":"Point","coordinates":[-91.00272,28.6002]},"properties":{"peak_db":-7.6,"area_px":1,"approx_length_m":42,"platform":true}},{"type":"Feature","geometry":{"type":"Point","coordinates":[-92.06366,28.43108]},"properties":{"peak_db":2.5,"area_px":3,"approx_length_m":73,"platform":true}},{"type":"Feature","geometry":{"type":"Point","coordinates":[-91.52744,28.51939]},"properties":{"peak_db":10.0,"area_px":16,"approx_length_m":168,"platform":true}},{"type":"Feature","geometry":{"type":"Point","coordinates":[-91.55636,28.515]},"properties":{"peak_db":8.7,"area_px":11,"approx_length_m":139,"platform":true}},{"type":"Feature","geometry":{"type":"Point","coordinates":[-91.06953,28.59312]},"properties":{"peak_db":-6.8,"area_px":1,"approx_length_m":42,"platform":true}},{"type":"Feature","geometry":{"type":"Point","coordinates":[-92.03568,28.44052]},"properties":{"peak_db":13.3,"area_px":11,"approx_length_m":139,"platform":true}},{"type":"Feature","geometry":{"type":"Point","coordinates":[-91.84294,28.47594]},"properties":{"peak_db":-1.7,"area_px":8,"approx_length_m":119,"platform":true}},{"type":"Feature","geometry":{"type":"Point","coordinates":[-91.49581,28.53312]},"properties":{"peak_db":-0.3,"area_px":9,"approx_length_m":126,"platform":true}},{"type":"Feature","geometry":{"type":"Point","coordinates":[-91.11904,28.59372]},"properties":{"peak_db":-4.8,"area_px":2,"approx_length_m":59,"platform":false}},{"type":"Feature","geometry":{"type":"Point","coordinates":[-91.26879,28.57321]},"properties":{"peak_db":1.0,"area_px":6,"approx_length_m":103,"platform":true}},{"type":"Feature","geometry":{"type":"Point","coordinates":[-91.0349,28.61087]},"properties":{"peak_db":8.9,"area_px":10,"approx_length_m":133,"platform":true}},{"type":"Feature","geometry":{"type":"Point","coordinates":[-90.99471,28.61882]},"properties":{"peak_db":2.4,"area_px":15,"approx_length_m":163,"platform":true}},{"type":"Feature","geometry":{"type":"Point","coordinates":[-91.5455,28.53401]},"properties":{"peak_db":0.6,"area_px":11,"approx_length_m":139,"platform":true}},{"type":"Feature","geometry":{"type":"Point","coordinates":[-90.3661,28.71887]},"properties":{"peak_db":3.1,"area_px":9,"approx_length_m":126,"platform":false}},{"type":"Feature","geometry":{"type":"Point","coordinates":[-91.64498,28.52164]},"properties":{"peak_db":6.9,"area_px":12,"approx_length_m":145,"platform":true}},{"type":"Feature","geometry":{"type":"Point","coordinates":[-91.25483,28.58438]},"properties":{"peak_db":0.3,"area_px":13,"approx_length_m":151,"platform":true}},{"type":"Feature","geometry":{"type":"Point","coordinates":[-91.27884,28.58416]},"properties":{"peak_db":5.7,"area_px":12,"approx_length_m":145,"platform":true}},{"type":"Feature","geometry":{"type":"Point","coordinates":[-91.54444,28.54234]},"properties":{"peak_db":2.4,"area_px":4,"approx_length_m":84,"platform":true}},{"type":"Feature","geometry":{"type":"Point","coordinates":[-92.03484,28.46532]},"properties":{"peak_db":1.3,"area_px":10,"approx_length_m":133,"platform":true}},{"type":"Feature","geometry":{"type":"Point","coordinates":[-91.20629,28.59887]},"properties":{"peak_db":7.3,"area_px":11,"approx_length_m":139,"platform":true}},{"type":"Feature","geometry":{"type":"Point","coordinates":[-90.99155,28.63566]},"properties":{"peak_db":-7.7,"area_px":1,"approx_length_m":42,"platform":true}},{"type":"Feature","geometry":{"type":"Point","coordinates":[-90.99185,28.63622]},"properties":{"peak_db":-4.6,"area_px":5,"approx_length_m":94,"platform":true}},{"type":"Feature","geometry":{"type":"Point","coordinates":[-91.02916,28.63158]},"properties":{"peak_db":4.3,"area_px":11,"approx_length_m":139,"platform":true}},{"type":"Feature","geometry":{"type":"Point","coordinates":[-91.06509,28.62819]},"properties":{"peak_db":3.7,"area_px":20,"approx_length_m":188,"platform":true}},{"type":"Feature","geometry":{"type":"Point","coordinates":[-91.50693,28.5656]},"properties":{"peak_db":-1.4,"area_px":3,"approx_length_m":73,"platform":true}},{"type":"Feature","geometry":{"type":"Point","coordinates":[-91.27799,28.60221]},"properties":{"peak_db":-1.0,"area_px":8,"approx_length_m":119,"platform":true}},{"type":"Feature","geometry":{"type":"Point","coordinates":[-91.1502,28.62338]},"properties":{"peak_db":-4.3,"area_px":1,"approx_length_m":42,"platform":false}},{"type":"Feature","geometry":{"type":"Point","coordinates":[-91.06735,28.63702]},"properties":{"peak_db":-5.0,"area_px":3,"approx_length_m":73,"platform":true}},{"type":"Feature","geometry":{"type":"Point","coordinates":[-91.52431,28.56759]},"properties":{"peak_db":1.0,"area_px":9,"approx_length_m":126,"platform":true}},{"type":"Feature","geometry":{"type":"Point","coordinates":[-90.97824,28.65611]},"properties":{"peak_db":0.4,"area_px":7,"approx_length_m":111,"platform":true}},{"type":"Feature","geometry":{"type":"Point","coordinates":[-92.05319,28.48646]},"properties":{"peak_db":-1.6,"area_px":5,"approx_length_m":94,"platform":false}},{"type":"Feature","geometry":{"type":"Point","coordinates":[-92.48899,28.4147]},"properties":{"peak_db":1.3,"area_px":6,"approx_length_m":103,"platform":true}},{"type":"Feature","geometry":{"type":"Point","coordinates":[-91.24855,28.61822]},"properties":{"peak_db":-6.9,"area_px":1,"approx_length_m":42,"platform":true}},{"type":"Feature","geometry":{"type":"Point","coordinates":[-92.17402,28.47069]},"properties":{"peak_db":9.3,"area_px":13,"approx_length_m":151,"platform":true}},{"type":"Feature","geometry":{"type":"Point","coordinates":[-91.30521,28.61261]},"properties":{"peak_db":-5.6,"area_px":2,"approx_length_m":59,"platform":false}},{"type":"Feature","geometry":{"type":"Point","coordinates":[-90.83629,28.69357]},"properties":{"peak_db":7.0,"area_px":8,"approx_length_m":119,"platform":false}},{"type":"Feature","geometry":{"type":"Point","coordinates":[-91.52471,28.58824]},"properties":{"peak_db":-6.0,"area_px":3,"approx_length_m":73,"platform":true}},{"type":"Feature","geometry":{"type":"Point","coordinates":[-92.61503,28.41057]},"properties":{"peak_db":-4.4,"area_px":1,"approx_length_m":42,"platform":true}},{"type":"Feature","geometry":{"type":"Point","coordinates":[-92.61557,28.4109]},"properties":{"peak_db":2.3,"area_px":4,"approx_length_m":84,"platform":true}},{"type":"Feature","geometry":{"type":"Point","coordinates":[-92.15552,28.48808]},"properties":{"peak_db":10.4,"area_px":8,"approx_length_m":119,"platform":true}},{"type":"Feature","geometry":{"type":"Point","coordinates":[-92.0357,28.51405]},"properties":{"peak_db":-4.5,"area_px":2,"approx_length_m":59,"platform":true}},{"type":"Feature","geometry":{"type":"Point","coordinates":[-91.4617,28.61274]},"properties":{"peak_db":-2.2,"area_px":5,"approx_length_m":94,"platform":true}},{"type":"Feature","geometry":{"type":"Point","coordinates":[-92.51013,28.44844]},"properties":{"peak_db":4.5,"area_px":4,"approx_length_m":84,"platform":true}},{"type":"Feature","geometry":{"type":"Point","coordinates":[-91.76868,28.57253]},"properties":{"peak_db":-2.9,"area_px":5,"approx_length_m":94,"platform":true}},{"type":"Feature","geometry":{"type":"Point","coordinates":[-91.6382,28.59668]},"properties":{"peak_db":-0.6,"area_px":3,"approx_length_m":73,"platform":false}},{"type":"Feature","geometry":{"type":"Point","coordinates":[-91.63911,28.59653]},"properties":{"peak_db":-5.0,"area_px":1,"approx_length_m":42,"platform":false}},{"type":"Feature","geometry":{"type":"Point","coordinates":[-91.76749,28.58186]},"properties":{"peak_db":0.7,"area_px":4,"approx_length_m":84,"platform":true}},{"type":"Feature","geometry":{"type":"Point","coordinates":[-91.63002,28.60749]},"properties":{"peak_db":-4.1,"area_px":2,"approx_length_m":59,"platform":true}},{"type":"Feature","geometry":{"type":"Point","coordinates":[-91.05738,28.69809]},"properties":{"peak_db":-1.7,"area_px":2,"approx_length_m":59,"platform":false}},{"type":"Feature","geometry":{"type":"Point","coordinates":[-90.41447,28.79884]},"properties":{"peak_db":-3.9,"area_px":4,"approx_length_m":84,"platform":true}},{"type":"Feature","geometry":{"type":"Point","coordinates":[-91.48881,28.63466]},"properties":{"peak_db":3.3,"area_px":18,"approx_length_m":178,"platform":true}},{"type":"Feature","geometry":{"type":"Point","coordinates":[-90.4273,28.80385]},"properties":{"peak_db":-5.9,"area_px":4,"approx_length_m":84,"platform":true}},{"type":"Feature","geometry":{"type":"Point","coordinates":[-91.79598,28.59095]},"properties":{"peak_db":1.9,"area_px":5,"approx_length_m":94,"platform":true}},{"type":"Feature","geometry":{"type":"Point","coordinates":[-91.88607,28.5776]},"properties":{"peak_db":-2.6,"area_px":2,"approx_length_m":59,"platform":true}},{"type":"Feature","geometry":{"type":"Point","coordinates":[-91.20321,28.689]},"properties":{"peak_db":0.7,"area_px":7,"approx_length_m":111,"platform":true}},{"type":"Feature","geometry":{"type":"Point","coordinates":[-90.39436,28.81341]},"properties":{"peak_db":-1.1,"area_px":4,"approx_length_m":84,"platform":true}},{"type":"Feature","geometry":{"type":"Point","coordinates":[-92.19279,28.53259]},"properties":{"peak_db":2.9,"area_px":8,"approx_length_m":119,"platform":false}},{"type":"Feature","geometry":{"type":"Point","coordinates":[-92.198,28.5324]},"properties":{"peak_db":-2.7,"area_px":2,"approx_length_m":59,"platform":false}},{"type":"Feature","geometry":{"type":"Point","coordinates":[-91.50083,28.64569]},"properties":{"peak_db":0.3,"area_px":6,"approx_length_m":103,"platform":true}},{"type":"Feature","geometry":{"type":"Point","coordinates":[-91.95949,28.57243]},"properties":{"peak_db":0.6,"area_px":8,"approx_length_m":119,"platform":true}},{"type":"Feature","geometry":{"type":"Point","coordinates":[-91.19285,28.69716]},"properties":{"peak_db":7.6,"area_px":14,"approx_length_m":157,"platform":true}},{"type":"Feature","geometry":{"type":"Point","coordinates":[-91.49505,28.64917]},"properties":{"peak_db":-6.1,"area_px":1,"approx_length_m":42,"platform":true}},{"type":"Feature","geometry":{"type":"Point","coordinates":[-90.7408,28.76952]},"properties":{"peak_db":1.2,"area_px":7,"approx_length_m":111,"platform":true}},{"type":"Feature","geometry":{"type":"Point","coordinates":[-90.60887,28.7896]},"properties":{"peak_db":-4.2,"area_px":3,"approx_length_m":73,"platform":true}},{"type":"Feature","geometry":{"type":"Point","coordinates":[-91.16828,28.70583]},"properties":{"peak_db":-8.0,"area_px":1,"approx_length_m":42,"platform":false}},{"type":"Feature","geometry":{"type":"Point","coordinates":[-91.8697,28.59472]},"properties":{"peak_db":4.8,"area_px":10,"approx_length_m":133,"platform":true}},{"type":"Feature","geometry":{"type":"Point","coordinates":[-91.61105,28.63956]},"properties":{"peak_db":4.6,"area_px":7,"approx_length_m":111,"platform":true}},{"type":"Feature","geometry":{"type":"Point","coordinates":[-91.8804,28.59985]},"properties":{"peak_db":-1.9,"area_px":3,"approx_length_m":73,"platform":true}},{"type":"Feature","geometry":{"type":"Point","coordinates":[-92.06802,28.57212]},"properties":{"peak_db":0.2,"area_px":3,"approx_length_m":73,"platform":false}},{"type":"Feature","geometry":{"type":"Point","coordinates":[-91.49915,28.66442]},"properties":{"peak_db":-5.8,"area_px":1,"approx_length_m":42,"platform":true}},{"type":"Feature","geometry":{"type":"Point","coordinates":[-90.41676,28.83337]},"properties":{"peak_db":7.5,"area_px":13,"approx_length_m":151,"platform":true}},{"type":"Feature","geometry":{"type":"Point","coordinates":[-91.5097,28.66452]},"properties":{"peak_db":2.5,"area_px":5,"approx_length_m":94,"platform":true}},{"type":"Feature","geometry":{"type":"Point","coordinates":[-92.45164,28.51192]},"properties":{"peak_db":7.8,"area_px":14,"approx_length_m":157,"platform":true}},{"type":"Feature","geometry":{"type":"Point","coordinates":[-90.76676,28.78458]},"properties":{"peak_db":7.1,"area_px":17,"approx_length_m":173,"platform":true}},{"type":"Feature","geometry":{"type":"Point","coordinates":[-91.65082,28.64825]},"properties":{"peak_db":-5.5,"area_px":1,"approx_length_m":42,"platform":false}},{"type":"Feature","geometry":{"type":"Point","coordinates":[-90.49977,28.83387]},"properties":{"peak_db":-5.8,"area_px":3,"approx_length_m":73,"platform":true}},{"type":"Feature","geometry":{"type":"Point","coordinates":[-92.11061,28.58339]},"properties":{"peak_db":5.4,"area_px":10,"approx_length_m":133,"platform":true}},{"type":"Feature","geometry":{"type":"Point","coordinates":[-90.39467,28.85281]},"properties":{"peak_db":-7.3,"area_px":1,"approx_length_m":42,"platform":true}},{"type":"Feature","geometry":{"type":"Point","coordinates":[-92.09282,28.58619]},"properties":{"peak_db":2.9,"area_px":4,"approx_length_m":84,"platform":true}},{"type":"Feature","geometry":{"type":"Point","coordinates":[-90.39055,28.86204]},"properties":{"peak_db":-7.6,"area_px":1,"approx_length_m":42,"platform":true}},{"type":"Feature","geometry":{"type":"Point","coordinates":[-90.49039,28.84794]},"properties":{"peak_db":-6.7,"area_px":2,"approx_length_m":59,"platform":true}},{"type":"Feature","geometry":{"type":"Point","coordinates":[-90.61552,28.82965]},"properties":{"peak_db":-7.8,"area_px":2,"approx_length_m":59,"platform":true}},{"type":"Feature","geometry":{"type":"Point","coordinates":[-91.24147,28.73587]},"properties":{"peak_db":-6.7,"area_px":1,"approx_length_m":42,"platform":false}},{"type":"Feature","geometry":{"type":"Point","coordinates":[-92.07323,28.60646]},"properties":{"peak_db":2.4,"area_px":8,"approx_length_m":119,"platform":true}},{"type":"Feature","geometry":{"type":"Point","coordinates":[-91.2531,28.73891]},"properties":{"peak_db":0.2,"area_px":6,"approx_length_m":103,"platform":true}},{"type":"Feature","geometry":{"type":"Point","coordinates":[-90.48061,28.85845]},"properties":{"peak_db":-5.8,"area_px":1,"approx_length_m":42,"platform":true}},{"type":"Feature","geometry":{"type":"Point","coordinates":[-92.14567,28.59907]},"properties":{"peak_db":-0.2,"area_px":6,"approx_length_m":103,"platform":false}},{"type":"Feature","geometry":{"type":"Point","coordinates":[-90.63383,28.83937]},"properties":{"peak_db":-6.7,"area_px":1,"approx_length_m":42,"platform":true}},{"type":"Feature","geometry":{"type":"Point","coordinates":[-92.06944,28.61754]},"properties":{"peak_db":6.1,"area_px":11,"approx_length_m":139,"platform":true}},{"type":"Feature","geometry":{"type":"Point","coordinates":[-91.23919,28.75047]},"properties":{"peak_db":7.6,"area_px":9,"approx_length_m":126,"platform":true}},{"type":"Feature","geometry":{"type":"Point","coordinates":[-90.49088,28.8673]},"properties":{"peak_db":6.6,"area_px":19,"approx_length_m":183,"platform":true}},{"type":"Feature","geometry":{"type":"Point","coordinates":[-90.65182,28.84602]},"properties":{"peak_db":3.0,"area_px":5,"approx_length_m":94,"platform":true}},{"type":"Feature","geometry":{"type":"Point","coordinates":[-90.47412,28.87292]},"properties":{"peak_db":-6.1,"area_px":2,"approx_length_m":59,"platform":true}},{"type":"Feature","geometry":{"type":"Point","coordinates":[-90.90592,28.80791]},"properties":{"peak_db":-5.8,"area_px":1,"approx_length_m":42,"platform":true}},{"type":"Feature","geometry":{"type":"Point","coordinates":[-90.64046,28.84901]},"properties":{"peak_db":5.0,"area_px":9,"approx_length_m":126,"platform":true}},{"type":"Feature","geometry":{"type":"Point","coordinates":[-90.87186,28.81393]},"properties":{"peak_db":6.6,"area_px":7,"approx_length_m":111,"platform":true}},{"type":"Feature","geometry":{"type":"Point","coordinates":[-91.94802,28.64422]},"properties":{"peak_db":-3.0,"area_px":2,"approx_length_m":59,"platform":true}},{"type":"Feature","geometry":{"type":"Point","coordinates":[-91.93742,28.64651]},"properties":{"peak_db":3.4,"area_px":4,"approx_length_m":84,"platform":true}},{"type":"Feature","geometry":{"type":"Point","coordinates":[-90.6939,28.8448]},"properties":{"peak_db":0.8,"area_px":8,"approx_length_m":119,"platform":true}},{"type":"Feature","geometry":{"type":"Point","coordinates":[-90.68839,28.8469]},"properties":{"peak_db":-5.9,"area_px":1,"approx_length_m":42,"platform":true}},{"type":"Feature","geometry":{"type":"Point","coordinates":[-92.44547,28.57075]},"properties":{"peak_db":-0.1,"area_px":6,"approx_length_m":103,"platform":true}},{"type":"Feature","geometry":{"type":"Point","coordinates":[-91.36808,28.74783]},"properties":{"peak_db":3.4,"area_px":10,"approx_length_m":133,"platform":true}},{"type":"Feature","geometry":{"type":"Point","coordinates":[-90.832,28.8332]},"properties":{"peak_db":2.4,"area_px":8,"approx_length_m":119,"platform":true}},{"type":"Feature","geometry":{"type":"Point","coordinates":[-91.42041,28.744]},"properties":{"peak_db":-3.0,"area_px":2,"approx_length_m":59,"platform":true}},{"type":"Feature","geometry":{"type":"Point","coordinates":[-90.92238,28.82291]},"properties":{"peak_db":-5.2,"area_px":1,"approx_length_m":42,"platform":true}},{"type":"Feature","geometry":{"type":"Point","coordinates":[-90.84204,28.83559]},"properties":{"peak_db":6.0,"area_px":6,"approx_length_m":103,"platform":true}},{"type":"Feature","geometry":{"type":"Point","coordinates":[-90.49113,28.8891]},"properties":{"peak_db":-0.3,"area_px":4,"approx_length_m":84,"platform":true}},{"type":"Feature","geometry":{"type":"Point","coordinates":[-90.927,28.82261]},"properties":{"peak_db":-6.0,"area_px":2,"approx_length_m":59,"platform":true}},{"type":"Feature","geometry":{"type":"Point","coordinates":[-92.46105,28.57693]},"properties":{"peak_db":2.4,"area_px":8,"approx_length_m":119,"platform":true}},{"type":"Feature","geometry":{"type":"Point","coordinates":[-91.95337,28.66268]},"properties":{"peak_db":-2.4,"area_px":3,"approx_length_m":73,"platform":true}},{"type":"Feature","geometry":{"type":"Point","coordinates":[-91.38926,28.75376]},"properties":{"peak_db":3.1,"area_px":12,"approx_length_m":145,"platform":true}},{"type":"Feature","geometry":{"type":"Point","coordinates":[-90.39904,28.90617]},"properties":{"peak_db":1.6,"area_px":4,"approx_length_m":84,"platform":false}},{"type":"Feature","geometry":{"type":"Point","coordinates":[-91.95385,28.66298]},"properties":{"peak_db":-4.4,"area_px":1,"approx_length_m":42,"platform":true}},{"type":"Feature","geometry":{"type":"Point","coordinates":[-90.93602,28.82554]},"properties":{"peak_db":-4.6,"area_px":1,"approx_length_m":42,"platform":true}},{"type":"Feature","geometry":{"type":"Point","coordinates":[-90.85026,28.83919]},"properties":{"peak_db":-2.2,"area_px":4,"approx_length_m":84,"platform":true}},{"type":"Feature","geometry":{"type":"Point","coordinates":[-90.47629,28.89752]},"properties":{"peak_db":2.3,"area_px":5,"approx_length_m":94,"platform":true}},{"type":"Feature","geometry":{"type":"Point","coordinates":[-92.06991,28.64923]},"properties":{"peak_db":-3.3,"area_px":2,"approx_length_m":59,"platform":true}},{"type":"Feature","geometry":{"type":"Point","coordinates":[-90.4189,28.90919]},"properties":{"peak_db":2.7,"area_px":8,"approx_length_m":119,"platform":true}},{"type":"Feature","geometry":{"type":"Point","coordinates":[-92.44566,28.58943]},"properties":{"peak_db":0.1,"area_px":3,"approx_length_m":73,"platform":true}},{"type":"Feature","geometry":{"type":"Point","coordinates":[-90.42083,28.91067]},"properties":{"peak_db":2.5,"area_px":4,"approx_length_m":84,"platform":true}},{"type":"Feature","geometry":{"type":"Point","coordinates":[-91.9703,28.67062]},"properties":{"peak_db":1.8,"area_px":17,"approx_length_m":173,"platform":true}},{"type":"Feature","geometry":{"type":"Point","coordinates":[-91.40397,28.76247]},"properties":{"peak_db":11.5,"area_px":25,"approx_length_m":210,"platform":true}},{"type":"Feature","geometry":{"type":"Point","coordinates":[-91.76441,28.70412]},"properties":{"peak_db":1.0,"area_px":4,"approx_length_m":84,"platform":true}},{"type":"Feature","geometry":{"type":"Point","coordinates":[-92.46564,28.59041]},"properties":{"peak_db":3.9,"area_px":4,"approx_length_m":84,"platform":true}},{"type":"Feature","geometry":{"type":"Point","coordinates":[-91.60794,28.73221]},"properties":{"peak_db":1.3,"area_px":11,"approx_length_m":139,"platform":true}},{"type":"Feature","geometry":{"type":"Point","coordinates":[-90.82851,28.85714]},"properties":{"peak_db":5.6,"area_px":4,"approx_length_m":84,"platform":true}},{"type":"Feature","geometry":{"type":"Point","coordinates":[-92.41491,28.60471]},"properties":{"peak_db":1.2,"area_px":3,"approx_length_m":73,"platform":false}},{"type":"Feature","geometry":{"type":"Point","coordinates":[-90.48545,28.91136]},"properties":{"peak_db":-6.2,"area_px":1,"approx_length_m":42,"platform":true}},{"type":"Feature","geometry":{"type":"Point","coordinates":[-90.82834,28.86134]},"properties":{"peak_db":1.2,"area_px":13,"approx_length_m":151,"platform":true}},{"type":"Feature","geometry":{"type":"Point","coordinates":[-90.43214,28.923]},"properties":{"peak_db":6.0,"area_px":7,"approx_length_m":111,"platform":true}},{"type":"Feature","geometry":{"type":"Point","coordinates":[-92.09038,28.66666]},"properties":{"peak_db":1.6,"area_px":6,"approx_length_m":103,"platform":false}},{"type":"Feature","geometry":{"type":"Point","coordinates":[-90.41336,28.93304]},"properties":{"peak_db":-1.9,"area_px":6,"approx_length_m":103,"platform":true}},{"type":"Feature","geometry":{"type":"Point","coordinates":[-90.43499,28.93846]},"properties":{"peak_db":-1.0,"area_px":5,"approx_length_m":94,"platform":true}},{"type":"Feature","geometry":{"type":"Point","coordinates":[-90.41883,28.94583]},"properties":{"peak_db":-7.2,"area_px":1,"approx_length_m":42,"platform":true}},{"type":"Feature","geometry":{"type":"Point","coordinates":[-91.02548,28.85616]},"properties":{"peak_db":0.1,"area_px":8,"approx_length_m":119,"platform":true}},{"type":"Feature","geometry":{"type":"Point","coordinates":[-90.79759,28.89473]},"properties":{"peak_db":-3.6,"area_px":1,"approx_length_m":42,"platform":true}},{"type":"Feature","geometry":{"type":"Point","coordinates":[-90.80992,28.89395]},"properties":{"peak_db":-4.8,"area_px":1,"approx_length_m":42,"platform":true}},{"type":"Feature","geometry":{"type":"Point","coordinates":[-90.83319,28.89246]},"properties":{"peak_db":5.3,"area_px":8,"approx_length_m":119,"platform":true}},{"type":"Feature","geometry":{"type":"Point","coordinates":[-91.87612,28.72891]},"properties":{"peak_db":6.3,"area_px":5,"approx_length_m":94,"platform":true}},{"type":"Feature","geometry":{"type":"Point","coordinates":[-91.69648,28.76082]},"properties":{"peak_db":4.6,"area_px":10,"approx_length_m":133,"platform":true}},{"type":"Feature","geometry":{"type":"Point","coordinates":[-92.26741,28.67036]},"properties":{"peak_db":-1.3,"area_px":5,"approx_length_m":94,"platform":true}},{"type":"Feature","geometry":{"type":"Point","coordinates":[-91.13146,28.85906]},"properties":{"peak_db":6.9,"area_px":22,"approx_length_m":197,"platform":true}},{"type":"Feature","geometry":{"type":"Point","coordinates":[-90.4538,28.96711]},"properties":{"peak_db":9.8,"area_px":4,"approx_length_m":84,"platform":false}},{"type":"Feature","geometry":{"type":"Point","coordinates":[-90.45307,28.96736]},"properties":{"peak_db":7.9,"area_px":3,"approx_length_m":73,"platform":false}},{"type":"Feature","geometry":{"type":"Point","coordinates":[-90.7743,28.91888]},"properties":{"peak_db":2.7,"area_px":9,"approx_length_m":126,"platform":true}},{"type":"Feature","geometry":{"type":"Point","coordinates":[-90.45181,28.9681]},"properties":{"peak_db":5.8,"area_px":2,"approx_length_m":59,"platform":false}},{"type":"Feature","geometry":{"type":"Point","coordinates":[-90.45374,28.96837]},"properties":{"peak_db":5.3,"area_px":2,"approx_length_m":59,"platform":false}},{"type":"Feature","geometry":{"type":"Point","coordinates":[-90.45209,28.96954]},"properties":{"peak_db":14.8,"area_px":16,"approx_length_m":168,"platform":false}},{"type":"Feature","geometry":{"type":"Point","coordinates":[-90.45131,28.96873]},"properties":{"peak_db":4.7,"area_px":2,"approx_length_m":59,"platform":false}},{"type":"Feature","geometry":{"type":"Point","coordinates":[-90.45463,28.96893]},"properties":{"peak_db":11.6,"area_px":2,"approx_length_m":59,"platform":false}},{"type":"Feature","geometry":{"type":"Point","coordinates":[-90.45308,28.96902]},"properties":{"peak_db":3.7,"area_px":1,"approx_length_m":42,"platform":false}},{"type":"Feature","geometry":{"type":"Point","coordinates":[-90.71174,28.93019]},"properties":{"peak_db":-1.8,"area_px":3,"approx_length_m":73,"platform":true}},{"type":"Feature","geometry":{"type":"Point","coordinates":[-90.45291,28.96974]},"properties":{"peak_db":5.0,"area_px":2,"approx_length_m":59,"platform":false}},{"type":"Feature","geometry":{"type":"Point","coordinates":[-90.45401,28.97027]},"properties":{"peak_db":8.5,"area_px":6,"approx_length_m":103,"platform":false}},{"type":"Feature","geometry":{"type":"Point","coordinates":[-92.26644,28.68907]},"properties":{"peak_db":5.4,"area_px":7,"approx_length_m":111,"platform":true}},{"type":"Feature","geometry":{"type":"Point","coordinates":[-92.28013,28.68785]},"properties":{"peak_db":9.8,"area_px":7,"approx_length_m":111,"platform":true}},{"type":"Feature","geometry":{"type":"Point","coordinates":[-91.31131,28.84795]},"properties":{"peak_db":-6.1,"area_px":2,"approx_length_m":59,"platform":false}},{"type":"Feature","geometry":{"type":"Point","coordinates":[-92.26237,28.69629]},"properties":{"peak_db":6.8,"area_px":7,"approx_length_m":111,"platform":true}},{"type":"Feature","geometry":{"type":"Point","coordinates":[-91.45486,28.83239]},"properties":{"peak_db":-7.2,"area_px":1,"approx_length_m":42,"platform":false}},{"type":"Feature","geometry":{"type":"Point","coordinates":[-90.41595,28.99321]},"properties":{"peak_db":-2.5,"area_px":1,"approx_length_m":42,"platform":false}},{"type":"Feature","geometry":{"type":"Point","coordinates":[-90.72358,28.948]},"properties":{"peak_db":7.5,"area_px":6,"approx_length_m":103,"platform":true}},{"type":"Feature","geometry":{"type":"Point","coordinates":[-91.17404,28.87906]},"properties":{"peak_db":-3.9,"area_px":2,"approx_length_m":59,"platform":true}},{"type":"Feature","geometry":{"type":"Point","coordinates":[-91.70269,28.79807]},"properties":{"peak_db":1.9,"area_px":2,"approx_length_m":59,"platform":false}},{"type":"Feature","geometry":{"type":"Point","coordinates":[-92.26935,28.70627]},"properties":{"peak_db":-1.9,"area_px":4,"approx_length_m":84,"platform":true}},{"type":"Feature","geometry":{"type":"Point","coordinates":[-91.89045,28.77015]},"properties":{"peak_db":5.5,"area_px":7,"approx_length_m":111,"platform":true}},{"type":"Feature","geometry":{"type":"Point","coordinates":[-92.31532,28.70396]},"properties":{"peak_db":-2.8,"area_px":3,"approx_length_m":73,"platform":true}},{"type":"Feature","geometry":{"type":"Point","coordinates":[-91.07114,28.9142]},"properties":{"peak_db":-3.8,"area_px":3,"approx_length_m":73,"platform":false}},{"type":"Feature","geometry":{"type":"Point","coordinates":[-91.7388,28.81377]},"properties":{"peak_db":-4.7,"area_px":2,"approx_length_m":59,"platform":true}},{"type":"Feature","geometry":{"type":"Point","coordinates":[-92.33113,28.71776]},"properties":{"peak_db":3.0,"area_px":6,"approx_length_m":103,"platform":true}},{"type":"Feature","geometry":{"type":"Point","coordinates":[-90.96259,28.93808]},"properties":{"peak_db":-2.9,"area_px":4,"approx_length_m":84,"platform":true}},{"type":"Feature","geometry":{"type":"Point","coordinates":[-90.97399,28.93994]},"properties":{"peak_db":-1.2,"area_px":2,"approx_length_m":59,"platform":true}},{"type":"Feature","geometry":{"type":"Point","coordinates":[-90.56823,29.00305]},"properties":{"peak_db":-6.8,"area_px":1,"approx_length_m":42,"platform":false}},{"type":"Feature","geometry":{"type":"Point","coordinates":[-91.73009,28.83234]},"properties":{"peak_db":8.6,"area_px":7,"approx_length_m":111,"platform":true}},{"type":"Feature","geometry":{"type":"Point","coordinates":[-90.96058,28.95411]},"properties":{"peak_db":5.1,"area_px":16,"approx_length_m":168,"platform":true}},{"type":"Feature","geometry":{"type":"Point","coordinates":[-90.95354,28.95562]},"properties":{"peak_db":-6.4,"area_px":1,"approx_length_m":42,"platform":true}},{"type":"Feature","geometry":{"type":"Point","coordinates":[-92.09561,28.77601]},"properties":{"peak_db":-4.8,"area_px":1,"approx_length_m":42,"platform":true}},{"type":"Feature","geometry":{"type":"Point","coordinates":[-91.71483,28.83814]},"properties":{"peak_db":-2.5,"area_px":1,"approx_length_m":42,"platform":false}},{"type":"Feature","geometry":{"type":"Point","coordinates":[-90.88682,28.97004]},"properties":{"peak_db":5.9,"area_px":9,"approx_length_m":126,"platform":true}},{"type":"Feature","geometry":{"type":"Point","coordinates":[-90.80308,28.98777]},"properties":{"peak_db":-3.1,"area_px":2,"approx_length_m":59,"platform":false}},{"type":"Feature","geometry":{"type":"Point","coordinates":[-90.86088,28.98449]},"properties":{"peak_db":-4.7,"area_px":2,"approx_length_m":59,"platform":false}},{"type":"Feature","geometry":{"type":"Point","coordinates":[-92.06461,28.79466]},"properties":{"peak_db":4.5,"area_px":5,"approx_length_m":94,"platform":true}},{"type":"Feature","geometry":{"type":"Point","coordinates":[-90.86447,28.98479]},"properties":{"peak_db":6.3,"area_px":7,"approx_length_m":111,"platform":false}},{"type":"Feature","geometry":{"type":"Point","coordinates":[-90.86552,28.98503]},"properties":{"peak_db":-4.1,"area_px":2,"approx_length_m":59,"platform":false}},{"type":"Feature","geometry":{"type":"Point","coordinates":[-90.77675,28.99918]},"properties":{"peak_db":-7.1,"area_px":2,"approx_length_m":59,"platform":false}},{"type":"Feature","geometry":{"type":"Point","coordinates":[-90.74601,29.00415]},"properties":{"peak_db":-6.9,"area_px":1,"approx_length_m":42,"platform":false}},{"type":"Feature","geometry":{"type":"Point","coordinates":[-90.96368,28.97206]},"properties":{"peak_db":0.8,"area_px":7,"approx_length_m":111,"platform":true}},{"type":"Feature","geometry":{"type":"Point","coordinates":[-91.97574,28.81279]},"properties":{"peak_db":-0.1,"area_px":6,"approx_length_m":103,"platform":true}},{"type":"Feature","geometry":{"type":"Point","coordinates":[-90.74603,29.00818]},"properties":{"peak_db":-1.9,"area_px":4,"approx_length_m":84,"platform":false}},{"type":"Feature","geometry":{"type":"Point","coordinates":[-90.94918,28.98]},"properties":{"peak_db":1.0,"area_px":5,"approx_length_m":94,"platform":true}},{"type":"Feature","geometry":{"type":"Point","coordinates":[-90.81738,28.99991]},"properties":{"peak_db":-4.7,"area_px":1,"approx_length_m":42,"platform":false}},{"type":"Feature","geometry":{"type":"Point","coordinates":[-91.39128,28.91328]},"properties":{"peak_db":-4.9,"area_px":3,"approx_length_m":73,"platform":true}},{"type":"Feature","geometry":{"type":"Point","coordinates":[-91.30386,28.92697]},"properties":{"peak_db":-0.3,"area_px":5,"approx_length_m":94,"platform":true}},{"type":"Feature","geometry":{"type":"Point","coordinates":[-90.95762,28.98059]},"properties":{"peak_db":-7.2,"area_px":1,"approx_length_m":42,"platform":true}},{"type":"Feature","geometry":{"type":"Point","coordinates":[-90.8257,29.00086]},"properties":{"peak_db":-6.9,"area_px":1,"approx_length_m":42,"platform":false}},{"type":"Feature","geometry":{"type":"Point","coordinates":[-92.0718,28.8045]},"properties":{"peak_db":1.6,"area_px":6,"approx_length_m":103,"platform":true}},{"type":"Feature","geometry":{"type":"Point","coordinates":[-90.61579,29.03312]},"properties":{"peak_db":-6.8,"area_px":1,"approx_length_m":42,"platform":false}},{"type":"Feature","geometry":{"type":"Point","coordinates":[-91.96606,28.82195]},"properties":{"peak_db":0.8,"area_px":2,"approx_length_m":59,"platform":true}},{"type":"Feature","geometry":{"type":"Point","coordinates":[-92.05823,28.8093]},"properties":{"peak_db":5.2,"area_px":7,"approx_length_m":111,"platform":true}},{"type":"Feature","geometry":{"type":"Point","coordinates":[-90.64878,29.03191]},"properties":{"peak_db":-3.1,"area_px":3,"approx_length_m":73,"platform":false}},{"type":"Feature","geometry":{"type":"Point","coordinates":[-90.91016,28.99645]},"properties":{"peak_db":1.1,"area_px":7,"approx_length_m":111,"platform":false}},{"type":"Feature","geometry":{"type":"Point","coordinates":[-91.46073,28.91095]},"properties":{"peak_db":3.0,"area_px":7,"approx_length_m":111,"platform":true}},{"type":"Feature","geometry":{"type":"Point","coordinates":[-90.54047,29.05853]},"properties":{"peak_db":-3.3,"area_px":2,"approx_length_m":59,"platform":false}},{"type":"Feature","geometry":{"type":"Point","coordinates":[-91.35989,28.93327]},"properties":{"peak_db":-6.6,"area_px":2,"approx_length_m":59,"platform":true}},{"type":"Feature","geometry":{"type":"Point","coordinates":[-91.32085,28.94591]},"properties":{"peak_db":-6.7,"area_px":3,"approx_length_m":73,"platform":true}},{"type":"Feature","geometry":{"type":"Point","coordinates":[-90.88355,29.01454]},"properties":{"peak_db":1.5,"area_px":4,"approx_length_m":84,"platform":false}},{"type":"Feature","geometry":{"type":"Point","coordinates":[-90.89045,29.01348]},"properties":{"peak_db":-7.6,"area_px":1,"approx_length_m":42,"platform":false}},{"type":"Feature","geometry":{"type":"Point","coordinates":[-90.84289,29.02607]},"properties":{"peak_db":5.2,"area_px":11,"approx_length_m":139,"platform":false}},{"type":"Feature","geometry":{"type":"Point","coordinates":[-91.34151,28.94884]},"properties":{"peak_db":-4.2,"area_px":4,"approx_length_m":84,"platform":true}},{"type":"Feature","geometry":{"type":"Point","coordinates":[-90.89892,29.0183]},"properties":{"peak_db":-6.7,"area_px":1,"approx_length_m":42,"platform":false}},{"type":"Feature","geometry":{"type":"Point","coordinates":[-90.90404,29.01807]},"properties":{"peak_db":-2.0,"area_px":2,"approx_length_m":59,"platform":false}},{"type":"Feature","geometry":{"type":"Point","coordinates":[-90.85175,29.03248]},"properties":{"peak_db":-7.4,"area_px":1,"approx_length_m":42,"platform":false}},{"type":"Feature","geometry":{"type":"Point","coordinates":[-91.74778,28.89233]},"properties":{"peak_db":-5.6,"area_px":1,"approx_length_m":42,"platform":false}},{"type":"Feature","geometry":{"type":"Point","coordinates":[-91.74795,28.89314]},"properties":{"peak_db":-5.7,"area_px":1,"approx_length_m":42,"platform":false}},{"type":"Feature","geometry":{"type":"Point","coordinates":[-91.21866,28.98257]},"properties":{"peak_db":-2.7,"area_px":4,"approx_length_m":84,"platform":true}},{"type":"Feature","geometry":{"type":"Point","coordinates":[-91.02122,29.01686]},"properties":{"peak_db":-6.6,"area_px":2,"approx_length_m":59,"platform":false}},{"type":"Feature","geometry":{"type":"Point","coordinates":[-90.54562,29.08929]},"properties":{"peak_db":-7.8,"area_px":1,"approx_length_m":42,"platform":false}},{"type":"Feature","geometry":{"type":"Point","coordinates":[-90.67929,29.06949]},"properties":{"peak_db":-1.1,"area_px":2,"approx_length_m":59,"platform":false}},{"type":"Feature","geometry":{"type":"Point","coordinates":[-90.53925,29.09281]},"properties":{"peak_db":7.1,"area_px":5,"approx_length_m":94,"platform":false}},{"type":"Feature","geometry":{"type":"Point","coordinates":[-90.51292,29.09673]},"properties":{"peak_db":-0.8,"area_px":4,"approx_length_m":84,"platform":false}},{"type":"Feature","geometry":{"type":"Point","coordinates":[-90.45884,29.10619]},"properties":{"peak_db":2.1,"area_px":6,"approx_length_m":103,"platform":false}},{"type":"Feature","geometry":{"type":"Point","coordinates":[-92.16315,28.8406]},"properties":{"peak_db":-4.4,"area_px":2,"approx_length_m":59,"platform":true}},{"type":"Feature","geometry":{"type":"Point","coordinates":[-90.49867,29.10285]},"properties":{"peak_db":1.8,"area_px":3,"approx_length_m":73,"platform":false}},{"type":"Feature","geometry":{"type":"Point","coordinates":[-91.74458,28.91071]},"properties":{"peak_db":8.3,"area_px":8,"approx_length_m":119,"platform":true}},{"type":"Feature","geometry":{"type":"Point","coordinates":[-90.47504,29.10881]},"properties":{"peak_db":-5.2,"area_px":1,"approx_length_m":42,"platform":false}},{"type":"Feature","geometry":{"type":"Point","coordinates":[-90.46937,29.11021]},"properties":{"peak_db":-0.3,"area_px":7,"approx_length_m":111,"platform":false}},{"type":"Feature","geometry":{"type":"Point","coordinates":[-92.10137,28.85606]},"properties":{"peak_db":2.9,"area_px":7,"approx_length_m":111,"platform":true}},{"type":"Feature","geometry":{"type":"Point","coordinates":[-90.46525,29.11203]},"properties":{"peak_db":-3.6,"area_px":3,"approx_length_m":73,"platform":false}},{"type":"Feature","geometry":{"type":"Point","coordinates":[-90.64288,29.08767]},"properties":{"peak_db":-5.6,"area_px":1,"approx_length_m":42,"platform":false}},{"type":"Feature","geometry":{"type":"Point","coordinates":[-90.80579,29.06386]},"properties":{"peak_db":-4.4,"area_px":2,"approx_length_m":59,"platform":false}},{"type":"Feature","geometry":{"type":"Point","coordinates":[-90.48346,29.11343]},"properties":{"peak_db":-1.7,"area_px":5,"approx_length_m":94,"platform":false}},{"type":"Feature","geometry":{"type":"Point","coordinates":[-91.13251,29.01646]},"properties":{"peak_db":-3.2,"area_px":1,"approx_length_m":42,"platform":false}},{"type":"Feature","geometry":{"type":"Point","coordinates":[-90.6814,29.08793]},"properties":{"peak_db":-4.1,"area_px":1,"approx_length_m":42,"platform":false}},{"type":"Feature","geometry":{"type":"Point","coordinates":[-90.50198,29.11637]},"properties":{"peak_db":1.2,"area_px":8,"approx_length_m":119,"platform":false}},{"type":"Feature","geometry":{"type":"Point","coordinates":[-90.65446,29.09351]},"properties":{"peak_db":0.1,"area_px":3,"approx_length_m":73,"platform":false}},{"type":"Feature","geometry":{"type":"Point","coordinates":[-90.50233,29.11785]},"properties":{"peak_db":2.2,"area_px":7,"approx_length_m":111,"platform":false}},{"type":"Feature","geometry":{"type":"Point","coordinates":[-90.62802,29.1002]},"properties":{"peak_db":1.3,"area_px":8,"approx_length_m":119,"platform":false}},{"type":"Feature","geometry":{"type":"Point","coordinates":[-92.80203,28.75583]},"properties":{"peak_db":-2.2,"area_px":2,"approx_length_m":59,"platform":true}},{"type":"Feature","geometry":{"type":"Point","coordinates":[-90.51801,29.12055]},"properties":{"peak_db":-3.7,"area_px":2,"approx_length_m":59,"platform":false}}],"properties":{"method":"two-window CFAR, 30 m, 9.0 dB over local background","validated":false}}