{"type":"FeatureCollection","features":[{"type":"Feature","geometry":{"type":"MultiPolygon","coordinates":[[[[-91.800385,27.916946],[-91.799011,27.916946],[-91.799011,27.91626],[-91.800385,27.91626],[-91.800385,27.916946]]],[[[-91.803818,27.917633],[-91.801758,27.917633],[-91.801758,27.916946],[-91.803131,27.916946],[-91.803131,27.91626],[-91.803818,27.91626],[-91.803818,27.917633]]],[[[-91.813431,27.917633],[-91.809998,27.917633],[-91.809998,27.916946],[-91.807938,27.916946],[-91.807938,27.917633],[-91.804504,27.917633],[-91.804504,27.91626],[-91.806564,27.91626],[-91.806564,27.915573],[-91.807251,27.915573],[-91.807251,27.91626],[-91.813431,27.91626],[-91.813431,27.917633]]],[[[-91.814804,27.916946],[-91.814117,27.916946],[-91.814117,27.915573],[-91.814804,27.915573],[-91.814804,27.916946]]],[[[-91.818924,27.91832],[-91.816864,27.91832],[-91.816864,27.917633],[-91.818924,27.917633],[-91.818924,27.91832]]],[[[-91.821671,27.91832],[-91.820297,27.91832],[-91.820297,27.917633],[-91.819611,27.917633],[-91.819611,27.91626],[-91.821671,27.91626],[-91.821671,27.91832]]],[[[-91.828537,27.917633],[-91.826477,27.917633],[-91.826477,27.916946],[-91.82579,27.916946],[-91.82579,27.91626],[-91.827164,27.91626],[-91.827164,27.916946],[-91.82785,27.916946],[-91.82785,27.91626],[-91.82991,27.91626],[-91.82991,27.916946],[-91.828537,27.916946],[-91.828537,27.917633]]],[[[-91.82579,27.916946],[-91.82579,27.91832],[-91.822357,27.91832],[-91.822357,27.917633],[-91.82373,27.917633],[-91.82373,27.916946],[-91.82579,27.916946]]],[[[-91.945267,27.923126],[-91.943207,27.923126],[-91.943207,27.92244],[-91.94046,27.92244],[-91.94046,27.923126],[-91.939087,27.923126],[-91.939087,27.92244],[-91.9384,27.92244],[-91.9384,27.921753],[-91.937027,27.921753],[-91.937027,27.921066],[-91.934967,27.921066],[-91.934967,27.92038],[-91.93428,27.92038],[-91.93428,27.919693],[-91.932907,27.919693],[-91.932907,27.919006],[-91.930847,27.919006],[-91.930847,27.91832],[-91.928101,27.91832],[-91.928101,27.917633],[-91.927414,27.917633],[-91.927414,27.91832],[-91.923981,27.91832],[-91.923981,27.917633],[-91.922607,27.917633],[-91.922607,27.91832],[-91.919174,27.91832],[-91.919174,27.919006],[-91.914368,27.919006],[-91.914368,27.919693],[-91.910248,27.919693],[-91.910248,27.919006],[-91.908875,27.919006],[-91.908875,27.919693],[-91.908188,27.919693],[-91.908188,27.919006],[-91.902695,27.919006],[-91.902695,27.91832],[-91.900635,27.91832],[-91.900635,27.919006],[-91.897888,27.919006],[-91.897888,27.91832],[-91.895828,27.91832],[-91.895828,27.919006],[-91.892395,27.919006],[-91.892395,27.91832],[-91.891708,27.91832],[-91.891708,27.919006],[-91.886215,27.919006],[-91.886215,27.919693],[-91.883469,27.919693],[-91.883469,27.919006],[-91.881409,27.919006],[-91.881409,27.919693],[-91.875229,27.919693],[-91.875229,27.919006],[-91.872482,27.919006],[-91.872482,27.91832],[-91.871796,27.91832],[-91.871796,27.917633],[-91.870422,27.917633],[-91.870422,27.916946],[-91.867676,27.916946],[-91.867676,27.91626],[-91.865616,27.91626],[-91.865616,27.915573],[-91.862183,27.915573],[-91.862183,27.91626],[-91.860123,27.91626],[-91.860123,27.916946],[-91.858749,27.916946],[-91.858749,27.91626],[-91.847763,27.91626],[-91.847763,27.916946],[-91.84433,27.916946],[-91.84433,27.91626],[-91.84227,27.91626],[-91.84227,27.916946],[-91.841583,27.916946],[-91.841583,27.91626],[-91.840897,27.91626],[-91.840897,27.916946],[-91.830597,27.916946],[-91.830597,27.91626],[-91.83197,27.91626],[-91.83197,27.915573],[-91.832657,27.915573],[-91.832657,27.914886],[-91.83609,27.914886],[-91.83609,27.915573],[-91.836777,27.915573],[-91.836777,27.914886],[-91.847076,27.914886],[-91.847076,27.913513],[-91.849136,27.913513],[-91.849136,27.9142],[-91.860809,27.9142],[-91.860809,27.913513],[-91.861496,27.913513],[-91.861496,27.912827],[-91.862183,27.912827],[-91.862183,27.913513],[-91.865616,27.913513],[-91.865616,27.912827],[-91.870422,27.912827],[-91.870422,27.91214],[-91.873169,27.91214],[-91.873169,27.912827],[-91.877289,27.912827],[-91.877289,27.91214],[-91.880035,27.91214],[-91.880035,27.912827],[-91.883469,27.912827],[-91.883469,27.91214],[-91.886215,27.91214],[-91.886215,27.912827],[-91.889648,27.912827],[-91.889648,27.913513],[-91.892395,27.913513],[-91.892395,27.912827],[-91.893082,27.912827],[-91.893082,27.913513],[-91.897202,27.913513],[-91.897202,27.912827],[-91.900635,27.912827],[-91.900635,27.913513],[-91.902008,27.913513],[-91.902008,27.912827],[-91.902695,27.912827],[-91.902695,27.913513],[-91.905441,27.913513],[-91.905441,27.912827],[-91.914368,27.912827],[-91.914368,27.913513],[-91.921921,27.913513],[-91.921921,27.9142],[-91.922607,27.9142],[-91.922607,27.914886],[-91.928101,27.914886],[-91.928101,27.9142],[-91.928787,27.9142],[-91.928787,27.914886],[-91.930161,27.914886],[-91.930161,27.91626],[-91.931534,27.91626],[-91.931534,27.916946],[-91.932907,27.916946],[-91.932907,27.917633],[-91.93428,27.917633],[-91.93428,27.91832],[-91.935654,27.91832],[-91.935654,27.917633],[-91.937027,27.917633],[-91.937027,27.916946],[-91.9384,27.916946],[-91.9384,27.91626],[-91.941147,27.91626],[-91.941147,27.915573],[-91.941833,27.915573],[-91.941833,27.914886],[-91.943893,27.914886],[-91.943893,27.9142],[-91.94664,27.9142],[-91.94664,27.913513],[-91.9487,27.913513],[-91.9487,27.9142],[-91.951447,27.9142],[-91.951447,27.913513],[-91.95282,27.913513],[-91.95282,27.9142],[-91.954193,27.9142],[-91.954193,27.914886],[-91.955566,27.914886],[-91.955566,27.9142],[-91.958313,27.9142],[-91.958313,27.914886],[-91.959,27.914886],[-91.959,27.9142],[-91.96312,27.9142],[-91.96312,27.914886],[-91.963806,27.914886],[-91.963806,27.9142],[-91.966553,27.9142],[-91.966553,27.913513],[-91.972046,27.913513],[-91.972046,27.912827],[-91.974792,27.912827],[-91.974792,27.91214],[-91.978226,27.91214],[-91.978226,27.912827],[-91.983032,27.912827],[-91.983032,27.91214],[-91.987839,27.91214],[-91.987839,27.911453],[-91.988525,27.911453],[-91.988525,27.91214],[-91.996765,27.91214],[-91.996765,27.911453],[-91.997452,27.911453],[-91.997452,27.910767],[-91.999512,27.910767],[-91.999512,27.911453],[-92.001572,27.911453],[-92.001572,27.910767],[-92.005005,27.910767],[-92.005005,27.911453],[-92.005692,27.911453],[-92.005692,27.910767],[-92.010498,27.910767],[-92.010498,27.91008],[-92.012558,27.91008],[-92.012558,27.910767],[-92.014618,27.910767],[-92.014618,27.909393],[-92.017365,27.909393],[-92.017365,27.91008],[-92.019424,27.91008],[-92.019424,27.909393],[-92.024231,27.909393],[-92.024231,27.908707],[-92.029724,27.908707],[-92.029724,27.90802],[-92.033844,27.90802],[-92.033844,27.907333],[-92.034531,27.907333],[-92.034531,27.90802],[-92.036591,27.90802],[-92.036591,27.907333],[-92.037964,27.907333],[-92.037964,27.906647],[-92.040024,27.906647],[-92.040024,27.907333],[-92.04277,27.907333],[-92.04277,27.906647],[-92.04483,27.906647],[-92.04483,27.907333],[-92.04689,27.907333],[-92.04689,27.906647],[-92.05307,27.906647],[-92.05307,27.90596],[-92.054443,27.90596],[-92.054443,27.906647],[-92.05513,27.906647],[-92.05513,27.90596],[-92.060623,27.90596],[-92.060623,27.905273],[-92.073669,27.905273],[-92.073669,27.906647],[-92.076416,27.906647],[-92.076416,27.907333],[-92.077103,27.907333],[-92.077103,27.90802],[-92.068863,27.90802],[-92.068863,27.908707],[-92.064743,27.908707],[-92.064743,27.909393],[-92.055817,27.909393],[-92.055817,27.91008],[-92.05513,27.91008],[-92.05513,27.910767],[-92.050323,27.910767],[-92.050323,27.911453],[-92.04895,27.911453],[-92.04895,27.910767],[-92.04689,27.910767],[-92.04689,27.911453],[-92.042084,27.911453],[-92.042084,27.91214],[-92.037964,27.91214],[-92.037964,27.912827],[-92.031784,27.912827],[-92.031784,27.913513],[-92.026978,27.913513],[-92.026978,27.9142],[-92.026291,27.9142],[-92.026291,27.914886],[-92.020798,27.914886],[-92.020798,27.915573],[-92.018051,27.915573],[-92.018051,27.91626],[-92.005005,27.91626],[-92.005005,27.916946],[-92.000198,27.916946],[-92.000198,27.917633],[-91.997452,27.917633],[-91.997452,27.916946],[-91.995392,27.916946],[-91.995392,27.917633],[-91.994019,27.917633],[-91.994019,27.916946],[-91.990585,27.916946],[-91.990585,27.917633],[-91.986465,27.917633],[-91.986465,27.91832],[-91.984406,27.91832],[-91.984406,27.917633],[-91.981659,27.917633],[-91.981659,27.91832],[-91.979599,27.91832],[-91.979599,27.917633],[-91.977539,27.917633],[-91.977539,27.91832],[-91.976166,27.91832],[-91.976166,27.919006],[-91.972046,27.919006],[-91.972046,27.919693],[-91.967239,27.919693],[-91.967239,27.92038],[-91.966553,27.92038],[-91.966553,27.919693],[-91.962433,27.919693],[-91.962433,27.92038],[-91.960373,27.92038],[-91.960373,27.919693],[-91.959,27.919693],[-91.959,27.92038],[-91.953506,27.92038],[-91.953506,27.921066],[-91.952133,27.921066],[-91.952133,27.921753],[-91.949387,27.921753],[-91.949387,27.92244],[-91.945267,27.92244],[-91.945267,27.923126]]],[[[-92.090836,27.905273],[-92.086716,27.905273],[-92.086716,27.904587],[-92.084656,27.904587],[-92.084656,27.9039],[-92.086029,27.9039],[-92.086029,27.903214],[-92.087402,27.903214],[-92.087402,27.902527],[-92.088776,27.902527],[-92.088776,27.903214],[-92.092209,27.903214],[-92.092209,27.9039],[-92.091522,27.9039],[-92.091522,27.904587],[-92.090836,27.904587],[-92.090836,27.905273]]],[[[-92.084656,27.904587],[-92.084656,27.90596],[-92.079849,27.90596],[-92.079849,27.905273],[-92.076416,27.905273],[-92.076416,27.904587],[-92.079163,27.904587],[-92.079163,27.9039],[-92.080536,27.9039],[-92.080536,27.903214],[-92.083282,27.903214],[-92.083282,27.9039],[-92.083969,27.9039],[-92.083969,27.904587],[-92.084656,27.904587]]],[[[-92.094955,27.903214],[-92.092896,27.903214],[-92.092896,27.902527],[-92.094955,27.902527],[-92.094955,27.903214]]]]},"properties":{"area_km2":13.656,"perimeter_km":73.57,"length_km":29.17,"mean_width_km":0.468,"elongation":62.3,"compactness":0.0317,"components":1,"orientation_deg":87.1,"centroid":[-91.95781,27.91445],"taper":"undetermined","end_width_ratio":0.77,"edge_truncated":false,"wind_speed_ms":6.5,"wind_reliability":1.0,"age_prior_h":{"min":1,"max":24,"label":"weak prior","spreading_min_h":0.2},"shape_indicator":"elongated, few parts: consistent with a moving vessel","cerulean_slick_id":3059927,"cerulean_machine_confidence":1.0,"cerulean_class":5,"s1_scene_id":"S1A_IW_GRDH_1SDV_20240115T001013_20240115T001038_052110_064C5C_2638","source":"SkyTruth Cerulean slick polygon"}}]}