{"type":"FeatureCollection","features":[{"type":"Feature","geometry":{"type":"Polygon","coordinates":[[[-94.88929354839603,26.25860867280495],[-94.86479689533199,26.311507466465365],[-94.8495660564278,26.31222611229192],[-94.83464099665457,26.307729688285487],[-94.83208363254897,26.299455205522825],[-94.8473335946237,26.228920026547897],[-94.871208258928,26.1642660963863],[-94.88101663361708,26.116366411275553],[-94.89552105823402,26.093094914261656],[-94.90192558315472,26.091319486842856],[-94.91893892811875,26.096871868851622],[-94.92137100351293,26.128302000044123],[-94.9049514793203,26.184310878758446],[-94.89059789843753,26.20990227406982],[-94.88929354839603,26.25860867280495]]]},"properties":{"kind":"age","age_h":1,"in_age_prior":false}},{"type":"Feature","geometry":{"type":"Polygon","coordinates":[[[-94.9000088432249,26.2460312721857],[-94.87283486445655,26.29431003368446],[-94.86163435773356,26.29837841994339],[-94.83846642928799,26.291147706189474],[-94.83491765640464,26.28062152623933],[-94.84978614029484,26.20870326776338],[-94.87280408184114,26.142780467272438],[-94.88069595355472,26.09633396901519],[-94.89628210581974,26.069449919138112],[-94.9063290333461,26.06615040237207],[-94.92578290467652,26.07330257221077],[-94.93071757016024,26.11031651102447],[-94.91565006101183,26.16710558490131],[-94.90210332330119,26.19088378467628],[-94.9000088432249,26.2460312721857]]]},"properties":{"kind":"age","age_h":2,"in_age_prior":true}},{"type":"Feature","geometry":{"type":"Polygon","coordinates":[[[-94.88898197231407,26.27394736877585],[-94.88073484077533,26.28345709722399],[-94.87370682651296,26.28441994170641],[-94.84054362229043,26.276656173418274],[-94.83731643265746,26.265437263701624],[-94.85041562840985,26.191128541862913],[-94.87625601318857,26.116615993583743],[-94.87796262399961,26.08860574068518],[-94.89457192133165,26.04171413631781],[-94.89962555466035,26.038684453655897],[-94.92545300579106,26.042587225682368],[-94.93607570615737,26.04819650272524],[-94.93960670273924,26.08975659480578],[-94.92721398170109,26.14827030332242],[-94.91191792394578,26.174217592781016],[-94.91106335033355,26.230834350182842],[-94.88898197231407,26.27394736877585]]]},"properties":{"kind":"age","age_h":3,"in_age_prior":true}},{"type":"Feature","geometry":{"type":"Polygon","coordinates":[[[-94.94740403995569,26.18043364632844],[-94.92873562306485,26.23150045230034],[-94.92034678435786,26.238036973766913],[-94.90810256110147,26.24031996643256],[-94.86046486779449,26.23148792114477],[-94.85038998741632,26.21787098784816],[-94.85746978816131,26.136714325562263],[-94.88163653630602,26.0556193902312],[-94.88393836622151,26.004945467807513],[-94.89416148241793,25.97165637016107],[-94.90278473876096,25.962111969395306],[-94.91902460341466,25.958911033127805],[-94.94508970527231,25.96109518663304],[-94.95480771548037,25.965637003572596],[-94.969430814718,26.018349395130077],[-94.96203868599098,26.090964287643285],[-94.94669282952958,26.12717429433933],[-94.94740403995569,26.18043364632844]]]},"properties":{"kind":"age","age_h":6,"in_age_prior":true}},{"type":"Feature","geometry":{"type":"Polygon","coordinates":[[[-94.97918174132099,26.16766707007628],[-94.97018553038646,26.187147725658946],[-94.96296041701608,26.19331762297631],[-94.90478403453635,26.1927169935237],[-94.88206882103113,26.18659281576125],[-94.8692225810497,26.158077902288362],[-94.86632672569854,26.145096138624154],[-94.87082201151854,26.06269829565579],[-94.88500146800297,25.986476803322926],[-94.88153581742591,25.931084592181907],[-94.89153513737308,25.877710982550592],[-94.89498676698675,25.874186176642144],[-94.93314409737843,25.867201436580306],[-94.96690939273655,25.86921754423275],[-94.97554612668944,25.88154917093153],[-94.99270021025269,25.935277547788345],[-94.99761506290832,25.972400160025504],[-94.99526199031203,26.030837840216172],[-94.98531587168459,26.06647148950345],[-94.98673611186511,26.12170014388399],[-94.97918174132099,26.16766707007628]]]},"properties":{"kind":"age","age_h":9,"in_age_prior":true}},{"type":"Feature","geometry":{"type":"Polygon","coordinates":[[[-95.01850109246811,26.10645647997425],[-95.01084365384109,26.1280365086893],[-95.0038256749745,26.133192624162973],[-94.97051452954501,26.12882770312924],[-94.91039304151352,26.141505943724127],[-94.90134452962717,26.13806869433034],[-94.88648713901343,26.11520619726527],[-94.878661594823,26.077996358588965],[-94.88010676604002,26.042339905619883],[-94.87426078512854,25.989175044161467],[-94.88086967798401,25.942016396386013],[-94.88117049256955,25.904448409189733],[-94.87307806612193,25.85367957753854],[-94.87876241621473,25.807747033985496],[-94.88207869213552,25.79729194136192],[-94.92923718932225,25.77634887280598],[-94.93038042115246,25.767568808501135],[-94.93547815411836,25.763702952350425],[-94.97046279058645,25.763999245055768],[-94.97718006119045,25.77489830483916],[-94.99964543222079,25.838795115908585],[-95.01568240690516,25.873464499474437],[-95.02434926226007,25.95915715948396],[-95.01476563297943,25.998837764852393],[-95.02541484753677,26.057885656966434],[-95.01850109246811,26.10645647997425]]]},"properties":{"kind":"age","age_h":12,"in_age_prior":true}},{"type":"Feature","geometry":{"type":"Polygon","coordinates":[[[-95.05250647354111,25.89872083877758],[-95.04870494134087,25.996753070261818],[-95.04579830251528,26.00019318302388],[-95.04102192936115,25.999852018630868],[-95.02715593679987,25.9898023709537],[-94.98946173945521,25.975424474687802],[-94.97148163061978,25.974402312561722],[-94.92888263908758,25.984923218549067],[-94.90892399738946,26.015029375449586],[-94.89360617301683,26.01097653482141],[-94.86754514150337,25.920358008175914],[-94.86437463811824,25.87438027039695],[-94.85124296601889,25.832560130355503],[-94.85011249811616,25.78494170628229],[-94.82900607465969,25.69590771083932],[-94.82571499377003,25.639436789621605],[-94.82792314910934,25.63575097684054],[-94.83253456273094,25.63528598300186],[-94.86642647090035,25.65452162583713],[-94.8927883160655,25.61518949895881],[-94.88557207032564,25.59907984441934],[-94.87761931479962,25.55827807836165],[-94.87728751541951,25.549449213783273],[-94.88010354817085,25.546051712895256],[-94.89638625290154,25.542364539048688],[-94.90762379825638,25.544054152664163],[-94.95037841662142,25.586272358875302],[-94.97095751856845,25.622451999321477],[-94.98725176550512,25.670829699498697],[-95.01032399109715,25.711327725073044],[-95.03368429013007,25.795395907445386],[-95.03090155192801,25.837787487721055],[-95.05250647354111,25.89872083877758]]]},"properties":{"kind":"age","age_h":18,"in_age_prior":true}},{"type":"Feature","geometry":{"type":"Polygon","coordinates":[[[-95.0365550093915,25.86840049711102],[-95.0299411013657,25.879461691585742],[-94.88493269690129,25.92162303694231],[-94.86599879301099,25.922238938796838],[-94.86210777840786,25.919675056330178],[-94.8247491731801,25.780961050886795],[-94.75153978525054,25.57114008740306],[-94.73188843056965,25.496891883106148],[-94.77067308529011,25.347358890319406],[-94.78230279290706,25.34360229662552],[-94.79459731084033,25.345390679948864],[-94.88036823138613,25.41460623678525],[-94.91411845313016,25.471775225605228],[-94.9916748791357,25.662180892661617],[-95.02921181008384,25.773078184687243],[-95.0365550093915,25.86840049711102]]]},"properties":{"kind":"age","age_h":24,"in_age_prior":true}},{"type":"Feature","geometry":{"type":"Polygon","coordinates":[[[-95.01111768160266,25.525100278946695],[-95.02769505711551,25.591347362282303],[-95.02571884141493,25.5952563119804],[-94.84047687826518,25.721706338292503],[-94.82961164490048,25.722360085077305],[-94.82261429824607,25.718058222453937],[-94.76271653087736,25.61005059657795],[-94.74796662054857,25.567702487649456],[-94.63573435022663,25.381958737623826],[-94.50708016049609,25.213200689119535],[-94.50144229196263,25.04808985182747],[-94.45668892064049,24.977190157481452],[-94.45606632859821,24.964161816386888],[-94.46153103591656,24.96321663035261],[-94.51542546343532,24.98381795411762],[-94.69130589556423,25.070581393240545],[-94.74218747766915,25.11498417070539],[-94.86612221118524,25.26592485614335],[-94.88732983486916,25.315371501942504],[-95.01111768160266,25.525100278946695]]]},"properties":{"kind":"age","age_h":36,"in_age_prior":true}},{"type":"Feature","geometry":{"type":"Polygon","coordinates":[[[-94.69310096678812,25.51258795530609],[-94.69755820294806,25.537624995833045],[-94.68947205236789,25.5425900510262],[-94.67966940674448,25.54380404644281],[-94.58176019896605,25.452410490623308],[-94.54492155128682,25.402300433191268],[-94.43189072043604,25.22293898330176],[-94.3227474683845,25.151818643116695],[-94.14744268222242,25.02969253394755],[-94.06596755578913,24.85532703690258],[-94.01534652307429,24.741721547777722],[-94.01637379354217,24.73690712275846],[-94.03253768349535,24.73155772259289],[-94.07278249827469,24.733081785112105],[-94.11209312797395,24.748797200281068],[-94.35965996849322,24.78305402787881],[-94.41556375066048,24.814863678527846],[-94.49226970128143,24.866172600912545],[-94.58327311925018,24.936744534825653],[-94.62775708803696,24.982393394432346],[-94.64694325889654,25.01894126311542],[-94.75882180777846,25.188227148682923],[-94.80356727765692,25.226528574731127],[-94.84024448379616,25.27623324515815],[-94.84788585036362,25.2920277388246],[-94.84380858775769,25.299573042155835],[-94.83740273056878,25.29974046131815],[-94.77285914000174,25.243507407756574],[-94.67875735965757,25.21837969533244],[-94.60440877976711,25.412083400325745],[-94.62549901494637,25.429237913022142],[-94.69310096678812,25.51258795530609]]]},"properties":{"kind":"age","age_h":48,"in_age_prior":true}},{"type":"Feature","geometry":{"type":"Polygon","coordinates":[[[-94.56006201780215,25.36465879750687],[-94.5749091900759,25.392431332980177],[-94.56723088780399,25.396860610647856],[-94.54702064833917,25.400114815962706],[-94.39744952144213,25.299573166431223],[-94.200020174768,25.055209566949987],[-94.05191660412918,25.019676084282562],[-93.9603350793557,25.00214994067756],[-93.93412424637877,24.993862017706476],[-93.86456708551614,24.95193267529217],[-93.74068101821747,24.81782884689102],[-93.68681576589067,24.67348996421137],[-93.68762546800858,24.669252674302818],[-93.73446726402753,24.647152712687323],[-93.78747238666061,24.65020885056013],[-94.08428008580022,24.601550408171576],[-94.13760604113706,24.61300058086327],[-94.2197054855232,24.648914102167957],[-94.31701173843301,24.696558314735],[-94.3629263206746,24.734846412416882],[-94.55307975888853,24.994632171531702],[-94.6049117161864,25.030158116929638],[-94.62048851188719,25.049677045758486],[-94.51876367152578,25.33598358637059],[-94.56006201780215,25.36465879750687]]]},"properties":{"kind":"age","age_h":60,"in_age_prior":false}},{"type":"Feature","geometry":{"type":"Polygon","coordinates":[[[-94.33220293994854,25.242963632235284],[-94.3325544068383,25.25083285468832],[-94.32044120638123,25.262601740592906],[-94.31585189290965,25.263586689864823],[-94.20588669577513,25.226755668328234],[-94.13608469123912,25.199428513718214],[-93.89417388529655,24.939349684725144],[-93.78714788583993,24.96356783658061],[-93.65368119867227,24.98905861311355],[-93.61903407169328,24.998674578185017],[-93.59390155474456,24.998693537961024],[-93.36452243841386,24.880264040292346],[-93.31328545950333,24.69235905963027],[-93.31163113605547,24.6767952890079],[-93.34200427714275,24.650047399319885],[-93.36867316037063,24.635143127235942],[-93.51706817194386,24.592494515072815],[-93.75774971681211,24.460803094699628],[-93.82549164821343,24.450289616774448],[-94.00172175896569,24.474303384441026],[-94.03676753775227,24.503973532738417],[-94.06652903901312,24.538452819840888],[-94.09961616390514,24.7693239742236],[-94.17959470947282,24.77850082446478],[-94.25297576647847,24.808360102552896],[-94.26783991181588,24.821238964165133],[-94.2636286587732,24.825043218732706],[-94.24406154605454,24.824281886022728],[-94.14710688814606,24.811427705589566],[-93.93946573631715,24.92490418260868],[-94.16667667146028,25.175324581189546],[-94.19066781780614,25.172551216942246],[-94.31318535322384,25.22006116028781],[-94.33220293994854,25.242963632235284]]]},"properties":{"kind":"age","age_h":72,"in_age_prior":false}},{"type":"Feature","geometry":{"type":"Polygon","coordinates":[[[-94.87489214195473,25.95758353843084],[-94.81900722712979,25.765058961644034],[-94.7851364461765,25.674291073823113],[-94.75279000873377,25.603261556590393],[-94.70954112018399,25.56383544360164],[-94.70449057015827,25.563406119157733],[-94.69485917651566,25.554037753041584],[-94.68961378692575,25.553140483936787],[-94.58176019896605,25.452410490623308],[-94.54492155128682,25.402300433191268],[-94.43189072043604,25.22293898330176],[-94.3227474683845,25.151818643116695],[-94.14713103025362,25.0293254098891],[-94.01534652307429,24.741721547777722],[-94.01709667096783,24.736343755381696],[-94.03253768349535,24.73155772259289],[-94.07278249827469,24.733081785112105],[-94.08991761926754,24.739819506801876],[-94.10794472431044,24.74163511262835],[-94.15634295163608,24.754881638208477],[-94.35869687912803,24.78272986053048],[-94.38911895807817,24.798200775478826],[-94.50849198560849,24.866423690221115],[-94.57191077449484,24.91327151806127],[-94.7230807807397,25.049363731746265],[-94.74943129939146,25.07820879058528],[-94.79566231273924,25.14028465237151],[-94.90574329301411,25.323300257126114],[-94.95273716287335,25.384038077106133],[-94.98119736273351,25.441166027543826],[-95.00333206577305,25.49859102595384],[-95.01937160671345,25.550998570611636],[-95.03279984740671,25.618359512154615],[-95.03803113388962,25.66233325646782],[-95.04056849331982,25.738837979074198],[-95.03580337576588,25.814886150114926],[-95.03826060510855,25.842333027485566],[-95.04792561148577,25.87349730271789],[-95.04788127139228,25.887954470674583],[-95.05257037325019,25.89916867061943],[-95.05212697491044,25.918675531995262],[-95.05569815057912,25.925771128178546],[-95.05541549005638,25.952971307290913],[-95.04202992294503,26.05654728977731],[-95.01883653059159,26.118417499725332],[-95.00385907008715,26.13317910948938],[-94.99800914848777,26.14828624353798],[-94.98989455966412,26.153309987604082],[-94.98352309932969,26.167943959188804],[-94.9768656151745,26.172970208931766],[-94.9696264315524,26.1878870634608],[-94.96090494869037,26.193677426164104],[-94.95612831246976,26.205729793905864],[-94.9470887104505,26.2081857764788],[-94.94080128045067,26.222415420349805],[-94.932135750278,26.224872121783072],[-94.92846214696343,26.231825617611896],[-94.91809946936327,26.239070460205397],[-94.91423152982256,26.247602064447477],[-94.90485395133898,26.253663511063845],[-94.87361312848785,26.29364918487719],[-94.86258076540129,26.298458742054116],[-94.83846642928799,26.291147706189474],[-94.83486273684169,26.281223031015827],[-94.87238606823142,26.056351743430564],[-94.87489214195473,25.95758353843084]]]},"properties":{"kind":"release_corridor","age_prior_h":{"min":2,"max":48,"label":"weak prior","spreading_min_h":1.2}}},{"type":"Feature","geometry":{"type":"Polygon","coordinates":[[[-95.10437153465419,25.942722071015645],[-95.09624380189763,26.03860162893956],[-95.08124135807383,26.096307086211255],[-95.0628275329921,26.14001193700612],[-94.99796650055856,26.230566369541837],[-94.9098067904893,26.324892455037382],[-94.89156617168292,26.336865012255092],[-94.85458688437969,26.343146782431404],[-94.8255498949989,26.33612427854013],[-94.80465169488807,26.32455168287868],[-94.78976296535475,26.305031948746727],[-94.78496571419353,26.277506788362782],[-94.82215385962176,26.051972262718603],[-94.82468971896246,25.9642835649015],[-94.77116461899298,25.778404679852823],[-94.71044256428095,25.629527847341155],[-94.65421257075504,25.5851190339846],[-94.5413385791083,25.479092107223707],[-94.50140939712873,25.42466805637594],[-94.39408710347332,25.25436512176411],[-94.18674405795716,25.115533482651088],[-94.1073987428408,25.056838668908956],[-93.96790393686733,24.756174359753892],[-93.96642139313694,24.72851132830026],[-93.98189360114888,24.704121094345723],[-94.02259432383688,24.687198127088255],[-94.07724859148989,24.68804346560208],[-94.17093912672688,24.71114901751188],[-94.37953165368809,24.741549743014062],[-94.50393336068831,24.808514470889428],[-94.57460867570254,24.854871962974503],[-94.73102357669657,24.990734386437733],[-94.78724415755032,25.04857109071859],[-94.85976633772565,25.149907592074012],[-94.94688609898871,25.2972307625567],[-94.99620640406096,25.361602494871192],[-95.02781649767661,25.424677265355022],[-95.0508590175894,25.484372666230158],[-95.07451679523508,25.570105454362043],[-95.08770839164114,25.656706461838453],[-95.08767773915608,25.831532571429992],[-95.1021622261555,25.892941276880517],[-95.10437153465419,25.942722071015645]]]},"properties":{"kind":"expanded_corridor_for_veto","margin_km":5.0}}],"properties":{"physics":{"formula":"V_oil = V_current + V_tide + V_Stokes + alpha * V_wind10","current_source":"CMEMS SMOC (uo+utide, vo+vtide)","stokes_source":"CMEMS SMOC (vsdx, vsdy)","wind_source":"ERA5 10 m (u10, v10)","alpha":0.02,"alpha_range":[0.01,0.03],"current_scale_sd":0.15,"wind_rotation_sd_deg":10.0,"current_error_sd_ms":0.1,"diffusion_m2s":1.0,"time_step_s":900,"backward_members":10,"backward_particles":500,"forward_members":5,"max_age_h":72}}}