{"type":"FeatureCollection","features":[{"type":"Feature","geometry":{"type":"Polygon","coordinates":[[[-94.59405867658617,26.618120658884916],[-94.56691648573164,26.64693722164773],[-94.54041043859691,26.640482385522503],[-94.523619383126,26.62608900921577],[-94.52384144788807,26.61176746835302],[-94.53025869916993,26.591018684479216],[-94.5857443162292,26.518813273766433],[-94.6090154991494,26.505630453160375],[-94.62666293121538,26.50144473512645],[-94.63736307678273,26.50977698952429],[-94.64863345316766,26.53954393519852],[-94.61069965445188,26.574379773651405],[-94.59422814681514,26.605890568090143],[-94.59405867658617,26.618120658884916]]]},"properties":{"kind":"forecast_envelope","hours":24,"active_fraction":1.0}},{"type":"Feature","geometry":{"type":"Polygon","coordinates":[[[-94.28771024847327,26.748694894327738],[-94.29924964752985,26.759079527684484],[-94.29756462917784,26.764872568902867],[-94.28155019722142,26.772422713802513],[-94.25176953849676,26.774034082258517],[-94.23467234216123,26.767030183817326],[-94.21960073590596,26.756143018361232],[-94.20629033075794,26.731459859858894],[-94.20914978635686,26.72052507012743],[-94.2073330391411,26.701462766195174],[-94.24079718391117,26.671723610895192],[-94.25747703616246,26.661012218937564],[-94.26278527485303,26.6621749469038],[-94.26875191185755,26.67103266746889],[-94.28268753048563,26.666685666196056],[-94.2888935444302,26.671384024824924],[-94.3037398843687,26.67454259408145],[-94.3178454355688,26.693432374819867],[-94.32374873461524,26.71296016280259],[-94.32154886385588,26.72496695916371],[-94.30976894796679,26.736407435149545],[-94.2921307378911,26.74171841563133],[-94.28771024847327,26.748694894327738]]]},"properties":{"kind":"forecast_envelope","hours":48,"active_fraction":1.0}},{"type":"Feature","geometry":{"type":"Polygon","coordinates":[[[-94.05041417828048,26.729626248970067],[-94.07750461576032,26.776813452947337],[-94.05741066785126,26.795288659579327],[-94.03002195353744,26.8039637898584],[-94.0143365681941,26.799157745191646],[-94.00884131904913,26.787741013946984],[-93.9929479563073,26.77117316408923],[-93.99074321898664,26.76400658279482],[-93.97301480399426,26.748850573357466],[-93.95780864456532,26.708072375512437],[-93.95136329712423,26.67838193507398],[-93.983484807303,26.66273444151502],[-94.01020225342371,26.671259339816295],[-94.03432513449282,26.695787061106113],[-94.05041417828048,26.729626248970067]]]},"properties":{"kind":"forecast_envelope","hours":72,"active_fraction":1.0}}],"properties":{"model":"OpenDrift OpenOil","oil_type":"GENERIC INTERMEDIATE FUEL OIL 180","hours":72,"coastal_impact":false,"stranded_elements":0,"elements":1500,"mass_budget_fraction":{"mass_oil":[1.0,0.9828000068664551,0.9725000262260437,0.9624000191688538,0.9523000121116638,0.9424999952316284,0.9330999851226807,0.9241999983787537,0.9160000085830688,0.9086999893188477,0.902899980545044,0.8981000185012817,0.8945000171661377,0.8917999863624573,0.8888999819755554,0.8855999708175659,0.8823000192642212,0.8787999749183655,0.8752999901771545,0.8718000054359436,0.8684999942779541,0.8654000163078308,0.8622999787330627,0.8590999841690063,0.8551999926567078,0.8551999926567078,0.8550000190734863,0.8543999791145325,0.853600025177002,0.8525999784469604,0.8518999814987183,0.8514999747276306,0.8513000011444092,0.8513000011444092,0.8513000011444092,0.8513000011444092,0.8513000011444092,0.8513000011444092,0.8513000011444092,0.8513000011444092,0.8513000011444092,0.8513000011444092,0.8513000011444092,0.8513000011444092,0.8513000011444092,0.8511999845504761,0.8511999845504761,0.8511999845504761,0.8511999845504761,0.8511999845504761,0.8511999845504761,0.8510000109672546,0.8500999808311462,0.8482999801635742,0.8464999794960022,0.8454999923706055,0.8450999855995178,0.8450000286102295,0.8450000286102295,0.8450000286102295,0.8450000286102295,0.8450000286102295,0.8450000286102295,0.8450000286102295,0.8450000286102295,0.8450000286102295,0.8447999954223633,0.8446000218391418,0.843999981880188,0.8424000144004822,0.8400999903678894,0.8371999859809875],"mass_evaporated":[0.0,0.016499999910593033,0.02669999934732914,0.03660000115633011,0.046300001442432404,0.05570000037550926,0.06459999829530716,0.0729999989271164,0.08100000023841858,0.08820000290870667,0.09399999678134918,0.09870000183582306,0.10239999741315842,0.10499999672174454,0.1080000028014183,0.1111999973654747,0.11460000276565552,0.11810000240802765,0.12160000205039978,0.125,0.1282999962568283,0.1315000057220459,0.13449999690055847,0.13779999315738678,0.14159999787807465,0.14159999787807465,0.14159999787807465,0.14159999787807465,0.14159999787807465,0.14159999787807465,0.14159999787807465,0.14159999787807465,0.14159999787807465,0.14159999787807465,0.14159999787807465,0.14159999787807465,0.14159999787807465,0.14159999787807465,0.14159999787807465,0.14159999787807465,0.14159999787807465,0.14159999787807465,0.14159999787807465,0.14159999787807465,0.14159999787807465,0.14159999787807465,0.14159999787807465,0.14159999787807465,0.14159999787807465,0.14159999787807465,0.14159999787807465,0.14159999787807465,0.14159999787807465,0.14159999787807465,0.14159999787807465,0.14159999787807465,0.14159999787807465,0.14159999787807465,0.14159999787807465,0.14159999787807465,0.14159999787807465,0.14159999787807465,0.14159999787807465,0.14159999787807465,0.14159999787807465,0.14159999787807465,0.14159999787807465,0.14159999787807465,0.14159999787807465,0.14159999787807465,0.14159999787807465,0.14159999787807465],"mass_dispersed":[0.0,0.0006000000284984708,0.0007999999797903001,0.0010000000474974513,0.00139999995008111,0.0019000000320374966,0.002400000113993883,0.00279999990016222,0.003100000089034438,0.0031999999191612005,0.0031999999191612005,0.0031999999191612005,0.0031999999191612005,0.0031999999191612005,0.0031999999191612005,0.0031999999191612005,0.0031999999191612005,0.0031999999191612005,0.0031999999191612005,0.0031999999191612005,0.0031999999191612005,0.0031999999191612005,0.0031999999191612005,0.0031999999191612005,0.0031999999191612005,0.0031999999191612005,0.0034000000450760126,0.004000000189989805,0.004800000227987766,0.005799999926239252,0.006500000134110451,0.006899999920278788,0.0071000000461936,0.0071000000461936,0.0071000000461936,0.0071000000461936,0.0071000000461936,0.0071000000461936,0.0071000000461936,0.0071000000461936,0.0071000000461936,0.0071000000461936,0.0071000000461936,0.0071000000461936,0.0071000000461936,0.007199999876320362,0.007199999876320362,0.007199999876320362,0.007199999876320362,0.007199999876320362,0.007199999876320362,0.007400000002235174,0.008299999870359898,0.010099999606609344,0.011900000274181366,0.012900000438094139,0.013299999758601189,0.013299999758601189,0.013399999588727951,0.013399999588727951,0.013399999588727951,0.013399999588727951,0.013399999588727951,0.013399999588727951,0.013399999588727951,0.013399999588727951,0.013500000350177288,0.013799999840557575,0.014299999922513962,0.01600000075995922,0.018300000578165054,0.021199999377131462]}}}