{"type":"FeatureCollection","features":[{"type":"Feature","geometry":{"type":"Point","coordinates":[-94.91523,25.27613]},"properties":{"peak_db":10.3,"area_px":9,"approx_length_m":126,"platform":false}},{"type":"Feature","geometry":{"type":"Point","coordinates":[-94.07539,25.51793]},"properties":{"peak_db":16.7,"area_px":21,"approx_length_m":192,"platform":false}},{"type":"Feature","geometry":{"type":"Point","coordinates":[-95.18227,25.38416]},"properties":{"peak_db":10.9,"area_px":19,"approx_length_m":183,"platform":false}},{"type":"Feature","geometry":{"type":"Point","coordinates":[-94.64999,25.49868]},"properties":{"peak_db":19.9,"area_px":21,"approx_length_m":192,"platform":false}},{"type":"Feature","geometry":{"type":"Point","coordinates":[-94.84398,25.50341]},"properties":{"peak_db":9.1,"area_px":18,"approx_length_m":178,"platform":false}},{"type":"Feature","geometry":{"type":"Point","coordinates":[-94.65788,25.5408]},"properties":{"peak_db":-7.9,"area_px":2,"approx_length_m":59,"platform":false}},{"type":"Feature","geometry":{"type":"Point","coordinates":[-94.65806,25.54142]},"properties":{"peak_db":-6.7,"area_px":3,"approx_length_m":73,"platform":false}},{"type":"Feature","geometry":{"type":"Point","coordinates":[-94.41631,25.63667]},"properties":{"peak_db":19.3,"area_px":20,"approx_length_m":188,"platform":false}},{"type":"Feature","geometry":{"type":"Point","coordinates":[-93.9546,25.89551]},"properties":{"peak_db":18.6,"area_px":21,"approx_length_m":192,"platform":false}},{"type":"Feature","geometry":{"type":"Point","coordinates":[-93.9647,25.94785]},"properties":{"peak_db":-6.3,"area_px":3,"approx_length_m":73,"platform":false}},{"type":"Feature","geometry":{"type":"Point","coordinates":[-95.24888,25.96519]},"properties":{"peak_db":-5.2,"area_px":1,"approx_length_m":42,"platform":false}},{"type":"Feature","geometry":{"type":"Point","coordinates":[-95.25703,26.00578]},"properties":{"peak_db":22.4,"area_px":20,"approx_length_m":188,"platform":false}},{"type":"Feature","geometry":{"type":"Point","coordinates":[-94.89753,26.12877]},"properties":{"peak_db":9.4,"area_px":24,"approx_length_m":206,"platform":true}},{"type":"Feature","geometry":{"type":"Point","coordinates":[-94.90186,26.13303]},"properties":{"peak_db":8.4,"area_px":8,"approx_length_m":119,"platform":false}},{"type":"Feature","geometry":{"type":"Point","coordinates":[-94.89732,26.13669]},"properties":{"peak_db":12.7,"area_px":10,"approx_length_m":133,"platform":false}},{"type":"Feature","geometry":{"type":"Point","coordinates":[-94.75129,26.20048]},"properties":{"peak_db":18.3,"area_px":27,"approx_length_m":218,"platform":false}},{"type":"Feature","geometry":{"type":"Point","coordinates":[-94.33245,26.26808]},"properties":{"peak_db":12.0,"area_px":20,"approx_length_m":188,"platform":false}},{"type":"Feature","geometry":{"type":"Point","coordinates":[-94.68172,26.22159]},"properties":{"peak_db":11.6,"area_px":23,"approx_length_m":201,"platform":false}},{"type":"Feature","geometry":{"type":"Point","coordinates":[-94.67369,26.22362]},"properties":{"peak_db":10.1,"area_px":26,"approx_length_m":214,"platform":false}},{"type":"Feature","geometry":{"type":"Point","coordinates":[-94.62936,26.25259]},"properties":{"peak_db":8.1,"area_px":17,"approx_length_m":173,"platform":false}},{"type":"Feature","geometry":{"type":"Point","coordinates":[-94.29439,26.54151]},"properties":{"peak_db":15.2,"area_px":26,"approx_length_m":214,"platform":false}},{"type":"Feature","geometry":{"type":"Point","coordinates":[-94.26731,26.59127]},"properties":{"peak_db":12.9,"area_px":21,"approx_length_m":192,"platform":false}},{"type":"Feature","geometry":{"type":"Point","coordinates":[-94.97241,26.79215]},"properties":{"peak_db":4.5,"area_px":4,"approx_length_m":84,"platform":false}},{"type":"Feature","geometry":{"type":"Point","coordinates":[-94.97379,26.79282]},"properties":{"peak_db":13.5,"area_px":18,"approx_length_m":178,"platform":false}}],"properties":{"method":"two-window CFAR, 30 m, 9.0 dB over local background","validated":false}}