{"type":"FeatureCollection","features":[{"type":"Feature","geometry":{"type":"MultiPolygon","coordinates":[[[[-94.829865,26.328735],[-94.829178,26.328735],[-94.829178,26.328049],[-94.829865,26.328049],[-94.829865,26.328735]]],[[[-94.829178,26.328735],[-94.829178,26.329422],[-94.828491,26.329422],[-94.828491,26.328735],[-94.829178,26.328735]]],[[[-94.833298,26.332169],[-94.832611,26.332169],[-94.832611,26.331482],[-94.831924,26.331482],[-94.831924,26.330109],[-94.831238,26.330109],[-94.831238,26.328049],[-94.832611,26.328049],[-94.832611,26.327362],[-94.833298,26.327362],[-94.833298,26.326675],[-94.833984,26.326675],[-94.833984,26.324615],[-94.834671,26.324615],[-94.834671,26.323929],[-94.835358,26.323929],[-94.835358,26.323242],[-94.836044,26.323242],[-94.836044,26.326675],[-94.836731,26.326675],[-94.836731,26.327362],[-94.835358,26.327362],[-94.835358,26.326675],[-94.834671,26.326675],[-94.834671,26.327362],[-94.833984,26.327362],[-94.833984,26.330109],[-94.833298,26.330109],[-94.833298,26.332169]]],[[[-94.897156,26.130295],[-94.898529,26.130295],[-94.898529,26.129608],[-94.899902,26.129608],[-94.899902,26.128235],[-94.898529,26.128235],[-94.898529,26.127548],[-94.897842,26.127548],[-94.897842,26.125488],[-94.897156,26.125488],[-94.897156,26.123428],[-94.897842,26.123428],[-94.897842,26.122055],[-94.898529,26.122055],[-94.898529,26.121368],[-94.899216,26.121368],[-94.899216,26.119995],[-94.898529,26.119995],[-94.898529,26.119308],[-94.897842,26.119308],[-94.897842,26.118622],[-94.898529,26.118622],[-94.898529,26.117935],[-94.899216,26.117935],[-94.899216,26.117249],[-94.899902,26.117249],[-94.899902,26.116562],[-94.899216,26.116562],[-94.899216,26.113129],[-94.899902,26.113129],[-94.899902,26.111069],[-94.899216,26.111069],[-94.899216,26.110382],[-94.899902,26.110382],[-94.899902,26.106262],[-94.900589,26.106262],[-94.900589,26.111755],[-94.901276,26.111755],[-94.901276,26.113129],[-94.900589,26.113129],[-94.900589,26.117935],[-94.899902,26.117935],[-94.899902,26.119995],[-94.900589,26.119995],[-94.900589,26.124115],[-94.901962,26.124115],[-94.901962,26.125488],[-94.901276,26.125488],[-94.901276,26.127548],[-94.901962,26.127548],[-94.901962,26.126175],[-94.902649,26.126175],[-94.902649,26.118622],[-94.901962,26.118622],[-94.901962,26.117935],[-94.902649,26.117935],[-94.902649,26.111069],[-94.903336,26.111069],[-94.903336,26.110382],[-94.902649,26.110382],[-94.902649,26.108322],[-94.903336,26.108322],[-94.903336,26.106949],[-94.902649,26.106949],[-94.902649,26.100082],[-94.903336,26.100082],[-94.903336,26.095276],[-94.904022,26.095276],[-94.904022,26.093216],[-94.904709,26.093216],[-94.904709,26.094589],[-94.905396,26.094589],[-94.905396,26.095276],[-94.906082,26.095276],[-94.906082,26.095963],[-94.904709,26.095963],[-94.904709,26.106262],[-94.905396,26.106262],[-94.905396,26.107635],[-94.904709,26.107635],[-94.904709,26.116562],[-94.904022,26.116562],[-94.904022,26.117935],[-94.904709,26.117935],[-94.904709,26.120682],[-94.905396,26.120682],[-94.905396,26.122055],[-94.906082,26.122055],[-94.906082,26.126175],[-94.906769,26.126175],[-94.906769,26.128922],[-94.907455,26.128922],[-94.907455,26.129608],[-94.908142,26.129608],[-94.908142,26.130295],[-94.907455,26.130295],[-94.907455,26.130981],[-94.908142,26.130981],[-94.908142,26.133041],[-94.908829,26.133041],[-94.908829,26.135101],[-94.909515,26.135101],[-94.909515,26.139221],[-94.908829,26.139221],[-94.908829,26.139908],[-94.908142,26.139908],[-94.908142,26.141281],[-94.907455,26.141281],[-94.907455,26.144028],[-94.908142,26.144028],[-94.908142,26.145401],[-94.907455,26.145401],[-94.907455,26.147461],[-94.908142,26.147461],[-94.908142,26.150208],[-94.907455,26.150208],[-94.907455,26.150894],[-94.906769,26.150894],[-94.906769,26.152267],[-94.906082,26.152267],[-94.906082,26.152954],[-94.905396,26.152954],[-94.905396,26.153641],[-94.904709,26.153641],[-94.904709,26.155014],[-94.904022,26.155014],[-94.904022,26.155701],[-94.903336,26.155701],[-94.903336,26.154327],[-94.902649,26.154327],[-94.902649,26.155701],[-94.901962,26.155701],[-94.901962,26.157074],[-94.901276,26.157074],[-94.901276,26.157761],[-94.900589,26.157761],[-94.900589,26.158447],[-94.899902,26.158447],[-94.899902,26.16394],[-94.900589,26.16394],[-94.900589,26.167374],[-94.901276,26.167374],[-94.901276,26.16806],[-94.901962,26.16806],[-94.901962,26.169434],[-94.901276,26.169434],[-94.901276,26.170807],[-94.900589,26.170807],[-94.900589,26.17218],[-94.899902,26.17218],[-94.899902,26.172867],[-94.899216,26.172867],[-94.899216,26.174927],[-94.897842,26.174927],[-94.897842,26.175613],[-94.899216,26.175613],[-94.899216,26.1763],[-94.897842,26.1763],[-94.897842,26.176987],[-94.896469,26.176987],[-94.896469,26.179047],[-94.895782,26.179047],[-94.895782,26.1763],[-94.896469,26.1763],[-94.896469,26.17424],[-94.897156,26.17424],[-94.897156,26.172867],[-94.896469,26.172867],[-94.896469,26.17218],[-94.895782,26.17218],[-94.895782,26.172867],[-94.894409,26.172867],[-94.894409,26.174927],[-94.893723,26.174927],[-94.893723,26.176987],[-94.893036,26.176987],[-94.893036,26.179733],[-94.891663,26.179733],[-94.891663,26.18042],[-94.890976,26.18042],[-94.890976,26.181107],[-94.890289,26.181107],[-94.890289,26.181793],[-94.889603,26.181793],[-94.889603,26.183167],[-94.888916,26.183167],[-94.888916,26.185226],[-94.888229,26.185226],[-94.888229,26.1866],[-94.887543,26.1866],[-94.887543,26.192093],[-94.888229,26.192093],[-94.888229,26.19278],[-94.888916,26.19278],[-94.888916,26.194839],[-94.889603,26.194839],[-94.889603,26.195526],[-94.888916,26.195526],[-94.888916,26.196899],[-94.888229,26.196899],[-94.888229,26.198959],[-94.886169,26.198959],[-94.886169,26.199646],[-94.883423,26.199646],[-94.883423,26.201019],[-94.882736,26.201019],[-94.882736,26.202393],[-94.88205,26.202393],[-94.88205,26.203079],[-94.880676,26.203079],[-94.880676,26.203766],[-94.87999,26.203766],[-94.87999,26.205139],[-94.87793,26.205139],[-94.87793,26.206512],[-94.876556,26.206512],[-94.876556,26.207886],[-94.87587,26.207886],[-94.87587,26.208572],[-94.875183,26.208572],[-94.875183,26.209259],[-94.874496,26.209259],[-94.874496,26.209946],[-94.87381,26.209946],[-94.87381,26.212006],[-94.873123,26.212006],[-94.873123,26.214066],[-94.872437,26.214066],[-94.872437,26.214752],[-94.87175,26.214752],[-94.87175,26.216812],[-94.871063,26.216812],[-94.871063,26.220932],[-94.87175,26.220932],[-94.87175,26.223679],[-94.873123,26.223679],[-94.873123,26.225052],[-94.872437,26.225052],[-94.872437,26.225739],[-94.87175,26.225739],[-94.87175,26.226425],[-94.871063,26.226425],[-94.871063,26.227112],[-94.870377,26.227112],[-94.870377,26.228485],[-94.86969,26.228485],[-94.86969,26.229172],[-94.869003,26.229172],[-94.869003,26.229858],[-94.868317,26.229858],[-94.868317,26.230545],[-94.86763,26.230545],[-94.86763,26.231232],[-94.866943,26.231232],[-94.866943,26.232605],[-94.866257,26.232605],[-94.866257,26.233292],[-94.864197,26.233292],[-94.864197,26.237411],[-94.86351,26.237411],[-94.86351,26.240845],[-94.862823,26.240845],[-94.862823,26.241531],[-94.862137,26.241531],[-94.862137,26.242218],[-94.86145,26.242218],[-94.86145,26.242905],[-94.860764,26.242905],[-94.860764,26.244965],[-94.860077,26.244965],[-94.860077,26.245651],[-94.85939,26.245651],[-94.85939,26.246338],[-94.85733,26.246338],[-94.85733,26.249084],[-94.85939,26.249084],[-94.85939,26.250458],[-94.860077,26.250458],[-94.860077,26.251831],[-94.860764,26.251831],[-94.860764,26.252518],[-94.862137,26.252518],[-94.862137,26.253204],[-94.862823,26.253204],[-94.862823,26.254578],[-94.86351,26.254578],[-94.86351,26.255264],[-94.864197,26.255264],[-94.864197,26.259384],[-94.864883,26.259384],[-94.864883,26.260071],[-94.866257,26.260071],[-94.866257,26.261444],[-94.86557,26.261444],[-94.86557,26.262131],[-94.864197,26.262131],[-94.864197,26.262817],[-94.86351,26.262817],[-94.86351,26.264191],[-94.862823,26.264191],[-94.862823,26.267624],[-94.86351,26.267624],[-94.86351,26.268997],[-94.864197,26.268997],[-94.864197,26.27037],[-94.864883,26.27037],[-94.864883,26.271744],[-94.86557,26.271744],[-94.86557,26.27243],[-94.866943,26.27243],[-94.866943,26.273117],[-94.86763,26.273117],[-94.86763,26.27449],[-94.866943,26.27449],[-94.866943,26.275177],[-94.86557,26.275177],[-94.86557,26.275864],[-94.864197,26.275864],[-94.864197,26.27655],[-94.86557,26.27655],[-94.86557,26.277237],[-94.866257,26.277237],[-94.866257,26.27655],[-94.869003,26.27655],[-94.869003,26.275864],[-94.871063,26.275864],[-94.871063,26.27655],[-94.870377,26.27655],[-94.870377,26.277237],[-94.866943,26.277237],[-94.866943,26.281357],[-94.866257,26.281357],[-94.866257,26.28273],[-94.864197,26.28273],[-94.864197,26.283417],[-94.86351,26.283417],[-94.86351,26.28479],[-94.862823,26.28479],[-94.862823,26.285477],[-94.862137,26.285477],[-94.862137,26.287537],[-94.86145,26.287537],[-94.86145,26.28891],[-94.860077,26.28891],[-94.860077,26.289597],[-94.85939,26.289597],[-94.85939,26.291656],[-94.860077,26.291656],[-94.860077,26.292343],[-94.860764,26.292343],[-94.860764,26.29509],[-94.85733,26.29509],[-94.85733,26.295776],[-94.855957,26.295776],[-94.855957,26.296463],[-94.85527,26.296463],[-94.85527,26.297836],[-94.854584,26.297836],[-94.854584,26.299896],[-94.85527,26.299896],[-94.85527,26.30127],[-94.855957,26.30127],[-94.855957,26.301956],[-94.856644,26.301956],[-94.856644,26.300583],[-94.85733,26.300583],[-94.85733,26.30127],[-94.858704,26.30127],[-94.858704,26.301956],[-94.858017,26.301956],[-94.858017,26.303329],[-94.858704,26.303329],[-94.858704,26.304703],[-94.85939,26.304703],[-94.85939,26.306076],[-94.858017,26.306076],[-94.858017,26.306763],[-94.85733,26.306763],[-94.85733,26.308136],[-94.85527,26.308136],[-94.85527,26.308823],[-94.852524,26.308823],[-94.852524,26.309509],[-94.851837,26.309509],[-94.851837,26.310196],[-94.851151,26.310196],[-94.851151,26.310883],[-94.851837,26.310883],[-94.851837,26.312256],[-94.852524,26.312256],[-94.852524,26.313629],[-94.85321,26.313629],[-94.85321,26.314316],[-94.851837,26.314316],[-94.851837,26.317749],[-94.852524,26.317749],[-94.852524,26.318436],[-94.85321,26.318436],[-94.85321,26.320496],[-94.851837,26.320496],[-94.851837,26.321182],[-94.851151,26.321182],[-94.851151,26.321869],[-94.848404,26.321869],[-94.848404,26.322556],[-94.847031,26.322556],[-94.847031,26.323242],[-94.845657,26.323242],[-94.845657,26.324615],[-94.844284,26.324615],[-94.844284,26.322556],[-94.845657,26.322556],[-94.845657,26.321869],[-94.847031,26.321869],[-94.847031,26.321182],[-94.847717,26.321182],[-94.847717,26.320496],[-94.849091,26.320496],[-94.849091,26.319122],[-94.849777,26.319122],[-94.849777,26.318436],[-94.850464,26.318436],[-94.850464,26.315689],[-94.849777,26.315689],[-94.849777,26.315002],[-94.849091,26.315002],[-94.849091,26.310196],[-94.848404,26.310196],[-94.848404,26.308823],[-94.849091,26.308823],[-94.849091,26.308136],[-94.847717,26.308136],[-94.847717,26.307449],[-94.847031,26.307449],[-94.847031,26.308136],[-94.846344,26.308136],[-94.846344,26.308823],[-94.847031,26.308823],[-94.847031,26.310196],[-94.847717,26.310196],[-94.847717,26.311569],[-94.848404,26.311569],[-94.848404,26.312256],[-94.847717,26.312256],[-94.847717,26.312943],[-94.847031,26.312943],[-94.847031,26.313629],[-94.846344,26.313629],[-94.846344,26.314316],[-94.844971,26.314316],[-94.844971,26.315689],[-94.844284,26.315689],[-94.844284,26.316376],[-94.844971,26.316376],[-94.844971,26.317062],[-94.846344,26.317062],[-94.846344,26.319809],[-94.847031,26.319809],[-94.847031,26.320496],[-94.844971,26.320496],[-94.844971,26.321182],[-94.842911,26.321182],[-94.842911,26.320496],[-94.840851,26.320496],[-94.840851,26.321182],[-94.836731,26.321182],[-94.836731,26.320496],[-94.833984,26.320496],[-94.833984,26.319122],[-94.835358,26.319122],[-94.835358,26.318436],[-94.836731,26.318436],[-94.836731,26.317749],[-94.837418,26.317749],[-94.837418,26.315689],[-94.836731,26.315689],[-94.836731,26.315002],[-94.837418,26.315002],[-94.837418,26.312256],[-94.838791,26.312256],[-94.838791,26.311569],[-94.839478,26.311569],[-94.839478,26.308823],[-94.840164,26.308823],[-94.840164,26.308136],[-94.839478,26.308136],[-94.839478,26.307449],[-94.838104,26.307449],[-94.838104,26.306763],[-94.837418,26.306763],[-94.837418,26.305389],[-94.836731,26.305389],[-94.836731,26.304703],[-94.837418,26.304703],[-94.837418,26.304016],[-94.838104,26.304016],[-94.838104,26.302643],[-94.839478,26.302643],[-94.839478,26.30127],[-94.840851,26.30127],[-94.840851,26.300583],[-94.841537,26.300583],[-94.841537,26.299896],[-94.840851,26.299896],[-94.840851,26.29921],[-94.840164,26.29921],[-94.840164,26.295776],[-94.839478,26.295776],[-94.839478,26.29509],[-94.840164,26.29509],[-94.840164,26.29303],[-94.840851,26.29303],[-94.840851,26.28685],[-94.841537,26.28685],[-94.841537,26.285477],[-94.842224,26.285477],[-94.842224,26.283417],[-94.842911,26.283417],[-94.842911,26.28273],[-94.846344,26.28273],[-94.846344,26.282043],[-94.847717,26.282043],[-94.847717,26.281357],[-94.848404,26.281357],[-94.848404,26.279984],[-94.844971,26.279984],[-94.844971,26.279297],[-94.844284,26.279297],[-94.844284,26.275864],[-94.844971,26.275864],[-94.844971,26.275177],[-94.845657,26.275177],[-94.845657,26.27449],[-94.847031,26.27449],[-94.847031,26.275864],[-94.847717,26.275864],[-94.847717,26.275177],[-94.849091,26.275177],[-94.849091,26.27449],[-94.850464,26.27449],[-94.850464,26.273804],[-94.851151,26.273804],[-94.851151,26.273117],[-94.851837,26.273117],[-94.851837,26.27243],[-94.85321,26.27243],[-94.85321,26.271744],[-94.851151,26.271744],[-94.851151,26.27037],[-94.850464,26.27037],[-94.850464,26.269684],[-94.849777,26.269684],[-94.849777,26.268311],[-94.849091,26.268311],[-94.849091,26.266937],[-94.848404,26.266937],[-94.848404,26.263504],[-94.847031,26.263504],[-94.847031,26.260757],[-94.846344,26.260757],[-94.846344,26.260071],[-94.847031,26.260071],[-94.847031,26.258698],[-94.847717,26.258698],[-94.847717,26.257324],[-94.848404,26.257324],[-94.848404,26.255951],[-94.849777,26.255951],[-94.849777,26.255264],[-94.850464,26.255264],[-94.850464,26.254578],[-94.851151,26.254578],[-94.851151,26.251831],[-94.851837,26.251831],[-94.851837,26.250458],[-94.851151,26.250458],[-94.851151,26.247711],[-94.850464,26.247711],[-94.850464,26.246338],[-94.849777,26.246338],[-94.849777,26.245651],[-94.850464,26.245651],[-94.850464,26.244965],[-94.851151,26.244965],[-94.851151,26.243591],[-94.851837,26.243591],[-94.851837,26.242905],[-94.853897,26.242905],[-94.853897,26.241531],[-94.85527,26.241531],[-94.85527,26.240845],[-94.856644,26.240845],[-94.856644,26.239471],[-94.85733,26.239471],[-94.85733,26.231918],[-94.858017,26.231918],[-94.858017,26.230545],[-94.858704,26.230545],[-94.858704,26.229858],[-94.85939,26.229858],[-94.85939,26.229172],[-94.860077,26.229172],[-94.860077,26.227112],[-94.860764,26.227112],[-94.860764,26.225052],[-94.86145,26.225052],[-94.86145,26.222992],[-94.862137,26.222992],[-94.862137,26.220932],[-94.862823,26.220932],[-94.862823,26.219559],[-94.862137,26.219559],[-94.862137,26.216812],[-94.862823,26.216812],[-94.862823,26.212692],[-94.86351,26.212692],[-94.86351,26.212006],[-94.864197,26.212006],[-94.864197,26.209259],[-94.864883,26.209259],[-94.864883,26.207886],[-94.866257,26.207886],[-94.866257,26.207199],[-94.866943,26.207199],[-94.866943,26.206512],[-94.86763,26.206512],[-94.86763,26.205139],[-94.868317,26.205139],[-94.868317,26.203766],[-94.869003,26.203766],[-94.869003,26.202393],[-94.86969,26.202393],[-94.86969,26.201019],[-94.87175,26.201019],[-94.87175,26.200333],[-94.873123,26.200333],[-94.873123,26.199646],[-94.87381,26.199646],[-94.87381,26.198273],[-94.874496,26.198273],[-94.874496,26.197586],[-94.87381,26.197586],[-94.87381,26.196899],[-94.874496,26.196899],[-94.874496,26.195526],[-94.87381,26.195526],[-94.87381,26.193466],[-94.874496,26.193466],[-94.874496,26.192093],[-94.87381,26.192093],[-94.87381,26.19072],[-94.875183,26.19072],[-94.875183,26.190033],[-94.87587,26.190033],[-94.87587,26.187286],[-94.875183,26.187286],[-94.875183,26.185913],[-94.87587,26.185913],[-94.87587,26.18454],[-94.876556,26.18454],[-94.876556,26.181107],[-94.877243,26.181107],[-94.877243,26.18042],[-94.87793,26.18042],[-94.87793,26.179047],[-94.879303,26.179047],[-94.879303,26.1763],[-94.87999,26.1763],[-94.87999,26.175613],[-94.880676,26.175613],[-94.880676,26.17424],[-94.881363,26.17424],[-94.881363,26.17218],[-94.88205,26.17218],[-94.88205,26.17012],[-94.882736,26.17012],[-94.882736,26.169434],[-94.88205,26.169434],[-94.88205,26.167374],[-94.882736,26.167374],[-94.882736,26.166],[-94.88205,26.166],[-94.88205,26.162567],[-94.881363,26.162567],[-94.881363,26.161194],[-94.880676,26.161194],[-94.880676,26.159821],[-94.881363,26.159821],[-94.881363,26.154327],[-94.88205,26.154327],[-94.88205,26.151581],[-94.881363,26.151581],[-94.881363,26.150894],[-94.88205,26.150894],[-94.88205,26.149521],[-94.882736,26.149521],[-94.882736,26.145401],[-94.88205,26.145401],[-94.88205,26.143341],[-94.882736,26.143341],[-94.882736,26.142654],[-94.883423,26.142654],[-94.883423,26.141281],[-94.882736,26.141281],[-94.882736,26.139908],[-94.883423,26.139908],[-94.883423,26.138535],[-94.884109,26.138535],[-94.884109,26.137161],[-94.884796,26.137161],[-94.884796,26.135788],[-94.886169,26.135788],[-94.886169,26.136475],[-94.886856,26.136475],[-94.886856,26.137848],[-94.887543,26.137848],[-94.887543,26.139221],[-94.889603,26.139221],[-94.889603,26.140594],[-94.890289,26.140594],[-94.890289,26.137848],[-94.889603,26.137848],[-94.889603,26.137161],[-94.890289,26.137161],[-94.890289,26.130981],[-94.890976,26.130981],[-94.890976,26.130295],[-94.891663,26.130295],[-94.891663,26.129608],[-94.897156,26.129608],[-94.897156,26.130295]],[[-94.897156,26.130295],[-94.895096,26.130295],[-94.895096,26.131668],[-94.895782,26.131668],[-94.895782,26.130981],[-94.897156,26.130981],[-94.897156,26.130295]],[[-94.842224,26.308823],[-94.842224,26.307449],[-94.842911,26.307449],[-94.842911,26.306076],[-94.842224,26.306076],[-94.842224,26.305389],[-94.841537,26.305389],[-94.841537,26.304703],[-94.839478,26.304703],[-94.839478,26.306076],[-94.840164,26.306076],[-94.840164,26.306763],[-94.841537,26.306763],[-94.841537,26.308823],[-94.842224,26.308823]],[[-94.842224,26.315689],[-94.842224,26.315002],[-94.842911,26.315002],[-94.842911,26.314316],[-94.843597,26.314316],[-94.843597,26.313629],[-94.844284,26.313629],[-94.844284,26.312943],[-94.843597,26.312943],[-94.843597,26.309509],[-94.842911,26.309509],[-94.842911,26.310883],[-94.842224,26.310883],[-94.842224,26.312256],[-94.841537,26.312256],[-94.841537,26.313629],[-94.840851,26.313629],[-94.840851,26.315002],[-94.841537,26.315002],[-94.841537,26.315689],[-94.842224,26.315689]],[[-94.847031,26.29303],[-94.847031,26.292343],[-94.844971,26.292343],[-94.844971,26.29303],[-94.847031,26.29303]],[[-94.844971,26.29303],[-94.843597,26.29303],[-94.843597,26.293716],[-94.841537,26.293716],[-94.841537,26.295776],[-94.842224,26.295776],[-94.842224,26.29715],[-94.842911,26.29715],[-94.842911,26.296463],[-94.843597,26.296463],[-94.843597,26.29509],[-94.844284,26.29509],[-94.844284,26.294403],[-94.844971,26.294403],[-94.844971,26.29303]],[[-94.844284,26.286163],[-94.844284,26.285477],[-94.843597,26.285477],[-94.843597,26.286163],[-94.844284,26.286163]],[[-94.85321,26.29509],[-94.85321,26.293716],[-94.850464,26.293716],[-94.850464,26.294403],[-94.851837,26.294403],[-94.851837,26.29509],[-94.85321,26.29509]],[[-94.851837,26.29509],[-94.850464,26.29509],[-94.850464,26.295776],[-94.849777,26.295776],[-94.849777,26.299896],[-94.851151,26.299896],[-94.851151,26.300583],[-94.850464,26.300583],[-94.850464,26.30127],[-94.851151,26.30127],[-94.851151,26.302643],[-94.851837,26.302643],[-94.851837,26.305389],[-94.852524,26.305389],[-94.852524,26.306076],[-94.85321,26.306076],[-94.85321,26.305389],[-94.853897,26.305389],[-94.853897,26.304016],[-94.854584,26.304016],[-94.854584,26.301956],[-94.853897,26.301956],[-94.853897,26.30127],[-94.85321,26.30127],[-94.85321,26.29921],[-94.851837,26.29921],[-94.851837,26.298523],[-94.851151,26.298523],[-94.851151,26.296463],[-94.852524,26.296463],[-94.852524,26.295776],[-94.851837,26.295776],[-94.851837,26.29509]],[[-94.85321,26.268311],[-94.85321,26.267624],[-94.853897,26.267624],[-94.853897,26.263504],[-94.854584,26.263504],[-94.854584,26.262817],[-94.853897,26.262817],[-94.853897,26.262131],[-94.85321,26.262131],[-94.85321,26.260071],[-94.85527,26.260071],[-94.85527,26.258698],[-94.854584,26.258698],[-94.854584,26.258011],[-94.85527,26.258011],[-94.85527,26.256638],[-94.850464,26.256638],[-94.850464,26.257324],[-94.849777,26.257324],[-94.849777,26.258698],[-94.850464,26.258698],[-94.850464,26.260071],[-94.849777,26.260071],[-94.849777,26.262131],[-94.850464,26.262131],[-94.850464,26.262817],[-94.852524,26.262817],[-94.852524,26.263504],[-94.85321,26.263504],[-94.85321,26.264877],[-94.852524,26.264877],[-94.852524,26.264191],[-94.851837,26.264191],[-94.851837,26.263504],[-94.850464,26.263504],[-94.850464,26.264877],[-94.851151,26.264877],[-94.851151,26.267624],[-94.851837,26.267624],[-94.851837,26.268311],[-94.85321,26.268311]],[[-94.853897,26.283417],[-94.853897,26.28273],[-94.85321,26.28273],[-94.85321,26.283417],[-94.853897,26.283417]],[[-94.85321,26.28273],[-94.85321,26.282043],[-94.851837,26.282043],[-94.851837,26.281357],[-94.851151,26.281357],[-94.851151,26.28273],[-94.85321,26.28273]],[[-94.856644,26.255264],[-94.856644,26.253204],[-94.854584,26.253204],[-94.854584,26.252518],[-94.85527,26.252518],[-94.85527,26.250458],[-94.853897,26.250458],[-94.853897,26.253891],[-94.854584,26.253891],[-94.854584,26.254578],[-94.85527,26.254578],[-94.85527,26.255264],[-94.856644,26.255264]],[[-94.858017,26.293716],[-94.858017,26.29303],[-94.85733,26.29303],[-94.85733,26.292343],[-94.856644,26.292343],[-94.856644,26.290283],[-94.855957,26.290283],[-94.855957,26.28891],[-94.85527,26.28891],[-94.85527,26.289597],[-94.853897,26.289597],[-94.853897,26.290283],[-94.85527,26.290283],[-94.85527,26.29097],[-94.855957,26.29097],[-94.855957,26.291656],[-94.853897,26.291656],[-94.853897,26.293716],[-94.855957,26.293716],[-94.855957,26.29303],[-94.856644,26.29303],[-94.856644,26.293716],[-94.858017,26.293716]],[[-94.85939,26.253204],[-94.85939,26.252518],[-94.858704,26.252518],[-94.858704,26.253204],[-94.85939,26.253204]],[[-94.860764,26.235352],[-94.860764,26.233978],[-94.860077,26.233978],[-94.860077,26.234665],[-94.85939,26.234665],[-94.85939,26.235352],[-94.860764,26.235352]],[[-94.860764,26.253891],[-94.860764,26.253204],[-94.860077,26.253204],[-94.860077,26.253891],[-94.860764,26.253891]],[[-94.86351,26.281357],[-94.864197,26.281357],[-94.864197,26.279984],[-94.86351,26.279984],[-94.86351,26.279297],[-94.860764,26.279297],[-94.860764,26.279984],[-94.860077,26.279984],[-94.860077,26.282043],[-94.86351,26.282043],[-94.86351,26.281357]],[[-94.86351,26.261444],[-94.86351,26.260071],[-94.862137,26.260071],[-94.862137,26.261444],[-94.86351,26.261444]],[[-94.862137,26.260071],[-94.862137,26.259384],[-94.86145,26.259384],[-94.86145,26.260071],[-94.862137,26.260071]],[[-94.862137,26.27861],[-94.862137,26.277924],[-94.86145,26.277924],[-94.86145,26.27861],[-94.862137,26.27861]],[[-94.86351,26.27655],[-94.86351,26.275864],[-94.862823,26.275864],[-94.862823,26.27655],[-94.86351,26.27655]],[[-94.897156,26.138535],[-94.897156,26.137848],[-94.897842,26.137848],[-94.897842,26.137161],[-94.898529,26.137161],[-94.898529,26.136475],[-94.897842,26.136475],[-94.897842,26.135788],[-94.897156,26.135788],[-94.897156,26.135101],[-94.896469,26.135101],[-94.896469,26.135788],[-94.895782,26.135788],[-94.895782,26.137161],[-94.896469,26.137161],[-94.896469,26.137848],[-94.895782,26.137848],[-94.895782,26.138535],[-94.897156,26.138535]],[[-94.897156,26.133041],[-94.897156,26.132355],[-94.896469,26.132355],[-94.896469,26.133041],[-94.897156,26.133041]],[[-94.902649,26.134415],[-94.902649,26.133728],[-94.903336,26.133728],[-94.903336,26.133041],[-94.902649,26.133041],[-94.902649,26.132355],[-94.901276,26.132355],[-94.901276,26.134415],[-94.902649,26.134415]],[[-94.902649,26.150894],[-94.902649,26.150208],[-94.901962,26.150208],[-94.901962,26.150894],[-94.902649,26.150894]],[[-94.902649,26.129608],[-94.902649,26.128235],[-94.901962,26.128235],[-94.901962,26.129608],[-94.902649,26.129608]],[[-94.903336,26.141281],[-94.903336,26.139908],[-94.901962,26.139908],[-94.901962,26.140594],[-94.902649,26.140594],[-94.902649,26.141281],[-94.903336,26.141281]],[[-94.903336,26.139221],[-94.903336,26.138535],[-94.901962,26.138535],[-94.901962,26.139221],[-94.903336,26.139221]],[[-94.904709,26.137161],[-94.904709,26.136475],[-94.903336,26.136475],[-94.903336,26.135788],[-94.902649,26.135788],[-94.902649,26.136475],[-94.901962,26.136475],[-94.901962,26.137161],[-94.904709,26.137161]],[[-94.904709,26.148834],[-94.904709,26.146774],[-94.904022,26.146774],[-94.904022,26.147461],[-94.903336,26.147461],[-94.903336,26.148148],[-94.904022,26.148148],[-94.904022,26.148834],[-94.904709,26.148834]],[[-94.904709,26.139221],[-94.904709,26.138535],[-94.904022,26.138535],[-94.904022,26.139221],[-94.904709,26.139221]],[[-94.906082,26.136475],[-94.906082,26.135788],[-94.906769,26.135788],[-94.906769,26.135101],[-94.906082,26.135101],[-94.906082,26.133728],[-94.905396,26.133728],[-94.905396,26.134415],[-94.904709,26.134415],[-94.904709,26.133728],[-94.904022,26.133728],[-94.904022,26.135788],[-94.905396,26.135788],[-94.905396,26.136475],[-94.906082,26.136475]],[[-94.906082,26.137848],[-94.906082,26.137161],[-94.905396,26.137161],[-94.905396,26.137848],[-94.906082,26.137848]]],[[[-94.871063,26.275864],[-94.871063,26.275177],[-94.873123,26.275177],[-94.873123,26.273804],[-94.87175,26.273804],[-94.87175,26.273117],[-94.86969,26.273117],[-94.86969,26.27243],[-94.869003,26.27243],[-94.869003,26.271057],[-94.868317,26.271057],[-94.868317,26.269684],[-94.86969,26.269684],[-94.86969,26.271057],[-94.870377,26.271057],[-94.870377,26.271744],[-94.87175,26.271744],[-94.87175,26.27243],[-94.873123,26.27243],[-94.873123,26.273117],[-94.87381,26.273117],[-94.87381,26.273804],[-94.874496,26.273804],[-94.874496,26.275864],[-94.871063,26.275864]]],[[[-94.868317,26.269684],[-94.86763,26.269684],[-94.86763,26.268311],[-94.868317,26.268311],[-94.868317,26.269684]]],[[[-94.86763,26.268311],[-94.866943,26.268311],[-94.866943,26.266251],[-94.86763,26.266251],[-94.86763,26.268311]]],[[[-94.836044,26.347275],[-94.835358,26.347275],[-94.835358,26.344528],[-94.834671,26.344528],[-94.834671,26.343155],[-94.836731,26.343155],[-94.836731,26.345901],[-94.836044,26.345901],[-94.836044,26.347275]]],[[[-94.836044,26.321869],[-94.835358,26.321869],[-94.835358,26.321182],[-94.836044,26.321182],[-94.836044,26.321869]]],[[[-94.842911,26.348648],[-94.842224,26.348648],[-94.842224,26.347961],[-94.841537,26.347961],[-94.841537,26.346588],[-94.840851,26.346588],[-94.840851,26.342468],[-94.841537,26.342468],[-94.841537,26.339035],[-94.840851,26.339035],[-94.840851,26.336975],[-94.841537,26.336975],[-94.841537,26.334915],[-94.840851,26.334915],[-94.840851,26.332169],[-94.840164,26.332169],[-94.840164,26.328049],[-94.839478,26.328049],[-94.839478,26.327362],[-94.840164,26.327362],[-94.840164,26.326675],[-94.841537,26.326675],[-94.841537,26.325989],[-94.842224,26.325989],[-94.842224,26.325302],[-94.842911,26.325302],[-94.842911,26.328735],[-94.840851,26.328735],[-94.840851,26.330109],[-94.841537,26.330109],[-94.841537,26.332169],[-94.842224,26.332169],[-94.842224,26.333542],[-94.842911,26.333542],[-94.842911,26.334229],[-94.843597,26.334229],[-94.843597,26.334915],[-94.844284,26.334915],[-94.844284,26.336975],[-94.843597,26.336975],[-94.843597,26.341782],[-94.844284,26.341782],[-94.844284,26.343155],[-94.842911,26.343155],[-94.842911,26.344528],[-94.842224,26.344528],[-94.842224,26.346588],[-94.842911,26.346588],[-94.842911,26.348648]]],[[[-94.842224,26.348648],[-94.842224,26.349335],[-94.842911,26.349335],[-94.842911,26.350021],[-94.843597,26.350021],[-94.843597,26.351395],[-94.842911,26.351395],[-94.842911,26.354141],[-94.841537,26.354141],[-94.841537,26.352768],[-94.840851,26.352768],[-94.840851,26.350021],[-94.841537,26.350021],[-94.841537,26.348648],[-94.842224,26.348648]]],[[[-94.851837,26.29921],[-94.851837,26.299896],[-94.851151,26.299896],[-94.851151,26.29921],[-94.851837,26.29921]]],[[[-94.850464,26.258698],[-94.850464,26.258011],[-94.851151,26.258011],[-94.851151,26.258698],[-94.850464,26.258698]]],[[[-94.86351,26.281357],[-94.862823,26.281357],[-94.862823,26.28067],[-94.86351,26.28067],[-94.86351,26.281357]]],[[[-94.868317,26.237411],[-94.86763,26.237411],[-94.86763,26.236038],[-94.868317,26.236038],[-94.868317,26.237411]]],[[[-94.869003,26.265564],[-94.86763,26.265564],[-94.86763,26.264191],[-94.868317,26.264191],[-94.868317,26.262817],[-94.86969,26.262817],[-94.86969,26.262131],[-94.871063,26.262131],[-94.871063,26.258698],[-94.870377,26.258698],[-94.870377,26.257324],[-94.86969,26.257324],[-94.86969,26.255951],[-94.871063,26.255951],[-94.871063,26.256638],[-94.87175,26.256638],[-94.87175,26.258698],[-94.872437,26.258698],[-94.872437,26.260071],[-94.873123,26.260071],[-94.873123,26.262131],[-94.87175,26.262131],[-94.87175,26.262817],[-94.870377,26.262817],[-94.870377,26.263504],[-94.869003,26.263504],[-94.869003,26.265564]]],[[[-94.86969,26.235352],[-94.868317,26.235352],[-94.868317,26.233978],[-94.869003,26.233978],[-94.869003,26.233292],[-94.86969,26.233292],[-94.86969,26.232605],[-94.870377,26.232605],[-94.870377,26.231232],[-94.871063,26.231232],[-94.871063,26.230545],[-94.87175,26.230545],[-94.87175,26.229858],[-94.873123,26.229858],[-94.873123,26.229172],[-94.87381,26.229172],[-94.87381,26.228485],[-94.874496,26.228485],[-94.874496,26.227798],[-94.87587,26.227798],[-94.87587,26.227112],[-94.875183,26.227112],[-94.875183,26.226425],[-94.87587,26.226425],[-94.87587,26.222305],[-94.875183,26.222305],[-94.875183,26.220245],[-94.87587,26.220245],[-94.87587,26.221619],[-94.876556,26.221619],[-94.876556,26.222992],[-94.877243,26.222992],[-94.877243,26.225739],[-94.87793,26.225739],[-94.87793,26.226425],[-94.878616,26.226425],[-94.878616,26.227798],[-94.87793,26.227798],[-94.87793,26.228485],[-94.877243,26.228485],[-94.877243,26.229172],[-94.87587,26.229172],[-94.87587,26.229858],[-94.87381,26.229858],[-94.87381,26.231232],[-94.873123,26.231232],[-94.873123,26.231918],[-94.87175,26.231918],[-94.87175,26.232605],[-94.871063,26.232605],[-94.871063,26.233292],[-94.870377,26.233292],[-94.870377,26.233978],[-94.86969,26.233978],[-94.86969,26.235352]]],[[[-94.877243,26.219559],[-94.876556,26.219559],[-94.876556,26.218872],[-94.877243,26.218872],[-94.877243,26.219559]]],[[[-94.87793,26.217499],[-94.876556,26.217499],[-94.876556,26.214066],[-94.877243,26.214066],[-94.877243,26.214752],[-94.878616,26.214752],[-94.878616,26.215439],[-94.879303,26.215439],[-94.879303,26.216812],[-94.87793,26.216812],[-94.87793,26.217499]]],[[[-94.87999,26.212006],[-94.877243,26.212006],[-94.877243,26.210632],[-94.87793,26.210632],[-94.87793,26.209259],[-94.881363,26.209259],[-94.881363,26.208572],[-94.88205,26.208572],[-94.88205,26.207886],[-94.882736,26.207886],[-94.882736,26.207199],[-94.884109,26.207199],[-94.884109,26.205139],[-94.884796,26.205139],[-94.884796,26.204453],[-94.886169,26.204453],[-94.886169,26.203766],[-94.886856,26.203766],[-94.886856,26.202393],[-94.887543,26.202393],[-94.887543,26.201706],[-94.888229,26.201706],[-94.888229,26.200333],[-94.888916,26.200333],[-94.888916,26.199646],[-94.890289,26.199646],[-94.890289,26.200333],[-94.890976,26.200333],[-94.890976,26.201019],[-94.889603,26.201019],[-94.889603,26.201706],[-94.888916,26.201706],[-94.888916,26.202393],[-94.888229,26.202393],[-94.888229,26.205139],[-94.887543,26.205139],[-94.887543,26.205826],[-94.886856,26.205826],[-94.886856,26.207886],[-94.886169,26.207886],[-94.886169,26.208572],[-94.883423,26.208572],[-94.883423,26.209259],[-94.88205,26.209259],[-94.88205,26.209946],[-94.881363,26.209946],[-94.881363,26.210632],[-94.87999,26.210632],[-94.87999,26.212006]]],[[[-94.895782,26.201019],[-94.895096,26.201019],[-94.895096,26.199646],[-94.895782,26.199646],[-94.895782,26.201019]]]]},"properties":{"area_km2":34.029,"perimeter_km":166.77,"length_km":29.51,"mean_width_km":1.153,"elongation":25.6,"compactness":0.0154,"components":1,"orientation_deg":14.4,"centroid":[-94.87275,26.21795],"taper":"undetermined","end_width_ratio":0.92,"edge_truncated":false,"wind_speed_ms":4.8,"wind_reliability":1.0,"age_prior_h":{"min":2,"max":48,"label":"weak prior","spreading_min_h":1.2},"shape_indicator":"elongated, few parts: consistent with a moving vessel","cerulean_slick_id":3026464,"cerulean_machine_confidence":0.996,"cerulean_class":5,"s1_scene_id":"S1A_IW_GRDH_1SDV_20240816T002602_20240816T002627_055231_06BB84_0EDE","source":"SkyTruth Cerulean slick polygon"}}]}