{"type":"FeatureCollection","features":[{"type":"Feature","geometry":{"type":"Point","coordinates":[-95.2,29.733333]},"properties":{"World Port Index Number":9210.0,"Main Port Name":"Norsworthy","UN/LOCODE":" ","Country Code":"United States","Harbor Size":"Very Small","Harbor Type":"River (Natural)"}},{"type":"Feature","geometry":{"type":"Point","coordinates":[-95.233333,29.716667]},"properties":{"World Port Index Number":9230.0,"Main Port Name":"Sinco","UN/LOCODE":" ","Country Code":"United States","Harbor Size":"Very Small","Harbor Type":"River (Natural)"}},{"type":"Feature","geometry":{"type":"Point","coordinates":[-95.28333300000001,29.75]},"properties":{"World Port Index Number":9240.0,"Main Port Name":"Houston","UN/LOCODE":"US HOU","Country Code":"United States","Harbor Size":"Large","Harbor Type":"River (Tide Gates)"}},{"type":"Feature","geometry":{"type":"Point","coordinates":[-97.4,25.95]},"properties":{"World Port Index Number":9340.0,"Main Port Name":"Brownsville","UN/LOCODE":"US BRO","Country Code":"United States","Harbor Size":"Small","Harbor Type":"Canal or Lake"}},{"type":"Feature","geometry":{"type":"Point","coordinates":[-94.78333300000001,29.316667]},"properties":{"World Port Index Number":9150.0,"Main Port Name":"Galveston","UN/LOCODE":"US GLS","Country Code":"United States","Harbor Size":"Large","Harbor Type":"Coastal (Natural)"}},{"type":"Feature","geometry":{"type":"Point","coordinates":[-94.083333,30.083333]},"properties":{"World Port Index Number":9140.0,"Main Port Name":"Beaumont","UN/LOCODE":"US BPT","Country Code":"United States","Harbor Size":"Medium","Harbor Type":"River (Natural)"}},{"type":"Feature","geometry":{"type":"Point","coordinates":[-91.183333,30.45]},"properties":{"World Port Index Number":8970.0,"Main Port Name":"Baton Rouge","UN/LOCODE":"US BTR","Country Code":"United States","Harbor Size":"Small","Harbor Type":"River (Natural)"}},{"type":"Feature","geometry":{"type":"Point","coordinates":[-84.666667,29.85]},"properties":{"World Port Index Number":8720.0,"Main Port Name":"Carrabelle","UN/LOCODE":"US CRB","Country Code":"United States","Harbor Size":"Very Small","Harbor Type":"River (Natural)"}},{"type":"Feature","geometry":{"type":"Point","coordinates":[-81.816667,24.55]},"properties":{"World Port Index Number":8660.0,"Main Port Name":"Key West","UN/LOCODE":"US EYW","Country Code":"United States","Harbor Size":"Small","Harbor Type":"Coastal (Natural)"}},{"type":"Feature","geometry":{"type":"Point","coordinates":[-80.316667,27.466667]},"properties":{"World Port Index Number":8600.0,"Main Port Name":"Fort Pierce","UN/LOCODE":"US FPR","Country Code":"United States","Harbor Size":"Very Small","Harbor Type":"Coastal (Natural)"}},{"type":"Feature","geometry":{"type":"Point","coordinates":[-81.433333,30.4]},"properties":{"World Port Index Number":8570.0,"Main Port Name":"Mayport","UN/LOCODE":"US NRB","Country Code":"United States","Harbor Size":"Very Small","Harbor Type":"River (Natural)"}},{"type":"Feature","geometry":{"type":"Point","coordinates":[-95.333333,29.75]},"properties":{"World Port Index Number":9235.0,"Main Port Name":"Deer Park","UN/LOCODE":"US DEX","Country Code":"United States","Harbor Size":"Very Small","Harbor Type":"River (Natural)"}},{"type":"Feature","geometry":{"type":"Point","coordinates":[-90.05,29.95]},"properties":{"World Port Index Number":8860.0,"Main Port Name":"New Orleans","UN/LOCODE":"US MSY","Country Code":"United States","Harbor Size":"Large","Harbor Type":"River (Natural)"}},{"type":"Feature","geometry":{"type":"Point","coordinates":[-90.15,30.4]},"properties":{"World Port Index Number":8820.0,"Main Port Name":"Madisonville","UN/LOCODE":"US INV","Country Code":"United States","Harbor Size":"Very Small","Harbor Type":"River (Natural)"}},{"type":"Feature","geometry":{"type":"Point","coordinates":[-88.116667,30.683333]},"properties":{"World Port Index Number":8770.0,"Main Port Name":"Mobile","UN/LOCODE":"US MOB","Country Code":"United States","Harbor Size":"Large","Harbor Type":"River (Natural)"}},{"type":"Feature","geometry":{"type":"Point","coordinates":[-80.183333,25.783333]},"properties":{"World Port Index Number":8640.0,"Main Port Name":"Miami","UN/LOCODE":"US MIA","Country Code":"United States","Harbor Size":"Small","Harbor Type":"Coastal (Natural)"}},{"type":"Feature","geometry":{"type":"Point","coordinates":[-90.366667,29.95]},"properties":{"World Port Index Number":8940.0,"Main Port Name":"Destrehan","UN/LOCODE":"US NEW","Country Code":"United States","Harbor Size":"Very Small","Harbor Type":"River (Natural)"}},{"type":"Feature","geometry":{"type":"Point","coordinates":[-97.2,26.083333]},"properties":{"World Port Index Number":9330.0,"Main Port Name":"Port Isabel","UN/LOCODE":"US PIS","Country Code":"United States","Harbor Size":"Very Small","Harbor Type":"Coastal (Natural)"}},{"type":"Feature","geometry":{"type":"Point","coordinates":[-82.766667,28.15]},"properties":{"World Port Index Number":8700.0,"Main Port Name":"Tarpon Springs","UN/LOCODE":"US ZKL","Country Code":"United States","Harbor Size":"Very Small","Harbor Type":"Coastal (Natural)"}},{"type":"Feature","geometry":{"type":"Point","coordinates":[-94.916667,29.383333]},"properties":{"World Port Index Number":9160.0,"Main Port Name":"Texas City","UN/LOCODE":"US TXT","Country Code":"United States","Harbor Size":"Small","Harbor Type":"Coastal (Natural)"}},{"type":"Feature","geometry":{"type":"Point","coordinates":[-87.216667,30.4]},"properties":{"World Port Index Number":8760.0,"Main Port Name":"Pensacola","UN/LOCODE":"US PNS","Country Code":"United States","Harbor Size":"Small","Harbor Type":"Coastal (Natural)"}},{"type":"Feature","geometry":{"type":"Point","coordinates":[-93.95,30.0]},"properties":{"World Port Index Number":9100.0,"Main Port Name":"Port Neches","UN/LOCODE":"US PON","Country Code":"United States","Harbor Size":"Small","Harbor Type":"River (Natural)"}},{"type":"Feature","geometry":{"type":"Point","coordinates":[-97.05,28.016667]},"properties":{"World Port Index Number":9290.0,"Main Port Name":"Rockport","UN/LOCODE":"US RKP","Country Code":"United States","Harbor Size":"Very Small","Harbor Type":"Coastal (Natural)"}},{"type":"Feature","geometry":{"type":"Point","coordinates":[-88.566667,30.35]},"properties":{"World Port Index Number":8780.0,"Main Port Name":"Pascagoula","UN/LOCODE":"US PGL","Country Code":"United States","Harbor Size":"Small","Harbor Type":"River (Natural)"}},{"type":"Feature","geometry":{"type":"Point","coordinates":[-85.65,30.133333]},"properties":{"World Port Index Number":8750.0,"Main Port Name":"Panama City","UN/LOCODE":"US PFN","Country Code":"United States","Harbor Size":"Small","Harbor Type":"Coastal (Natural)"}},{"type":"Feature","geometry":{"type":"Point","coordinates":[-97.4,27.816667]},"properties":{"World Port Index Number":9300.0,"Main Port Name":"Corpus Christi","UN/LOCODE":"US CRP","Country Code":"United States","Harbor Size":"Medium","Harbor Type":"Coastal (Natural)"}},{"type":"Feature","geometry":{"type":"Point","coordinates":[-93.733333,30.083333]},"properties":{"World Port Index Number":9070.0,"Main Port Name":"Orange","UN/LOCODE":"US ORG","Country Code":"United States","Harbor Size":"Very Small","Harbor Type":"River (Natural)"}},{"type":"Feature","geometry":{"type":"Point","coordinates":[-93.25,30.216667]},"properties":{"World Port Index Number":9040.0,"Main Port Name":"Lake Charles","UN/LOCODE":"US LCH","Country Code":"United States","Harbor Size":"Small","Harbor Type":"River (Natural)"}},{"type":"Feature","geometry":{"type":"Point","coordinates":[-91.216667,29.7]},"properties":{"World Port Index Number":9000.0,"Main Port Name":"Morgan City","UN/LOCODE":"US LMO","Country Code":"United States","Harbor Size":"Very Small","Harbor Type":"River (Natural)"}},{"type":"Feature","geometry":{"type":"Point","coordinates":[-90.016667,28.883333]},"properties":{"World Port Index Number":8980.0,"Main Port Name":"Loop Terminal","UN/LOCODE":"US LO9","Country Code":"United States","Harbor Size":"Large","Harbor Type":"Open Roadstead"}},{"type":"Feature","geometry":{"type":"Point","coordinates":[-89.083333,30.35]},"properties":{"World Port Index Number":8800.0,"Main Port Name":"Gulfport","UN/LOCODE":"US GPT","Country Code":"United States","Harbor Size":"Small","Harbor Type":"Coastal (Natural)"}},{"type":"Feature","geometry":{"type":"Point","coordinates":[-84.983333,29.716667]},"properties":{"World Port Index Number":8730.0,"Main Port Name":"Apalachicola","UN/LOCODE":"US AAF","Country Code":"United States","Harbor Size":"Very Small","Harbor Type":"River (Natural)"}},{"type":"Feature","geometry":{"type":"Point","coordinates":[-82.333333,26.7]},"properties":{"World Port Index Number":8665.0,"Main Port Name":"Boca Grande","UN/LOCODE":"US BCG","Country Code":"United States","Harbor Size":"Very Small","Harbor Type":"Coastal (Natural)"}},{"type":"Feature","geometry":{"type":"Point","coordinates":[-93.316667,30.133333]},"properties":{"World Port Index Number":9030.0,"Main Port Name":"Haymark Terminal","UN/LOCODE":" ","Country Code":"United States","Harbor Size":"Very Small","Harbor Type":"River (Natural)"}},{"type":"Feature","geometry":{"type":"Point","coordinates":[-90.0,29.233333]},"properties":{"World Port Index Number":8990.0,"Main Port Name":"Grand Isle","UN/LOCODE":"US GIJ","Country Code":"United States","Harbor Size":"Very Small","Harbor Type":"Coastal (Natural)"}},{"type":"Feature","geometry":{"type":"Point","coordinates":[-95.216667,29.716667]},"properties":{"World Port Index Number":9220.0,"Main Port Name":"Pasadena","UN/LOCODE":"US PAS","Country Code":"United States","Harbor Size":"Very Small","Harbor Type":"River (Natural)"}},{"type":"Feature","geometry":{"type":"Point","coordinates":[-82.566667,27.633333]},"properties":{"World Port Index Number":8667.0,"Main Port Name":"Port Manatee","UN/LOCODE":"US PME","Country Code":"United States","Harbor Size":"Small","Harbor Type":"Coastal (Tide Gates)"}},{"type":"Feature","geometry":{"type":"Point","coordinates":[-82.45,27.916667]},"properties":{"World Port Index Number":8670.0,"Main Port Name":"Tampa","UN/LOCODE":"US TPA","Country Code":"United States","Harbor Size":"Medium","Harbor Type":"Coastal (Natural)"}},{"type":"Feature","geometry":{"type":"Point","coordinates":[-96.4,28.45]},"properties":{"World Port Index Number":9280.0,"Main Port Name":"Port Oconnor","UN/LOCODE":" ","Country Code":"United States","Harbor Size":"Very Small","Harbor Type":"Coastal (Natural)"}},{"type":"Feature","geometry":{"type":"Point","coordinates":[-80.116667,26.1]},"properties":{"World Port Index Number":8630.0,"Main Port Name":"Port Everglades","UN/LOCODE":"US PEF","Country Code":"United States","Harbor Size":"Medium","Harbor Type":"Coastal (Natural)"}},{"type":"Feature","geometry":{"type":"Point","coordinates":[-95.333333,28.95]},"properties":{"World Port Index Number":9250.0,"Main Port Name":"Freeport","UN/LOCODE":"US FPO","Country Code":"United States","Harbor Size":"Very Small","Harbor Type":"River (Natural)"}},{"type":"Feature","geometry":{"type":"Point","coordinates":[-88.883333,30.383333]},"properties":{"World Port Index Number":8790.0,"Main Port Name":"Biloxi","UN/LOCODE":"US BIX","Country Code":"United States","Harbor Size":"Very Small","Harbor Type":"Coastal (Natural)"}},{"type":"Feature","geometry":{"type":"Point","coordinates":[-90.066667,29.916667]},"properties":{"World Port Index Number":8850.0,"Main Port Name":"Gretna","UN/LOCODE":"US GTL","Country Code":"United States","Harbor Size":"Very Small","Harbor Type":"River (Natural)"}},{"type":"Feature","geometry":{"type":"Point","coordinates":[-90.833333,30.016667]},"properties":{"World Port Index Number":8895.0,"Main Port Name":"Convent","UN/LOCODE":"US CEN","Country Code":"United States","Harbor Size":"Small","Harbor Type":"River (Natural)"}},{"type":"Feature","geometry":{"type":"Point","coordinates":[-85.316667,29.816667]},"properties":{"World Port Index Number":8740.0,"Main Port Name":"Port St Joe","UN/LOCODE":"US PSJ","Country Code":"United States","Harbor Size":"Small","Harbor Type":"Coastal (Natural)"}},{"type":"Feature","geometry":{"type":"Point","coordinates":[-90.316667,29.95]},"properties":{"World Port Index Number":8920.0,"Main Port Name":"St Rose","UN/LOCODE":"US SRE","Country Code":"United States","Harbor Size":"Very Small","Harbor Type":"River (Natural)"}},{"type":"Feature","geometry":{"type":"Point","coordinates":[-97.05,27.833333]},"properties":{"World Port Index Number":9310.0,"Main Port Name":"Port Aransas","UN/LOCODE":"US YAS","Country Code":"United States","Harbor Size":"Very Small","Harbor Type":"Coastal (Natural)"}},{"type":"Feature","geometry":{"type":"Point","coordinates":[-97.183333,27.816667]},"properties":{"World Port Index Number":9320.0,"Main Port Name":"Port Ingleside","UN/LOCODE":"US YIG","Country Code":"United States","Harbor Size":"Very Small","Harbor Type":"Coastal (Natural)"}},{"type":"Feature","geometry":{"type":"Point","coordinates":[-90.55,30.05]},"properties":{"World Port Index Number":8930.0,"Main Port Name":"Reserve","UN/LOCODE":"US RSF","Country Code":"United States","Harbor Size":"Very Small","Harbor Type":"River (Natural)"}},{"type":"Feature","geometry":{"type":"Point","coordinates":[-90.8275,29.9792]},"properties":{"World Port Index Number":8893.0,"Main Port Name":"St. James","UN/LOCODE":"US SNJ","Country Code":"United States","Harbor Size":"Small","Harbor Type":"River (Natural)"}},{"type":"Feature","geometry":{"type":"Point","coordinates":[-89.783333,30.266667]},"properties":{"World Port Index Number":8810.0,"Main Port Name":"Slidell","UN/LOCODE":"US UYN","Country Code":"United States","Harbor Size":"Very Small","Harbor Type":"Canal or Lake"}},{"type":"Feature","geometry":{"type":"Point","coordinates":[-86.966667,20.5]},"properties":{"World Port Index Number":9550.0,"Main Port Name":"San Miguel De Cozumel","UN/LOCODE":"MX CZM","Country Code":"Mexico","Harbor Size":"Very Small","Harbor Type":"Open Roadstead"}},{"type":"Feature","geometry":{"type":"Point","coordinates":[-93.216667,18.433333]},"properties":{"World Port Index Number":9425.0,"Main Port Name":"Dos Bocas Terminal","UN/LOCODE":"MX DBT","Country Code":"Mexico","Harbor Size":"Very Small","Harbor Type":"Open Roadstead"}},{"type":"Feature","geometry":{"type":"Point","coordinates":[-81.2,23.05]},"properties":{"World Port Index Number":10120.0,"Main Port Name":"Cardenas","UN/LOCODE":"CU CAR","Country Code":"Cuba","Harbor Size":"Small","Harbor Type":"Open Roadstead"}},{"type":"Feature","geometry":{"type":"Point","coordinates":[-82.8,21.916667]},"properties":{"World Port Index Number":10550.0,"Main Port Name":"Nueva Gerona","UN/LOCODE":"CU GER","Country Code":"Cuba","Harbor Size":"Very Small","Harbor Type":"Open Roadstead"}},{"type":"Feature","geometry":{"type":"Point","coordinates":[-80.0,22.95]},"properties":{"World Port Index Number":10130.0,"Main Port Name":"Isabela De Sagua","UN/LOCODE":"CU IDS","Country Code":"Cuba","Harbor Size":"Small","Harbor Type":"Open Roadstead"}},{"type":"Feature","geometry":{"type":"Point","coordinates":[-81.55,23.05]},"properties":{"World Port Index Number":10110.0,"Main Port Name":"Matanzas","UN/LOCODE":"CU QMA","Country Code":"Cuba","Harbor Size":"Small","Harbor Type":"Coastal (Natural)"}},{"type":"Feature","geometry":{"type":"Point","coordinates":[-81.383333,19.3]},"properties":{"World Port Index Number":10580.0,"Main Port Name":"Georgetown","UN/LOCODE":"KY GEC","Country Code":"Cayman Islands","Harbor Size":"Very Small","Harbor Type":"Open Roadstead"}},{"type":"Feature","geometry":{"type":"Point","coordinates":[-80.45,22.15]},"properties":{"World Port Index Number":10540.0,"Main Port Name":"Cienfuegos","UN/LOCODE":"CU CFG","Country Code":"Cuba","Harbor Size":"Large","Harbor Type":"Coastal (Natural)"}},{"type":"Feature","geometry":{"type":"Point","coordinates":[-82.616667,27.766667]},"properties":{"World Port Index Number":8680.0,"Main Port Name":"St Petersburg","UN/LOCODE":"RULED","Country Code":"United States","Harbor Size":"Small","Harbor Type":"Coastal (Natural)"}},{"type":"Feature","geometry":{"type":"Point","coordinates":[-87.133333333,20.566666667]},"properties":{"World Port Index Number":9548.0,"Main Port Name":"Punta Venado","UN/LOCODE":"MXPVN","Country Code":"Mexico","Harbor Size":" ","Harbor Type":" "}},{"type":"Feature","geometry":{"type":"Point","coordinates":[-87.683333333,18.733333333]},"properties":{"World Port Index Number":9570.0,"Main Port Name":"Puerto Costa Maya","UN/LOCODE":"MXCOM","Country Code":"Mexico","Harbor Size":" ","Harbor Type":" "}},{"type":"Feature","geometry":{"type":"Point","coordinates":[-92.65,18.533333]},"properties":{"World Port Index Number":9440.0,"Main Port Name":"Frontera","UN/LOCODE":"MX FRN","Country Code":"Mexico","Harbor Size":"Very Small","Harbor Type":"River (Natural)"}},{"type":"Feature","geometry":{"type":"Point","coordinates":[-91.983333,20.166667]},"properties":{"World Port Index Number":9395.0,"Main Port Name":"Cayo Arcas Terminal","UN/LOCODE":"MX CAT","Country Code":"Mexico","Harbor Size":"Very Small","Harbor Type":"Open Roadstead"}},{"type":"Feature","geometry":{"type":"Point","coordinates":[-91.866667,18.633333]},"properties":{"World Port Index Number":9490.0,"Main Port Name":"Ciudad Del Carmen","UN/LOCODE":"MX CME","Country Code":"Mexico","Harbor Size":"Very Small","Harbor Type":"Coastal (Breakwater)"}},{"type":"Feature","geometry":{"type":"Point","coordinates":[-96.133333,19.2]},"properties":{"World Port Index Number":9380.0,"Main Port Name":"Veracruz","UN/LOCODE":"MX VER","Country Code":"Mexico","Harbor Size":"Medium","Harbor Type":"Coastal (Breakwater)"}},{"type":"Feature","geometry":{"type":"Point","coordinates":[-94.416667,18.066667]},"properties":{"World Port Index Number":9410.0,"Main Port Name":"Nanchital","UN/LOCODE":"MX NAN","Country Code":"Mexico","Harbor Size":"Very Small","Harbor Type":"River (Natural)"}},{"type":"Feature","geometry":{"type":"Point","coordinates":[-94.416667,18.15]},"properties":{"World Port Index Number":9405.0,"Main Port Name":"Coatzacoalcos","UN/LOCODE":"MX COA","Country Code":"Mexico","Harbor Size":"Small","Harbor Type":"River (Natural)"}},{"type":"Feature","geometry":{"type":"Point","coordinates":[-95.016667,29.733333]},"properties":{"World Port Index Number":9170.0,"Main Port Name":"Baytown","UN/LOCODE":"US HPY","Country Code":"United States","Harbor Size":"Very Small","Harbor Type":"Coastal (Natural)"}},{"type":"Feature","geometry":{"type":"Point","coordinates":[-81.65,30.316667]},"properties":{"World Port Index Number":8580.0,"Main Port Name":"Jacksonville","UN/LOCODE":"US JAX","Country Code":"United States","Harbor Size":"Medium","Harbor Type":"River (Natural)"}},{"type":"Feature","geometry":{"type":"Point","coordinates":[-81.466667,30.683333]},"properties":{"World Port Index Number":8560.0,"Main Port Name":"Fernandina Beach","UN/LOCODE":"US FEB","Country Code":"United States","Harbor Size":"Small","Harbor Type":"River (Natural)"}},{"type":"Feature","geometry":{"type":"Point","coordinates":[-93.966667,29.833333]},"properties":{"World Port Index Number":9080.0,"Main Port Name":"Port Arthur","UN/LOCODE":"US POA","Country Code":"United States","Harbor Size":"Medium","Harbor Type":"Canal or Lake"}},{"type":"Feature","geometry":{"type":"Point","coordinates":[-93.9,29.733333]},"properties":{"World Port Index Number":9060.0,"Main Port Name":"Sabine Pass","UN/LOCODE":"US NSS","Country Code":"United States","Harbor Size":"Very Small","Harbor Type":"Coastal (Natural)"}},{"type":"Feature","geometry":{"type":"Point","coordinates":[-80.05,26.766667]},"properties":{"World Port Index Number":8610.0,"Main Port Name":"Palm Beach","UN/LOCODE":"US PAB","Country Code":"United States","Harbor Size":"Very Small","Harbor Type":"Coastal (Natural)"}},{"type":"Feature","geometry":{"type":"Point","coordinates":[-81.316667,29.9]},"properties":{"World Port Index Number":8590.0,"Main Port Name":"St Augustine","UN/LOCODE":"US UST","Country Code":"United States","Harbor Size":"Very Small","Harbor Type":"Coastal (Natural)"}},{"type":"Feature","geometry":{"type":"Point","coordinates":[-93.866667,29.716667]},"properties":{"World Port Index Number":9050.0,"Main Port Name":"Sabine","UN/LOCODE":"US SAB","Country Code":"United States","Harbor Size":"Very Small","Harbor Type":"Coastal (Natural)"}},{"type":"Feature","geometry":{"type":"Point","coordinates":[-89.683333,29.483333]},"properties":{"World Port Index Number":8830.0,"Main Port Name":"Port Sulphur","UN/LOCODE":"US SUL","Country Code":"United States","Harbor Size":"Very Small","Harbor Type":"River (Natural)"}},{"type":"Feature","geometry":{"type":"Point","coordinates":[-80.616667,28.7]},"properties":{"World Port Index Number":8595.0,"Main Port Name":"Canaveral Harbor","UN/LOCODE":"US PCV","Country Code":"United States","Harbor Size":"Very Small","Harbor Type":"Coastal (Natural)"}},{"type":"Feature","geometry":{"type":"Point","coordinates":[-96.616667,28.616667]},"properties":{"World Port Index Number":9270.0,"Main Port Name":"Port Lavaca","UN/LOCODE":"US PLV","Country Code":"United States","Harbor Size":"Very Small","Harbor Type":"Coastal (Natural)"}},{"type":"Feature","geometry":{"type":"Point","coordinates":[-96.216667,28.683333]},"properties":{"World Port Index Number":9260.0,"Main Port Name":"Palacios","UN/LOCODE":"US PSX","Country Code":"United States","Harbor Size":"Very Small","Harbor Type":"Coastal (Natural)"}},{"type":"Feature","geometry":{"type":"Point","coordinates":[-90.7,28.45]},"properties":{"World Port Index Number":8822.0,"Main Port Name":"Southwest Pass","UN/LOCODE":"US SW8","Country Code":"United States","Harbor Size":"Small","Harbor Type":"River (Natural)"}},{"type":"Feature","geometry":{"type":"Point","coordinates":[-86.883333333,20.85]},"properties":{"World Port Index Number":9540.0,"Main Port Name":"Puerto Morelos","UN/LOCODE":"MXPMS","Country Code":"Mexico","Harbor Size":" ","Harbor Type":" "}},{"type":"Feature","geometry":{"type":"Point","coordinates":[-90.55,19.85]},"properties":{"World Port Index Number":9500.0,"Main Port Name":"Campeche","UN/LOCODE":"MX CPE","Country Code":"Mexico","Harbor Size":"Small","Harbor Type":"Open Roadstead"}},{"type":"Feature","geometry":{"type":"Point","coordinates":[-97.85,22.483333]},"properties":{"World Port Index Number":9355.0,"Main Port Name":"Altamira","UN/LOCODE":"MXATM","Country Code":"Mexico","Harbor Size":"Very Small","Harbor Type":"River (Basins)"}},{"type":"Feature","geometry":{"type":"Point","coordinates":[-97.4,20.95]},"properties":{"World Port Index Number":9370.0,"Main Port Name":"Tuxpan","UN/LOCODE":"MXTUX","Country Code":"Mexico","Harbor Size":"Medium","Harbor Type":"River (Natural)"}},{"type":"Feature","geometry":{"type":"Point","coordinates":[-97.866667,22.216667]},"properties":{"World Port Index Number":9360.0,"Main Port Name":"Tampico","UN/LOCODE":"MXTAM","Country Code":"Mexico","Harbor Size":"Medium","Harbor Type":"River (Natural)"}},{"type":"Feature","geometry":{"type":"Point","coordinates":[-82.366667,23.133333]},"properties":{"World Port Index Number":10100.0,"Main Port Name":"Bahai De La Habana","UN/LOCODE":"CU HAV","Country Code":"Cuba","Harbor Size":"Large","Harbor Type":"Coastal (Breakwater)"}},{"type":"Feature","geometry":{"type":"Point","coordinates":[-82.75,22.983333]},"properties":{"World Port Index Number":10090.0,"Main Port Name":"Mariel","UN/LOCODE":"CU MAR","Country Code":"Cuba","Harbor Size":"Small","Harbor Type":"Coastal (Breakwater)"}},{"type":"Feature","geometry":{"type":"Point","coordinates":[-82.966667,23.0]},"properties":{"World Port Index Number":10080.0,"Main Port Name":"Cabanas","UN/LOCODE":"CU CAB","Country Code":"Cuba","Harbor Size":"Medium","Harbor Type":"Coastal (Natural)"}},{"type":"Feature","geometry":{"type":"Point","coordinates":[-83.966666667,22.666666667]},"properties":{"World Port Index Number":10050.0,"Main Port Name":"Santa Lucia","UN/LOCODE":"CU SLU","Country Code":"Cuba","Harbor Size":" ","Harbor Type":" "}},{"type":"Feature","geometry":{"type":"Point","coordinates":[-83.166666667,22.966666667]},"properties":{"World Port Index Number":10070.0,"Main Port Name":"Bahia Honda","UN/LOCODE":"CU BHO","Country Code":"Cuba","Harbor Size":" ","Harbor Type":" "}},{"type":"Feature","geometry":{"type":"Point","coordinates":[-89.666667,21.283333]},"properties":{"World Port Index Number":9511.0,"Main Port Name":"Progreso","UN/LOCODE":"MX PGO","Country Code":"Mexico","Harbor Size":"Very Small","Harbor Type":"Open Roadstead"}},{"type":"Feature","geometry":{"type":"Point","coordinates":[-89.683333333,21.35]},"properties":{"World Port Index Number":9510.0,"Main Port Name":"Puerto Progreso","UN/LOCODE":"MXPGO","Country Code":"Mexico","Harbor Size":" ","Harbor Type":" "}},{"type":"Feature","geometry":{"type":"Point","coordinates":[70.045555556,22.573055556]},"properties":{"World Port Index Number":48650.0,"Main Port Name":"Bedi","UN/LOCODE":"IN BED","Country Code":"India","Harbor Size":"Very Small","Harbor Type":"River (Natural)"}},{"type":"Feature","geometry":{"type":"Point","coordinates":[69.706666667,22.728333333]},"properties":{"World Port Index Number":48617.0,"Main Port Name":"Mundra","UN/LOCODE":"IN MUN","Country Code":"India","Harbor Size":"Small","Harbor Type":"Open Roadstead"}},{"type":"Feature","geometry":{"type":"Point","coordinates":[69.079722222,22.468055556]},"properties":{"World Port Index Number":48670.0,"Main Port Name":"Okha","UN/LOCODE":"IN OKH","Country Code":"India","Harbor Size":"Very Small","Harbor Type":"Coastal (Natural)"}},{"type":"Feature","geometry":{"type":"Point","coordinates":[69.666666667,22.466666667]},"properties":{"World Port Index Number":48615.0,"Main Port Name":"Vadinar Terminal","UN/LOCODE":"IN VAD","Country Code":"India","Harbor Size":"Very Small","Harbor Type":"Open Roadstead"}},{"type":"Feature","geometry":{"type":"Point","coordinates":[69.833333,22.433333]},"properties":{"World Port Index Number":48613.0,"Main Port Name":"Sikka","UN/LOCODE":"IN SKK","Country Code":"India","Harbor Size":"Very Small","Harbor Type":"Open Roadstead"}},{"type":"Feature","geometry":{"type":"Point","coordinates":[69.6,21.633333]},"properties":{"World Port Index Number":48680.0,"Main Port Name":"Porbandar","UN/LOCODE":"IN PBD","Country Code":"India","Harbor Size":"Very Small","Harbor Type":"Coastal (Breakwater)"}},{"type":"Feature","geometry":{"type":"Point","coordinates":[74.816667,12.916667]},"properties":{"World Port Index Number":49030.0,"Main Port Name":"New Mangalore","UN/LOCODE":"IN NML","Country Code":"India","Harbor Size":"Medium","Harbor Type":"Coastal (Breakwater)"}},{"type":"Feature","geometry":{"type":"Point","coordinates":[76.233333,9.966667]},"properties":{"World Port Index Number":49130.0,"Main Port Name":"Kochi (Cochin)","UN/LOCODE":"IN KOC","Country Code":"India","Harbor Size":"Medium","Harbor Type":"Coastal (Natural)"}},{"type":"Feature","geometry":{"type":"Point","coordinates":[78.166667,8.8]},"properties":{"World Port Index Number":49320.0,"Main Port Name":"Tuticorin","UN/LOCODE":"IN TUT","Country Code":"India","Harbor Size":"Small","Harbor Type":"Coastal (Breakwater)"}},{"type":"Feature","geometry":{"type":"Point","coordinates":[74.45,14.283333333]},"properties":{"World Port Index Number":49010.0,"Main Port Name":"Honavar","UN/LOCODE":" ","Country Code":"India","Harbor Size":"Very Small","Harbor Type":" "}},{"type":"Feature","geometry":{"type":"Point","coordinates":[81.683333333,7.766666667]},"properties":{"World Port Index Number":49287.0,"Main Port Name":"Batticaloa Roads","UN/LOCODE":" ","Country Code":"Sri Lanka","Harbor Size":" ","Harbor Type":"Open Roadstead"}},{"type":"Feature","geometry":{"type":"Point","coordinates":[73.166666667,17.583333333]},"properties":{"World Port Index Number":48890.0,"Main Port Name":"Port Dabhol","UN/LOCODE":"INDHP","Country Code":"India","Harbor Size":"Very Small","Harbor Type":"River (Basins)"}},{"type":"Feature","geometry":{"type":"Point","coordinates":[73.216666667,17.3]},"properties":{"World Port Index Number":48895.0,"Main Port Name":"Jaigarh Bay","UN/LOCODE":"INJGD","Country Code":"India","Harbor Size":" ","Harbor Type":" "}},{"type":"Feature","geometry":{"type":"Point","coordinates":[71.383333333,20.866666667]},"properties":{"World Port Index Number":48720.0,"Main Port Name":"Jafarabad","UN/LOCODE":"INJBD","Country Code":"India","Harbor Size":" ","Harbor Type":"Open Roadstead"}},{"type":"Feature","geometry":{"type":"Point","coordinates":[86.966666667,20.816666667]},"properties":{"World Port Index Number":49540.0,"Main Port Name":"Dhamra","UN/LOCODE":"INDMQ","Country Code":"India","Harbor Size":" ","Harbor Type":" "}},{"type":"Feature","geometry":{"type":"Point","coordinates":[83.25,17.633333333]},"properties":{"World Port Index Number":49479.0,"Main Port Name":"Gangavaram","UN/LOCODE":"INGGV","Country Code":"India","Harbor Size":" ","Harbor Type":" "}},{"type":"Feature","geometry":{"type":"Point","coordinates":[82.316667,17.0]},"properties":{"World Port Index Number":49470.0,"Main Port Name":"Kakinada Bay","UN/LOCODE":"IN KAK","Country Code":"India","Harbor Size":"Very Small","Harbor Type":"Coastal (Breakwater)"}},{"type":"Feature","geometry":{"type":"Point","coordinates":[79.866667,10.833333]},"properties":{"World Port Index Number":49370.0,"Main Port Name":"Karaikal Port","UN/LOCODE":"IN KRK","Country Code":"India","Harbor Size":"Small","Harbor Type":"Coastal (Breakwater)"}},{"type":"Feature","geometry":{"type":"Point","coordinates":[79.766667,11.716667]},"properties":{"World Port Index Number":49410.0,"Main Port Name":"Cuddalore","UN/LOCODE":"IN CDL","Country Code":"India","Harbor Size":"Very Small","Harbor Type":"Open Roadstead"}},{"type":"Feature","geometry":{"type":"Point","coordinates":[72.75,21.15]},"properties":{"World Port Index Number":48770.0,"Main Port Name":"Magdalla","UN/LOCODE":"IN MDA","Country Code":"India","Harbor Size":"Very Small","Harbor Type":"River (Natural)"}},{"type":"Feature","geometry":{"type":"Point","coordinates":[81.216667,8.55]},"properties":{"World Port Index Number":49290.0,"Main Port Name":"Trincomalee Harbor","UN/LOCODE":"LK TRR","Country Code":"Sri Lanka","Harbor Size":"Medium","Harbor Type":"Coastal (Natural)"}},{"type":"Feature","geometry":{"type":"Point","coordinates":[88.333333,22.55]},"properties":{"World Port Index Number":49560.0,"Main Port Name":"Calcutta","UN/LOCODE":"IN CCU","Country Code":"India","Harbor Size":"Large","Harbor Type":"River (Natural)"}},{"type":"Feature","geometry":{"type":"Point","coordinates":[72.95,18.95]},"properties":{"World Port Index Number":48845.0,"Main Port Name":"Jawaharlal Nehru Port (Nhava Shiva)","UN/LOCODE":"IN NSA","Country Code":"India","Harbor Size":"Medium","Harbor Type":"Open Roadstead"}},{"type":"Feature","geometry":{"type":"Point","coordinates":[74.116667,14.816667]},"properties":{"World Port Index Number":48990.0,"Main Port Name":"Karwar","UN/LOCODE":"IN KRW","Country Code":"India","Harbor Size":"Very Small","Harbor Type":"Coastal (Breakwater)"}},{"type":"Feature","geometry":{"type":"Point","coordinates":[88.083333,22.016667]},"properties":{"World Port Index Number":49555.0,"Main Port Name":"Haldia Port","UN/LOCODE":"IN HAL","Country Code":"India","Harbor Size":"Very Small","Harbor Type":"River (Natural)"}},{"type":"Feature","geometry":{"type":"Point","coordinates":[71.516667,20.916667]},"properties":{"World Port Index Number":48730.0,"Main Port Name":"Pipavav Bandar","UN/LOCODE":"IN PAV","Country Code":"India","Harbor Size":"Small","Harbor Type":"Coastal (Natural)"}},{"type":"Feature","geometry":{"type":"Point","coordinates":[79.833333,11.933333]},"properties":{"World Port Index Number":49430.0,"Main Port Name":"Pondicherry","UN/LOCODE":"IN PNY","Country Code":"India","Harbor Size":"Very Small","Harbor Type":"Open Roadstead"}},{"type":"Feature","geometry":{"type":"Point","coordinates":[72.233333,21.766667]},"properties":{"World Port Index Number":48760.0,"Main Port Name":"Bhavnagar","UN/LOCODE":"IN BHU","Country Code":"India","Harbor Size":"Small","Harbor Type":"River (Tide Gates)"}},{"type":"Feature","geometry":{"type":"Point","coordinates":[86.683333,20.266667]},"properties":{"World Port Index Number":49535.0,"Main Port Name":"Paradip","UN/LOCODE":"IN PPT","Country Code":"India","Harbor Size":"Small","Harbor Type":"Coastal (Breakwater)"}},{"type":"Feature","geometry":{"type":"Point","coordinates":[80.3425,13.261388889]},"properties":{"World Port Index Number":49454.0,"Main Port Name":"Kamarajar Port","UN/LOCODE":"INENR","Country Code":"India","Harbor Size":"Small","Harbor Type":"Coastal (Breakwater)"}},{"type":"Feature","geometry":{"type":"Point","coordinates":[80.228333333,6.033055556]},"properties":{"World Port Index Number":49250.0,"Main Port Name":"Galle Harbor","UN/LOCODE":"LK GAL","Country Code":"Sri Lanka","Harbor Size":"Small","Harbor Type":"Coastal (Breakwater)"}},{"type":"Feature","geometry":{"type":"Point","coordinates":[84.966666667,19.301944444]},"properties":{"World Port Index Number":49500.0,"Main Port Name":"Gopalpur","UN/LOCODE":"IN GPR","Country Code":"India","Harbor Size":"Small","Harbor Type":"Coastal (Breakwater)"}},{"type":"Feature","geometry":{"type":"Point","coordinates":[72.866667,18.966667]},"properties":{"World Port Index Number":48840.0,"Main Port Name":"Mumbai (Bombay)","UN/LOCODE":"IN BOM","Country Code":"India","Harbor Size":"Large","Harbor Type":"Coastal (Tide Gates)"}},{"type":"Feature","geometry":{"type":"Point","coordinates":[75.8,11.166667]},"properties":{"World Port Index Number":49110.0,"Main Port Name":"Beypore","UN/LOCODE":"IN BEY","Country Code":"India","Harbor Size":"Very Small","Harbor Type":"Open Roadstead"}},{"type":"Feature","geometry":{"type":"Point","coordinates":[73.283333,16.983333]},"properties":{"World Port Index Number":48900.0,"Main Port Name":"Ratnagiri","UN/LOCODE":"IN RTC","Country Code":"India","Harbor Size":"Very Small","Harbor Type":"Coastal (Natural)"}},{"type":"Feature","geometry":{"type":"Point","coordinates":[74.266667,14.7]},"properties":{"World Port Index Number":49000.0,"Main Port Name":"Belekeri","UN/LOCODE":"IN BLK","Country Code":"India","Harbor Size":"Very Small","Harbor Type":"Open Roadstead"}},{"type":"Feature","geometry":{"type":"Point","coordinates":[79.85,10.766667]},"properties":{"World Port Index Number":49350.0,"Main Port Name":"Nagappattinam","UN/LOCODE":"IN NPT","Country Code":"India","Harbor Size":"Small","Harbor Type":"Open Roadstead"}},{"type":"Feature","geometry":{"type":"Point","coordinates":[72.533333,21.7]},"properties":{"World Port Index Number":48674.0,"Main Port Name":"Dahej","UN/LOCODE":"IN DAH","Country Code":"India","Harbor Size":"Very Small","Harbor Type":"Open Roadstead"}},{"type":"Feature","geometry":{"type":"Point","coordinates":[73.816667,15.5]},"properties":{"World Port Index Number":48960.0,"Main Port Name":"Panaji","UN/LOCODE":"IN PAN","Country Code":"India","Harbor Size":"Very Small","Harbor Type":"Coastal (Natural)"}},{"type":"Feature","geometry":{"type":"Point","coordinates":[80.05,9.816667]},"properties":{"World Port Index Number":49300.0,"Main Port Name":"Kankesanturai","UN/LOCODE":"LK KNK","Country Code":"Sri Lanka","Harbor Size":"Very Small","Harbor Type":"Open Roadstead"}},{"type":"Feature","geometry":{"type":"Point","coordinates":[86.95,21.483333333]},"properties":{"World Port Index Number":49550.0,"Main Port Name":"Baleshwar","UN/LOCODE":" ","Country Code":"India","Harbor Size":"Very Small","Harbor Type":"River (Natural)"}},{"type":"Feature","geometry":{"type":"Point","coordinates":[76.583888889,8.871944444]},"properties":{"World Port Index Number":49160.0,"Main Port Name":"Quilon (Kollam)","UN/LOCODE":"IN QUI","Country Code":"India","Harbor Size":"Very Small","Harbor Type":"Coastal (Breakwater)"}},{"type":"Feature","geometry":{"type":"Point","coordinates":[75.309444444,11.945555556]},"properties":{"World Port Index Number":49040.0,"Main Port Name":"Azhikal (Azhikkal)","UN/LOCODE":"IN AZK","Country Code":"India","Harbor Size":"Very Small","Harbor Type":"River (Natural)"}},{"type":"Feature","geometry":{"type":"Point","coordinates":[76.95,8.483333]},"properties":{"World Port Index Number":49170.0,"Main Port Name":"Trivandrum","UN/LOCODE":"IN TRV","Country Code":"India","Harbor Size":"Very Small","Harbor Type":"Open Roadstead"}},{"type":"Feature","geometry":{"type":"Point","coordinates":[77.25,8.166667]},"properties":{"World Port Index Number":49180.0,"Main Port Name":"Kolachel","UN/LOCODE":" ","Country Code":"India","Harbor Size":"Very Small","Harbor Type":"Open Roadstead"}},{"type":"Feature","geometry":{"type":"Point","coordinates":[75.766667,11.25]},"properties":{"World Port Index Number":49100.0,"Main Port Name":"Calicut (Kozhikode)","UN/LOCODE":"IN CCJ","Country Code":"India","Harbor Size":"Very Small","Harbor Type":"Open Roadstead"}},{"type":"Feature","geometry":{"type":"Point","coordinates":[94.733333333,16.783333333]},"properties":{"World Port Index Number":49640.0,"Main Port Name":"Bassein","UN/LOCODE":"MM BSX","Country Code":"Burma","Harbor Size":"Small","Harbor Type":"River (Natural)"}},{"type":"Feature","geometry":{"type":"Point","coordinates":[62.3,25.133333]},"properties":{"World Port Index Number":48590.0,"Main Port Name":"Gwadar","UN/LOCODE":"PK GWD","Country Code":"Pakistan","Harbor Size":"Medium","Harbor Type":"Coastal (Natural)"}},{"type":"Feature","geometry":{"type":"Point","coordinates":[70.216667,23.033333]},"properties":{"World Port Index Number":48630.0,"Main Port Name":"Kandla","UN/LOCODE":"IN IXY","Country Code":"India","Harbor Size":"Small","Harbor Type":"River (Natural)"}},{"type":"Feature","geometry":{"type":"Point","coordinates":[92.9,20.133333]},"properties":{"World Port Index Number":49620.0,"Main Port Name":"Sittwe","UN/LOCODE":"MM AKY","Country Code":"Burma","Harbor Size":"Small","Harbor Type":"Open Roadstead"}},{"type":"Feature","geometry":{"type":"Point","coordinates":[70.366667,20.9]},"properties":{"World Port Index Number":48690.0,"Main Port Name":"Veraval","UN/LOCODE":"IN VVA","Country Code":"India","Harbor Size":"Very Small","Harbor Type":"Open Roadstead"}},{"type":"Feature","geometry":{"type":"Point","coordinates":[69.35,22.833333]},"properties":{"World Port Index Number":48620.0,"Main Port Name":"Mandvi","UN/LOCODE":"IN MDV","Country Code":"India","Harbor Size":"Very Small","Harbor Type":"Open Roadstead"}},{"type":"Feature","geometry":{"type":"Point","coordinates":[72.633333,21.083333]},"properties":{"World Port Index Number":48790.0,"Main Port Name":"Hazira","UN/LOCODE":"IN HZA","Country Code":"India","Harbor Size":"Small","Harbor Type":"Coastal (Breakwater)"}},{"type":"Feature","geometry":{"type":"Point","coordinates":[60.616667,25.266667]},"properties":{"World Port Index Number":48550.0,"Main Port Name":"Chah Bahar","UN/LOCODE":"IR ZBR","Country Code":"Iran","Harbor Size":"Very Small","Harbor Type":"Coastal (Natural)"}},{"type":"Feature","geometry":{"type":"Point","coordinates":[70.447583333,22.956388889]},"properties":{"World Port Index Number":48635.0,"Main Port Name":"Navlakhi","UN/LOCODE":"IN NAV","Country Code":"India","Harbor Size":"Very Small","Harbor Type":"Open Roadstead"}},{"type":"Feature","geometry":{"type":"Point","coordinates":[89.6,22.466667]},"properties":{"World Port Index Number":49580.0,"Main Port Name":"Mongla","UN/LOCODE":"BD MGL","Country Code":"Bangladesh","Harbor Size":"Small","Harbor Type":"River (Natural)"}},{"type":"Feature","geometry":{"type":"Point","coordinates":[79.216666667,9.283333333]},"properties":{"World Port Index Number":49330.0,"Main Port Name":"Pamban","UN/LOCODE":" ","Country Code":"India","Harbor Size":"Very Small","Harbor Type":"Open Roadstead"}},{"type":"Feature","geometry":{"type":"Point","coordinates":[80.133333333,14.25]},"properties":{"World Port Index Number":49457.0,"Main Port Name":"Krishnapatnam","UN/LOCODE":"INKRI","Country Code":"India","Harbor Size":" ","Harbor Type":" "}},{"type":"Feature","geometry":{"type":"Point","coordinates":[80.352222222,13.306944444]},"properties":{"World Port Index Number":49455.0,"Main Port Name":"Kattupalli Port","UN/LOCODE":"INKRI","Country Code":"India","Harbor Size":"Large","Harbor Type":" "}},{"type":"Feature","geometry":{"type":"Point","coordinates":[80.3,13.1]},"properties":{"World Port Index Number":49450.0,"Main Port Name":"Chennai (Madras)","UN/LOCODE":"IN MAA","Country Code":"India","Harbor Size":"Large","Harbor Type":"Coastal (Breakwater)"}},{"type":"Feature","geometry":{"type":"Point","coordinates":[73.795,15.4175]},"properties":{"World Port Index Number":48970.0,"Main Port Name":"Marmagao","UN/LOCODE":"IN MRM","Country Code":"India","Harbor Size":"Medium","Harbor Type":"Coastal (Breakwater)"}},{"type":"Feature","geometry":{"type":"Point","coordinates":[83.3,17.683333]},"properties":{"World Port Index Number":49480.0,"Main Port Name":"Vishakhapatnam","UN/LOCODE":"IN NRP","Country Code":"India","Harbor Size":"Medium","Harbor Type":"Coastal (Breakwater)"}},{"type":"Feature","geometry":{"type":"Point","coordinates":[92.733333333,11.677777778]},"properties":{"World Port Index Number":49720.0,"Main Port Name":"Port Blair","UN/LOCODE":"IN IXZ","Country Code":"India","Harbor Size":"Small","Harbor Type":"Coastal (Natural)"}},{"type":"Feature","geometry":{"type":"Point","coordinates":[91.816666667,22.316666667]},"properties":{"World Port Index Number":49590.0,"Main Port Name":"Chittagong","UN/LOCODE":"BD CGP","Country Code":"Bangladesh","Harbor Size":"Medium","Harbor Type":"River (Natural)"}},{"type":"Feature","geometry":{"type":"Point","coordinates":[67.35,24.766667]},"properties":{"World Port Index Number":48605.0,"Main Port Name":"Muhamamad Bin Qasim","UN/LOCODE":"PK BQM","Country Code":"Pakistan","Harbor Size":"Small","Harbor Type":"Coastal (Natural)"}},{"type":"Feature","geometry":{"type":"Point","coordinates":[66.983333,24.783333]},"properties":{"World Port Index Number":48600.0,"Main Port Name":"Karachi","UN/LOCODE":"PK KHI","Country Code":"Pakistan","Harbor Size":"Medium","Harbor Type":"Coastal (Natural)"}},{"type":"Feature","geometry":{"type":"Point","coordinates":[81.133333333,6.116666667]},"properties":{"World Port Index Number":49255.0,"Main Port Name":"Hambantota","UN/LOCODE":"LKHBA","Country Code":"Sri Lanka","Harbor Size":"Medium","Harbor Type":" "}},{"type":"Feature","geometry":{"type":"Point","coordinates":[73.5,4.166666667]},"properties":{"World Port Index Number":49200.0,"Main Port Name":"Male","UN/LOCODE":"MV MCP","Country Code":"Maldives","Harbor Size":"Very Small","Harbor Type":"Coastal (Natural)"}},{"type":"Feature","geometry":{"type":"Point","coordinates":[79.85,6.95]},"properties":{"World Port Index Number":49240.0,"Main Port Name":"Colombo","UN/LOCODE":"LK CMB","Country Code":"Sri Lanka","Harbor Size":"Medium","Harbor Type":"Coastal (Breakwater)"}},{"type":"Feature","geometry":{"type":"Point","coordinates":[81.166667,16.15]},"properties":{"World Port Index Number":49460.0,"Main Port Name":"Machilipatnam","UN/LOCODE":" ","Country Code":"India","Harbor Size":"Very Small","Harbor Type":"Open Roadstead"}}],"properties":{"source":"NGA World Port Index (Pub 150)"}}