{"type":"FeatureCollection","features":[{"type":"Feature","geometry":{"type":"Polygon","coordinates":[[[70.78026510916564,17.39494225209194],[70.79408662039502,17.413670242041267],[70.80131795578181,17.416986070137515],[70.81682558889227,17.41381029232563],[70.82771680335958,17.40663416971667],[70.8196787572251,17.368732599760133],[70.80500724719664,17.338701712675356],[70.79457042991251,17.298860487044895],[70.7736844198836,17.243714836677036],[70.76549623060093,17.234759600350312],[70.75785009027955,17.234635496962813],[70.74038260098068,17.240648641158508],[70.73481812573755,17.25366426264163],[70.78026510916564,17.39494225209194]]]},"properties":{"kind":"age","age_h":1,"in_age_prior":false}},{"type":"Feature","geometry":{"type":"Polygon","coordinates":[[[70.79253832583368,17.407239005937022],[70.80301584358695,17.42210407858625],[70.8097683029329,17.424484109805704],[70.83632396350241,17.41737856635486],[70.84329555657406,17.410319463456542],[70.83803530966114,17.37328386253089],[70.82510027316289,17.341546993309144],[70.8132683676727,17.29099210654853],[70.79320389368395,17.23683569563388],[70.78331317870851,17.233462228621907],[70.75463231916439,17.242846289425295],[70.74951162147798,17.261782851738953],[70.79253832583368,17.407239005937022]]]},"properties":{"kind":"age","age_h":2,"in_age_prior":false}},{"type":"Feature","geometry":{"type":"Polygon","coordinates":[[[70.76653477181394,17.270584588938604],[70.80396648892028,17.420614326297247],[70.81601119609455,17.430813778594604],[70.84894040343757,17.42457071094292],[70.85627944454906,17.421191991373977],[70.85895808424542,17.41520796283307],[70.85711391367191,17.387023498333747],[70.84357756431204,17.342926817956954],[70.83494782456138,17.29226922794088],[70.81580200845394,17.23825995281489],[70.80949753419509,17.232527375772616],[70.77131754181333,17.240998663915025],[70.76653477181394,17.270584588938604]]]},"properties":{"kind":"age","age_h":3,"in_age_prior":false}},{"type":"Feature","geometry":{"type":"Polygon","coordinates":[[[70.82264830527339,17.43518257948846],[70.8274813810842,17.449933904370717],[70.85439703069954,17.45462016424742],[70.89059315028153,17.437946200940715],[70.8988403632089,17.42836582438069],[70.89968374481468,17.38735617273413],[70.89471795162616,17.35373020273245],[70.89274315136012,17.300499998740467],[70.88332502998794,17.252772251029974],[70.8786437636606,17.239186268892187],[70.8709096551888,17.231056899297805],[70.82478900652946,17.233755935882666],[70.8204780674968,17.235798460163426],[70.81849339517322,17.241452543274985],[70.81405179438072,17.285077008381492],[70.80888107026352,17.30133559359174],[70.81944860331483,17.36492654497812],[70.82264830527339,17.43518257948846]]]},"properties":{"kind":"age","age_h":6,"in_age_prior":true}},{"type":"Feature","geometry":{"type":"Polygon","coordinates":[[[70.85097060287048,17.38952496988129],[70.84037844787396,17.472067482723943],[70.8689624275205,17.48123168396608],[70.88414615486472,17.48107375991426],[70.93422785334701,17.441665312234562],[70.94157068646288,17.39623783649089],[70.94158439121036,17.357747883673365],[70.94739031994547,17.313560029748896],[70.94355901910309,17.245467958207875],[70.93840852762948,17.232507674542134],[70.9285947102373,17.224755811436044],[70.88588650126728,17.2200971067027],[70.87292411117858,17.221625243482436],[70.8665302301341,17.228579196667052],[70.86498431615667,17.257588393096253],[70.85577076666468,17.312032945906676],[70.84880543193127,17.328643500220245],[70.85097060287048,17.38952496988129]]]},"properties":{"kind":"age","age_h":9,"in_age_prior":true}},{"type":"Feature","geometry":{"type":"Polygon","coordinates":[[[70.91287298799901,17.251346414432177],[70.85836073418223,17.490570014061454],[70.8605304945397,17.49431087000491],[70.88321808776864,17.50485160753386],[70.90508942810766,17.507856998480193],[70.96893225053076,17.450940448994842],[71.0037928173781,17.31416283063717],[71.00737411140159,17.258372892222837],[71.00263704178249,17.223657994524245],[70.99326823081859,17.216446677110866],[70.97340248912127,17.209541163898123],[70.93365445082759,17.205515396156486],[70.9214480336875,17.207338435868003],[70.91391335675743,17.21355180729865],[70.91287298799901,17.251346414432177]]]},"properties":{"kind":"age","age_h":12,"in_age_prior":true}},{"type":"Feature","geometry":{"type":"Polygon","coordinates":[[[70.96006359310189,17.336622818112946],[70.87641234878954,17.55608385045946],[70.8775563025367,17.560549973117606],[70.91564072559271,17.581374852632152],[70.9349576833694,17.586667831415742],[71.02884415573193,17.465115667171656],[71.05895174938676,17.40666654298054],[71.0978800323319,17.316440343292165],[71.11891655839139,17.249870153210377],[71.11764999839154,17.2348151245543],[71.10753565288532,17.201957819226752],[71.09900387951019,17.18743826883161],[71.01906276389018,17.18715851514944],[71.00280968170973,17.19997012063864],[70.96006359310189,17.336622818112946]]]},"properties":{"kind":"age","age_h":18,"in_age_prior":true}},{"type":"Feature","geometry":{"type":"Polygon","coordinates":[[[70.86614510250936,17.6374925181388],[70.87228194589424,17.650398252663653],[70.92851795447785,17.67649874024227],[70.95070566983851,17.68183447967625],[70.95970600057292,17.67690315359516],[70.9663080092389,17.637063109727876],[70.97945155230425,17.587461701900068],[71.0815792052473,17.462012260114502],[71.17037253713167,17.31096639899786],[71.2035047859209,17.23967246279301],[71.18188742622299,17.180622083863707],[71.17265067661629,17.165595958429567],[71.07611150532163,17.1657993535041],[71.06169411978814,17.180531947952307],[71.01737883755021,17.290661711055115],[70.97387318500078,17.36835513041519],[70.9596277119102,17.399724796208798],[70.92011739380038,17.529779862986352],[70.87070873160701,17.616669813957007],[70.86614510250936,17.6374925181388]]]},"properties":{"kind":"age","age_h":24,"in_age_prior":true}},{"type":"Feature","geometry":{"type":"Polygon","coordinates":[[[70.81550705803078,17.6718382008886],[70.79774945687657,17.723690108414146],[70.79921465304191,17.72857607119988],[70.81022687641983,17.73716697921528],[70.9327787391755,17.79551694614249],[70.9484630887397,17.80166034898744],[70.96407229156178,17.799911841445084],[70.98678349020017,17.676912727526346],[71.00376606598991,17.621506971881935],[71.1276557174132,17.424794507289178],[71.1913876980891,17.37125349497841],[71.24268807688696,17.30602902716564],[71.32963441539553,17.176162416642406],[71.3312159280977,17.156249961888626],[71.29467286477401,17.019310317475096],[71.1697848011048,17.029889856843866],[71.15215210840186,17.050127807187916],[71.00743006968439,17.316765501924507],[70.9253791406522,17.494702492601593],[70.81550705803078,17.6718382008886]]]},"properties":{"kind":"age","age_h":36,"in_age_prior":true}},{"type":"Feature","geometry":{"type":"Polygon","coordinates":[[[70.85041816012141,17.795263227330533],[70.86171122005963,17.806881176265406],[71.02400179784574,17.893680854799168],[71.02935931709804,17.892781625236264],[71.0517115619736,17.86936661725592],[71.06099117675566,17.856862943205176],[71.12654183064595,17.70775790820386],[71.13677448858135,17.605913669709956],[71.3022068813587,17.375155470123634],[71.373152983167,17.311878914510558],[71.4432813716648,17.230788871694664],[71.53282359492286,17.119334598868868],[71.54218558748774,17.093921199311847],[71.54051490507425,16.882405394579695],[71.3823410706576,16.890926300580617],[71.37719290559852,16.89271174570658],[71.36509771796209,16.9061452702462],[71.21414579807531,17.157679517102856],[71.16196371147328,17.221594534350796],[70.92913233438806,17.631235016403814],[70.84920679727868,17.783296486119955],[70.85041816012141,17.795263227330533]]]},"properties":{"kind":"age","age_h":48,"in_age_prior":true}},{"type":"Feature","geometry":{"type":"Polygon","coordinates":[[[70.81660570476528,17.971092983154897],[70.82479607148456,18.00342952702499],[71.05074433316,18.07937022363654],[71.05609752913335,18.077767199162814],[71.07362486032693,18.049108006669016],[71.18105555014778,17.793849022375564],[71.38899205056848,17.43322542320363],[71.41093676147639,17.419829239661308],[71.57860138441109,17.254453208633276],[71.62958796314845,17.19771633409927],[71.65837414107456,17.160137670556647],[71.66884611991057,17.141545398957877],[71.62089281027586,16.855995317941538],[71.48969067403588,16.833985558869077],[71.47771034729433,16.840393442875058],[71.46649653439057,16.854768539568454],[71.21466549180592,17.22210249441124],[70.98486049913014,17.590823496088206],[70.81660570476528,17.971092983154897]]]},"properties":{"kind":"age","age_h":60,"in_age_prior":false}},{"type":"Feature","geometry":{"type":"Polygon","coordinates":[[[70.79283695057592,18.212106490866777],[70.8068279365972,18.232818390341535],[71.16984878247953,18.249404942299602],[71.19534268386369,18.21841227895218],[71.25009196861893,17.96430821546873],[71.25670650803346,17.792511554195894],[71.51771329890225,17.445088350583422],[71.5458236450105,17.425697029469045],[71.65408045347472,17.334860798281717],[71.77138800376889,17.22266391833554],[71.81952690540174,17.1699333639697],[71.8387892089077,17.144537825852208],[71.83789547704119,17.13105431601081],[71.7394957905411,16.829871710640333],[71.63172745010021,16.762731099413926],[71.6169138598077,16.769129028269674],[71.32354499528783,17.18031263096186],[71.07376328316843,17.56816333223226],[71.0270991955217,17.64993866083687],[71.0101470365722,17.693356348084563],[70.94826006410065,17.904969137775304],[70.79283695057592,18.212106490866777]]]},"properties":{"kind":"age","age_h":72,"in_age_prior":false}},{"type":"Feature","geometry":{"type":"Polygon","coordinates":[[[70.81388335154917,17.432403908247444],[70.82444351782031,17.44259707465452],[70.83425702452806,17.45854524845429],[70.83506872862613,17.465893731962336],[70.85452826905379,17.48162195553046],[70.85920123490182,17.493081346200608],[70.86553795818506,17.497388232789504],[70.87321665965982,17.51255028878427],[70.87180602166589,17.52067595337983],[70.87642250433488,17.525597565873422],[70.87584772566707,17.54477600465567],[70.87938025877126,17.549072018172698],[70.87623457649266,17.55781907078287],[70.88010843815809,17.562337727472514],[70.81484718125542,17.667805808968165],[70.79636986964363,17.715846186747534],[70.7960365416254,17.72358283584244],[70.80957577159518,17.736786574556774],[70.84528036860694,17.7558341953887],[70.85052494635508,17.795716484734875],[70.86115382402879,17.806528885691865],[71.00980539730573,17.886636928124826],[71.02818743747918,17.893496066831258],[71.06075383609557,17.857329129362565],[71.12654183064595,17.70775790820386],[71.13677448858135,17.605913669709956],[71.3022068813587,17.375155470123634],[71.373152983167,17.311878914510558],[71.4432813716648,17.230788871694664],[71.53282359492286,17.119334598868868],[71.54218558748774,17.093921199311847],[71.54114358391362,16.883029176281664],[71.3823410706576,16.890926300580617],[71.34976604321922,16.899586309052573],[71.3437634466098,16.905594141811413],[71.33235400882249,16.906857272714582],[71.32574095786714,16.914895802667687],[71.31414971354333,16.91651573699075],[71.30625733256359,16.926559644129853],[71.2962635098642,16.92807998641123],[71.28822089783485,16.938680648606166],[71.27786931176499,16.940281763745332],[71.26987843328993,16.951274595884094],[71.25835737478086,16.952757333665655],[71.2500499626228,16.9642435222414],[71.23941966069638,16.965670237836882],[71.22964172461478,16.979401697546518],[71.21916102002731,16.981564920330083],[71.21111107946533,16.994433258843078],[71.19914953205681,16.99649653168506],[71.19194374863523,17.011217045513526],[71.18266803613736,17.013043285351824],[71.1726258796211,17.029582189679736],[71.16701416894874,17.03155976635004],[71.13206755081266,17.077452942449305],[71.0854709650273,17.15900960082012],[71.06966983111334,17.17125426986338],[71.02680619707857,17.186882062975503],[70.97380647629963,17.19603964946454],[70.96073788400037,17.19536692514846],[70.91694359357682,17.210540665354046],[70.89980842180782,17.212525583354513],[70.8688512050563,17.225468056135593],[70.78895137819887,17.239805351857033],[70.7813131532228,17.281012564015953],[70.81388335154917,17.432403908247444]]]},"properties":{"kind":"release_corridor","age_prior_h":{"min":4,"max":48,"label":"weak prior","spreading_min_h":4.2}}},{"type":"Feature","geometry":{"type":"Polygon","coordinates":[[[70.74918020934923,17.71415823784121],[70.74960620533791,17.73168776445161],[70.757674551835,17.75040854754994],[70.77441839437465,17.76797814026704],[70.80171156888349,17.7841852425456],[70.81031319896175,17.819483362839588],[70.83585999477572,17.844662427378612],[71.00927302476597,17.936628945014007],[71.04467688001493,17.935848907328356],[71.07261346325703,17.914681919272645],[71.10301503382645,17.87720320449039],[71.17075126123763,17.723229408153728],[71.1824469188028,17.621903825537274],[71.33800341025206,17.40492131504968],[71.40933460240898,17.340783795438156],[71.5761388901051,17.136988361741043],[71.58917192606013,17.09628821801864],[71.58921937298386,16.885845344048516],[71.58453607758602,16.865183905059908],[71.57302665430004,16.849716823039792],[71.55589702772235,16.839374823868305],[71.53414264760886,16.836211027137253],[71.37729898827112,16.84596812388969],[71.31308557820847,16.86560469543631],[71.2303825402015,16.91640023555472],[71.16492331500959,16.965469711983168],[71.09396709482368,17.0509231107075],[71.04334287238592,17.132256393047367],[71.00700008369627,17.14347982238083],[70.94853091569519,17.151696803497007],[70.84917131988831,17.18258634369646],[70.79296968028417,17.1912932359132],[70.77005106423353,17.19823726497053],[70.75375934002754,17.20972108480823],[70.74164238549571,17.231542754020253],[70.73430067998073,17.2828563841939],[70.76500049324471,17.433938113410417],[70.7959243537537,17.490984261339023],[70.82470356055885,17.52383936157563],[70.82949931524749,17.55221236606659],[70.77138526982259,17.650488097869367],[70.74918020934923,17.71415823784121]]]},"properties":{"kind":"expanded_corridor_for_veto","margin_km":5.0}}],"properties":{"physics":{"formula":"V_oil = V_current + V_tide + V_Stokes + alpha * V_wind10","current_source":"CMEMS SMOC (uo+utide, vo+vtide)","stokes_source":"CMEMS SMOC (vsdx, vsdy)","wind_source":"ERA5 10 m (u10, v10)","alpha":0.02,"alpha_range":[0.01,0.03],"current_scale_sd":0.15,"wind_rotation_sd_deg":10.0,"current_error_sd_ms":0.1,"diffusion_m2s":1.0,"time_step_s":900,"backward_members":10,"backward_particles":500,"forward_members":5,"max_age_h":72}}}