{"type":"FeatureCollection","features":[{"type":"Feature","geometry":{"type":"Polygon","coordinates":[[[70.30386735387226,17.387044870798366],[70.32250602413716,17.40651375223743],[70.34624203904407,17.4232878784841],[70.38362493457065,17.437639670534498],[70.4141461884469,17.431937219075785],[70.42817890517937,17.40814808060587],[70.42577245925737,17.398552961350543],[70.38418625085798,17.37779168669116],[70.34079308295044,17.316725143595782],[70.33995296276723,17.264150057578814],[70.35829951700751,17.223371859079624],[70.35518860901671,17.217668447201635],[70.32890135982154,17.217514780662416],[70.31689816157997,17.228858373458756],[70.29584075568182,17.28460017890178],[70.29250124463134,17.364304923369865],[70.30386735387226,17.387044870798366]]]},"properties":{"kind":"forecast_envelope","hours":24,"active_fraction":1.0}},{"type":"Feature","geometry":{"type":"Polygon","coordinates":[[[70.09470376777432,17.575695817499053],[70.10964047747774,17.667422492848676],[70.11527860067663,17.67065610249037],[70.13237804175078,17.64150391712404],[70.13609726594122,17.604997492895905],[70.12534054527273,17.473485812502858],[70.15962586840513,17.30565112890492],[70.16912502046547,17.28304151567615],[70.24416716335966,17.152192738843002],[70.24376484239517,17.140691013858298],[70.22375091430847,17.13284379352401],[70.21870795017823,17.134515994169647],[70.17344889207789,17.193508314985472],[70.12159932594447,17.322503622144477],[70.09718477824654,17.422998658149197],[70.09470376777432,17.575695817499053]]]},"properties":{"kind":"forecast_envelope","hours":48,"active_fraction":1.0}},{"type":"Feature","geometry":{"type":"Polygon","coordinates":[[[69.99234395329904,17.5575924183218],[70.00651856293304,17.606855283684776],[70.01269453172127,17.60987366577675],[70.0212650946739,17.608516583165468],[70.0220693973755,17.568541716211186],[70.01351569211747,17.507944249420493],[70.01437423395103,17.295724875190416],[70.04477069794913,17.176636056634226],[70.06898245049521,17.116361806898567],[70.15113541010832,16.9737797397652],[70.15923801035828,16.9534112754894],[70.15193604569417,16.945914521062612],[70.13072289175116,16.946571391966202],[70.07616616166995,16.998562003771543],[70.03629963845894,17.083023565065687],[70.0142579521656,17.13995125521284],[69.99612806320312,17.22764842657231],[69.9866258004588,17.290031809484443],[69.98087411112081,17.357993279482603],[69.97974732066983,17.408837553264984],[69.98426392223233,17.47194028033182],[69.99234395329904,17.5575924183218]]]},"properties":{"kind":"forecast_envelope","hours":72,"active_fraction":1.0}}],"properties":{"model":"OpenDrift OpenOil","oil_type":"GENERIC INTERMEDIATE FUEL OIL 180","hours":72,"coastal_impact":false,"stranded_elements":0,"elements":1500,"mass_budget_fraction":{"mass_oil":[1.0,0.9761999845504761,0.9569000005722046,0.9377999901771545,0.9192000031471252,0.9003999829292297,0.8810999989509583,0.8616999983787537,0.8432000279426575,0.8256999850273132,0.8087999820709229,0.7922999858856201,0.7767999768257141,0.7627000212669373,0.7498999834060669,0.7378000020980835,0.7265999913215637,0.7171000242233276,0.7092999815940857,0.7024000287055969,0.6955999732017517,0.6887000203132629,0.6809999942779541,0.671500027179718,0.6604999899864197,0.6513000130653381,0.6420000195503235,0.6335999965667725,0.6262000203132629,0.6195999979972839,0.6141999959945679,0.6096000075340271,0.6055999994277954,0.6021999716758728,0.5989000201225281,0.5949000120162964,0.5911999940872192,0.5884000062942505,0.5866000056266785,0.5853999853134155,0.5842999815940857,0.5830000042915344,0.5813000202178955,0.5788000226020813,0.5753999948501587,0.5716999769210815,0.5683000087738037,0.5640000104904175,0.5590999722480774,0.5539000034332275,0.5479000210762024,0.5412999987602234,0.5343000292778015,0.5271999835968018,0.51910001039505,0.5074999928474426,0.48919999599456787,0.4629000127315521,0.4359000027179718,0.40630000829696655,0.3763999938964844,0.34869998693466187,0.3239000141620636,0.30219998955726624,0.28349998593330383,0.26669999957084656,0.2513999938964844,0.2370000034570694,0.22339999675750732,0.21080000698566437,0.19910000264644623,0.18799999356269836,0.18219999969005585],"mass_evaporated":[0.0,0.016699999570846558,0.02810000069439411,0.03889999911189079,0.04910000041127205,0.058800000697374344,0.06809999793767929,0.07699999958276749,0.0851999968290329,0.09290000051259995,0.10010000318288803,0.10679999738931656,0.11299999803304672,0.11869999766349792,0.12389999628067017,0.12880000472068787,0.133200004696846,0.1371999979019165,0.14090000092983246,0.14419999718666077,0.14740000665187836,0.15039999783039093,0.15330000221729279,0.15620000660419464,0.15889999270439148,0.15889999270439148,0.15889999270439148,0.15889999270439148,0.15889999270439148,0.15889999270439148,0.15889999270439148,0.15889999270439148,0.15889999270439148,0.15889999270439148,0.15889999270439148,0.15889999270439148,0.15889999270439148,0.15889999270439148,0.15889999270439148,0.15889999270439148,0.15889999270439148,0.15889999270439148,0.15889999270439148,0.15889999270439148,0.15889999270439148,0.15889999270439148,0.15889999270439148,0.15889999270439148,0.15889999270439148,0.15889999270439148,0.15889999270439148,0.15889999270439148,0.15889999270439148,0.15889999270439148,0.15889999270439148,0.15889999270439148,0.15889999270439148,0.15889999270439148,0.15889999270439148,0.15889999270439148,0.15889999270439148,0.15889999270439148,0.15889999270439148,0.15889999270439148,0.15889999270439148,0.15889999270439148,0.15889999270439148,0.15889999270439148,0.15889999270439148,0.15889999270439148,0.15889999270439148,0.15889999270439148,0.15889999270439148],"mass_dispersed":[0.0,0.0071000000461936,0.014999999664723873,0.02329999953508377,0.03180000185966492,0.040800001472234726,0.05090000107884407,0.06129999831318855,0.07159999758005142,0.08150000125169754,0.09109999984502792,0.10090000182390213,0.11020000278949738,0.11860000342130661,0.12620000541210175,0.13339999318122864,0.14020000398159027,0.14560000598430634,0.14990000426769257,0.1534000039100647,0.15700000524520874,0.16099999845027924,0.1657000035047531,0.17239999771118164,0.18060000240802765,0.18979999423027039,0.19910000264644623,0.20749999582767487,0.21490000188350677,0.22139999270439148,0.22689999639987946,0.2313999980688095,0.23549999296665192,0.23880000412464142,0.24220000207424164,0.24619999527931213,0.2498999983072281,0.25270000100135803,0.25450000166893005,0.2556999921798706,0.25679999589920044,0.2581000030040741,0.2597000002861023,0.2621999979019165,0.26570001244544983,0.2694000005722046,0.2727999985218048,0.27709999680519104,0.28189998865127563,0.287200003862381,0.2930999994277954,0.29980000853538513,0.3068000078201294,0.3138999938964844,0.32199999690055847,0.3334999978542328,0.35190001130104065,0.3781999945640564,0.4052000045776367,0.43470001220703125,0.46470001339912415,0.49239999055862427,0.5171999931335449,0.5389000177383423,0.5576000213623047,0.574400007724762,0.5896999835968018,0.6040999889373779,0.6176999807357788,0.630299985408783,0.6420000195503235,0.6531000137329102,0.6589000225067139]}}}