{"type":"FeatureCollection","features":[{"type":"Feature","geometry":{"type":"Polygon","coordinates":[[[70.73048338695686,17.23085771043494],[70.73048338695686,17.23311863976733],[70.72810820576483,17.23311863976733],[70.72810820576483,17.235379569099724],[70.7257330245728,17.235379569099724],[70.7257330245728,17.239901427764508],[70.72335784338077,17.239901427764508],[70.72335784338077,17.244423286429296],[70.7257330245728,17.244423286429296],[70.7257330245728,17.255727933091258],[70.72810820576483,17.255727933091258],[70.72810820576483,17.260249791756046],[70.73048338695686,17.260249791756046],[70.73048338695686,17.2738153677504],[70.73285856814888,17.2738153677504],[70.73285856814888,17.276076297082792],[70.73523374934092,17.276076297082792],[70.73523374934092,17.282859085079973],[70.73760893053294,17.282859085079973],[70.73760893053294,17.287380943744758],[70.73998411172498,17.287380943744758],[70.73998411172498,17.291902802409542],[70.742359292917,17.291902802409542],[70.742359292917,17.303207449071508],[70.74473447410904,17.303207449071508],[70.74473447410904,17.3054683784039],[70.74710965530106,17.3054683784039],[70.74710965530106,17.309990237068686],[70.7494848364931,17.309990237068686],[70.7494848364931,17.32355581306304],[70.75186001768512,17.32355581306304],[70.75186001768512,17.328077671727826],[70.75423519887715,17.328077671727826],[70.75423519887715,17.332599530392613],[70.75661038006918,17.332599530392613],[70.75661038006918,17.33938231838979],[70.75898556126121,17.33938231838979],[70.75898556126121,17.343904177054576],[70.76136074245323,17.343904177054576],[70.76136074245323,17.348426035719363],[70.76373592364527,17.348426035719363],[70.76373592364527,17.357469753048935],[70.7661111048373,17.357469753048935],[70.7661111048373,17.36199161171372],[70.76848628602933,17.36199161171372],[70.76848628602933,17.37103532904329],[70.77086146722135,17.37103532904329],[70.77086146722135,17.37781811704047],[70.77323664841339,17.37781811704047],[70.77323664841339,17.382339975705253],[70.77561182960541,17.382339975705253],[70.77561182960541,17.384600905037647],[70.77798701079745,17.384600905037647],[70.77798701079745,17.38912276370243],[70.78036219198947,17.38912276370243],[70.78036219198947,17.391383693034825],[70.7827373731815,17.391383693034825],[70.7827373731815,17.38912276370243],[70.78511255437353,17.38912276370243],[70.78511255437353,17.39364462236722],[70.7827373731815,17.39364462236722],[70.7827373731815,17.398166481032003],[70.78511255437353,17.398166481032003],[70.78511255437353,17.40268833969679],[70.78748773556556,17.40268833969679],[70.78748773556556,17.40494926902918],[70.79223809794962,17.40494926902918],[70.79223809794962,17.407210198361575],[70.7993636415257,17.407210198361575],[70.7993636415257,17.40947112769397],[70.80173882271774,17.40947112769397],[70.80173882271774,17.407210198361575],[70.80411400390976,17.407210198361575],[70.80411400390976,17.40268833969679],[70.8064891851018,17.40268833969679],[70.8064891851018,17.395905551699613],[70.80411400390976,17.395905551699613],[70.80411400390976,17.38686183437004],[70.80173882271774,17.38686183437004],[70.80173882271774,17.384600905037647],[70.7993636415257,17.384600905037647],[70.7993636415257,17.375557187708075],[70.79698846033368,17.375557187708075],[70.79698846033368,17.368774399710897],[70.79461327914164,17.368774399710897],[70.79461327914164,17.366513470378504],[70.79223809794962,17.366513470378504],[70.79223809794962,17.364252541046113],[70.78986291675758,17.364252541046113],[70.78986291675758,17.359730682381326],[70.78748773556556,17.359730682381326],[70.78748773556556,17.35520882371654],[70.78511255437353,17.35520882371654],[70.78511255437353,17.348426035719363],[70.7827373731815,17.348426035719363],[70.7827373731815,17.341643247722185],[70.78036219198947,17.341643247722185],[70.78036219198947,17.332599530392613],[70.77798701079745,17.332599530392613],[70.77798701079745,17.33033860106022],[70.77561182960541,17.33033860106022],[70.77561182960541,17.32355581306304],[70.77323664841339,17.32355581306304],[70.77323664841339,17.319033954398257],[70.77086146722135,17.319033954398257],[70.77086146722135,17.30772930773629],[70.76848628602933,17.30772930773629],[70.76848628602933,17.29868559040672],[70.7661111048373,17.29868559040672],[70.7661111048373,17.294163731741936],[70.76373592364527,17.294163731741936],[70.76373592364527,17.287380943744758],[70.76136074245323,17.287380943744758],[70.76136074245323,17.282859085079973],[70.75898556126121,17.282859085079973],[70.75898556126121,17.278337226415186],[70.75661038006918,17.278337226415186],[70.75661038006918,17.269293509085614],[70.75423519887715,17.269293509085614],[70.75423519887715,17.26477165042083],[70.75186001768512,17.26477165042083],[70.75186001768512,17.255727933091258],[70.7494848364931,17.255727933091258],[70.7494848364931,17.251206074426474],[70.74710965530106,17.251206074426474],[70.74710965530106,17.242162357096902],[70.74473447410904,17.242162357096902],[70.74473447410904,17.239901427764508],[70.742359292917,17.239901427764508],[70.742359292917,17.235379569099724],[70.73998411172498,17.235379569099724],[70.73998411172498,17.23311863976733],[70.73760893053294,17.23311863976733],[70.73760893053294,17.23085771043494],[70.73048338695686,17.23085771043494]]]},"properties":{"area_km2":46.76,"perimeter_km":58.17,"length_km":21.15,"mean_width_km":2.211,"elongation":9.6,"compactness":0.1736,"components":1,"orientation_deg":20.7,"centroid":[70.76333,17.32056],"taper":"undetermined","end_width_ratio":0.98,"edge_truncated":false,"wind_speed_ms":6.7,"wind_reliability":1,"age_prior_h":{"min":4,"max":48,"label":"weak prior","spreading_min_h":4.2},"shape_indicator":"elongated, few parts: consistent with a moving vessel","simulated":true,"source":"Outline only, no satellite image"}}]}