{"type":"FeatureCollection","features":[{"type":"Feature","geometry":{"type":"Polygon","coordinates":[[[75.4191006401758,10.44492927163386],[75.42290874217981,10.453134349266197],[75.44033710003143,10.466432994376637],[75.51223307292037,10.457169878428166],[75.52425754138065,10.447134067123617],[75.52635869661961,10.44121303191591],[75.51971225948006,10.3323597851452],[75.57911389861158,10.264470240424194],[75.57578385223341,10.22879552562375],[75.54931398204566,10.176357962465511],[75.53018356821315,10.174115541613817],[75.51484333735209,10.189713439159318],[75.51053718666513,10.201989772053865],[75.51073363073348,10.301428249952977],[75.45189746258575,10.405896719548293],[75.43728959568425,10.419711967302163],[75.4191006401758,10.44492927163386]]]},"properties":{"kind":"age","age_h":1,"in_age_prior":false}},{"type":"Feature","geometry":{"type":"Polygon","coordinates":[[[75.4093530159821,10.46187129473222],[75.41434823731929,10.472585264643522],[75.43489526030952,10.487481640727514],[75.50098186853563,10.482908290646801],[75.52259635788283,10.467070306048837],[75.51580711534027,10.352833364841203],[75.57267209643159,10.288752735192604],[75.57555192462644,10.280458501705054],[75.57272777824404,10.24589888921266],[75.54842614275098,10.198772311181322],[75.5433141685784,10.194592503758658],[75.52064589958464,10.191881187440057],[75.50721172846816,10.204727375194514],[75.49899385302949,10.226454406443906],[75.50018578645725,10.31988322467046],[75.49196998363932,10.33589738379506],[75.48702841422687,10.358797214088053],[75.4269501928343,10.434270222056497],[75.4093530159821,10.46187129473222]]]},"properties":{"kind":"age","age_h":2,"in_age_prior":false}},{"type":"Feature","geometry":{"type":"Polygon","coordinates":[[[75.39954017343892,10.480722018859405],[75.41078164729502,10.498089261416327],[75.42719208781918,10.507833672095686],[75.4738784035092,10.511441075699805],[75.48910723036619,10.508214966221358],[75.5185221336883,10.487873932628302],[75.52041883490158,10.474724876654847],[75.5135221241345,10.371859306037601],[75.56817694631316,10.307821338856522],[75.57230408722442,10.297137088127574],[75.57048667596688,10.264053049623243],[75.54169991243502,10.215016188478959],[75.51276377255044,10.209236941172717],[75.50246651803732,10.213625972936537],[75.49718497558608,10.220329572706211],[75.48656758754889,10.251547985469273],[75.48294896216863,10.351441682876539],[75.43273565586705,10.433080424574918],[75.41668539698654,10.448262513086002],[75.40216186381284,10.46905293372105],[75.39954017343892,10.480722018859405]]]},"properties":{"kind":"age","age_h":3,"in_age_prior":true}},{"type":"Feature","geometry":{"type":"Polygon","coordinates":[[[75.3693540219536,10.509817400431704],[75.36350529662583,10.562759257361678],[75.36712855386958,10.568054740164825],[75.37898377034436,10.576185398884672],[75.43061644480149,10.58841505008345],[75.44593269784201,10.586324907437604],[75.50145209721248,10.549050374472982],[75.5067034716977,10.530111418713108],[75.49677939779626,10.428798711975888],[75.52701823784452,10.398785230043377],[75.55012101775947,10.368746656036873],[75.55920528345995,10.349894097797506],[75.55711335502804,10.315807181464113],[75.52832618572278,10.274425537787646],[75.50006395700213,10.266106246594367],[75.48106926399798,10.264009518425782],[75.47425747905181,10.265600052815227],[75.46033234514333,10.28259252605323],[75.44427850660384,10.327285877475585],[75.44773746087547,10.40380664917142],[75.39828157940985,10.475872427327928],[75.3693540219536,10.509817400431704]]]},"properties":{"kind":"age","age_h":6,"in_age_prior":true}},{"type":"Feature","geometry":{"type":"Polygon","coordinates":[[[75.31725363404696,10.641093215027066],[75.32148234747243,10.652078668639884],[75.32913074968258,10.657078033601588],[75.39811599652073,10.662358613008738],[75.48447376620764,10.605702142374517],[75.48964435178803,10.581785679037338],[75.47664585270078,10.489474236433438],[75.52178524549753,10.442605208086635],[75.5332562030439,10.4257184896118],[75.5428781487014,10.403049789986197],[75.53923239335332,10.370411604127144],[75.51713526208711,10.336770500767603],[75.49578818946826,10.326259212609594],[75.46411492385248,10.318885077767712],[75.4412339892711,10.317229510717473],[75.42150272309786,10.336211051402222],[75.39596593010253,10.401870629467757],[75.40900120800681,10.451477486382784],[75.36286501479665,10.516309108031491],[75.35112570352862,10.524860453689046],[75.33375747018583,10.550475482397477],[75.31725363404696,10.641093215027066]]]},"properties":{"kind":"age","age_h":9,"in_age_prior":true}},{"type":"Feature","geometry":{"type":"Polygon","coordinates":[[[75.26045314011333,10.721954938777595],[75.26797536809632,10.730958155123842],[75.34003220090916,10.740111309097927],[75.41434989102758,10.68634014726752],[75.4272405512004,10.685069759686995],[75.46327070817522,10.665659910631774],[75.46707061567112,10.63465597445056],[75.45319813777074,10.548213871443815],[75.51198307339818,10.487283399375531],[75.5194285194659,10.458058990715038],[75.51591029394602,10.426827740604063],[75.48730904862762,10.388620079466445],[75.42475178416774,10.370123028501576],[75.40315824660296,10.367900872402844],[75.39477314835071,10.370654691072227],[75.37573872588102,10.386845244601965],[75.35704432513984,10.459602205240543],[75.34201521681447,10.475408820157748],[75.32042402643627,10.556501232923356],[75.30635894843513,10.567561775200657],[75.29339665818765,10.592952739220651],[75.2608379461694,10.706940762284216],[75.26045314011333,10.721954938777595]]]},"properties":{"kind":"age","age_h":12,"in_age_prior":true}},{"type":"Feature","geometry":{"type":"Polygon","coordinates":[[[75.16646521914329,10.83844419298922],[75.17711852646022,10.850530444270484],[75.2090365363717,10.872258469064294],[75.23898053465491,10.885328758554106],[75.27813857953772,10.814994470422704],[75.31672583105659,10.810421195219655],[75.33357518509474,10.814702472954064],[75.34856621637434,10.813706781277787],[75.41770137211593,10.779707225917013],[75.42353015375313,10.739329346972063],[75.41776787805526,10.726235990569263],[75.40715222927166,10.670763784891651],[75.46884114446114,10.60682364093447],[75.47429217939735,10.566827870599592],[75.47654420266225,10.538834543374778],[75.44734209434539,10.4735098172697],[75.43149316401572,10.466184592937505],[75.3610408667944,10.467577364721684],[75.3360087952163,10.444159031554607],[75.32572333295232,10.439985216666125],[75.31419633995138,10.442248806859164],[75.29101005443398,10.487265103235293],[75.28522807690314,10.5632099771381],[75.26046348589549,10.599990476880196],[75.2389289160682,10.62024579389772],[75.21015048238857,10.67524226658679],[75.19851851043097,10.725346858440377],[75.21913615983922,10.763817690261607],[75.1764328207348,10.828054375128124],[75.16709330512235,10.830872696292234],[75.16646521914329,10.83844419298922]]]},"properties":{"kind":"age","age_h":18,"in_age_prior":true}},{"type":"Feature","geometry":{"type":"Polygon","coordinates":[[[75.07624033884254,10.952021664163002],[75.08017366444632,10.964796016669961],[75.13263915998404,11.002539289060628],[75.14594118109834,11.004391771009159],[75.21567089565112,10.925203490780598],[75.29550601901502,10.925577845846249],[75.3132213947156,10.919027057721866],[75.38836207176267,10.87098879983529],[75.40015239151651,10.819738024982982],[75.40696256038663,10.74012463037119],[75.44480610933316,10.705163641742425],[75.45991935066043,10.632502446384592],[75.43159595274719,10.553717700110452],[75.31641379643533,10.558350816604426],[75.29480338535262,10.535412158152992],[75.27179328043515,10.491370611177814],[75.2515844093708,10.492629535598072],[75.2454918887655,10.497711913161648],[75.22893462616214,10.56079744662459],[75.22125112935348,10.63783051861025],[75.1662018841618,10.70807241544001],[75.14640329775659,10.716484034544726],[75.12873949253056,10.799864448765108],[75.13034147043997,10.877627952634043],[75.07624033884254,10.952021664163002]]]},"properties":{"kind":"age","age_h":24,"in_age_prior":true}},{"type":"Feature","geometry":{"type":"Polygon","coordinates":[[[74.85480296264372,11.182508811922299],[74.8548541118396,11.18777514481722],[74.87000553272621,11.204681624401703],[74.87613430695306,11.205310412968814],[74.91994363820227,11.133312293529855],[74.95520946712347,11.11159052595256],[75.07805922273765,11.140831941328797],[75.1569477069517,11.14642674354539],[75.17416903832935,11.140198621477332],[75.29030705214703,11.074866863013309],[75.30743731489034,11.013089678761519],[75.36632598065371,10.919822195253605],[75.38019113892068,10.865264485267911],[75.3828361014062,10.834544416043185],[75.35777905684677,10.757362256367198],[75.33185307010444,10.748197763742633],[75.31661897358474,10.765335291530098],[75.18506869677863,10.737037310252818],[75.14489996014193,10.670352961497198],[75.13554459269734,10.616731441348152],[75.12959902287977,10.606876582219998],[75.10940165750864,10.604711237736783],[75.09163021236898,10.610056088264324],[75.06676900388413,10.703543312641711],[75.00197030650585,10.816710899073612],[74.98364829387329,10.826144185394682],[74.97289492183293,10.850725530915645],[74.92986883655334,10.977624475282468],[74.90844102784683,11.106817352438838],[74.85480296264372,11.182508811922299]]]},"properties":{"kind":"age","age_h":36,"in_age_prior":true}},{"type":"Feature","geometry":{"type":"Polygon","coordinates":[[[74.71755384272046,11.338257041368886],[74.70897811711676,11.364899763590113],[74.72646622561386,11.368408894812001],[74.76650224158521,11.343249346679235],[74.7943362109094,11.315051372119964],[74.89532755385308,11.275936953069413],[74.91894790744021,11.331882307742543],[75.01572729496066,11.346333275532027],[75.03054679356678,11.337526250482156],[75.10136184279816,11.253083217024454],[75.18122845923298,11.253648368341285],[75.20807177909548,11.235950315719666],[75.25514715845861,11.116847689141693],[75.269396951811,11.102256045651172],[75.28536065425864,11.018501141862217],[75.2663250326582,10.942705262175934],[75.23562685995749,10.94215969140976],[75.21901595666553,10.955099926740637],[75.20627759436896,11.017333587642014],[75.1887637200446,11.056678850916647],[75.08120448358049,11.016986614239618],[75.0691153034871,10.979271874471719],[75.06895480617298,10.910224517072335],[75.01811284643804,10.810239137678213],[75.0124643555468,10.746029681292159],[74.99615955215037,10.739583792470636],[74.96598132440643,10.744041260196228],[74.93063739156575,10.861223226696978],[74.8675067415719,10.944795418558453],[74.84086610010718,10.956586696382347],[74.80361633216701,11.083949629757429],[74.75465208951422,11.197047043491505],[74.73245291718209,11.217291488695722],[74.71755384272046,11.338257041368886]]]},"properties":{"kind":"age","age_h":48,"in_age_prior":true}},{"type":"Feature","geometry":{"type":"Polygon","coordinates":[[[74.51891843629626,11.471732762366322],[74.50489911398026,11.601325361319422],[74.51294159021774,11.608987714793672],[74.55364665090322,11.595649710675632],[74.58300082359558,11.571764716098734],[74.58120767998786,11.527244123291846],[74.57361155532722,11.49989159312346],[74.57409222737957,11.474042570402505],[74.7537860459465,11.46689941936026],[74.77932525555855,11.541213076604993],[74.86187997693008,11.561888752061963],[74.88524185843156,11.562000816318857],[74.89171498685101,11.551509178049688],[75.0019010475948,11.455709236304623],[75.0681054534733,11.449175443203297],[75.09424370575465,11.441306527341004],[75.12416081061882,11.419630774871159],[75.17876508020336,11.265422471084367],[75.17087584242154,11.180354597064618],[75.15612183519201,11.13437777569767],[75.14901122175529,11.127414987109004],[75.12457146889302,11.124722131341686],[75.10284774110018,11.139048779882476],[75.07876016121335,11.241737458029844],[74.94476753932004,11.217337477304486],[74.92264250686607,11.153660756364228],[74.91988552399077,11.092772481477594],[74.8550763194847,10.963657073460084],[74.84514535243498,10.899143700771143],[74.82901535199221,10.882868382788859],[74.81018150670914,10.89027441369871],[74.79558439573258,10.90127510674299],[74.755497195406,11.03484400616934],[74.6642878934325,11.114842185854496],[74.62588570889011,11.252726480877028],[74.63254097234932,11.28869251416066],[74.64653163894424,11.291826440817172],[74.70045248012524,11.314718690927798],[74.7084795187027,11.32208475168623],[74.75414016117189,11.428583058708323],[74.56868702821548,11.454870290467582],[74.54409460519594,11.453880853004334],[74.51891843629626,11.471732762366322]]]},"properties":{"kind":"age","age_h":60,"in_age_prior":true}},{"type":"Feature","geometry":{"type":"Polygon","coordinates":[[[74.24164591100063,11.849223123956051],[74.25464940988374,11.863968719533599],[74.29981630773021,11.854375924224817],[74.32661052737824,11.833660270654637],[74.59216695424539,11.76846141999973],[74.66147817290482,11.793631503749284],[74.68111903431017,11.79455678490028],[74.69066813195859,11.775753668235357],[74.69764304986427,11.688849315216233],[74.9621879093358,11.669629855839585],[74.98579732051226,11.662360981748709],[75.00296711693927,11.650382710038931],[75.03059754723766,11.62377320179999],[75.05455506166794,11.480601307221251],[74.98523519143599,11.32598143244162],[74.95765124012702,11.31740559751044],[74.93734580057043,11.335385377063693],[74.92884305424201,11.430765749023408],[74.76686505437077,11.422481059403303],[74.72136355667976,11.337848829846887],[74.71050103351031,11.257672271166848],[74.6263659752251,11.122674261395453],[74.61202308933959,11.060035359945308],[74.60344401350504,11.04261475468117],[74.59827506770249,11.040229900616943],[74.57754270289017,11.047980321951396],[74.49937341469918,11.213158503231773],[74.44301567554432,11.254218893345376],[74.42814780135409,11.270122240449211],[74.38053660731195,11.43175437273013],[74.3903047208681,11.465467105727281],[74.46925154243492,11.508857430892926],[74.59258006799038,11.642973911182748],[74.59478626214447,11.675119490622262],[74.58188946671295,11.756857840295373],[74.31778677109803,11.796238722196758],[74.29946612649894,11.7221958163979],[74.2797840455162,11.721213571840286],[74.25522709631869,11.72661355172066],[74.24882536185753,11.737505756097736],[74.24164591100063,11.849223123956051]]]},"properties":{"kind":"age","age_h":72,"in_age_prior":true}},{"type":"Feature","geometry":{"type":"Polygon","coordinates":[[[75.27015768241544,11.117311217033867],[75.30319071222486,11.043667704953444],[75.31959078937096,11.023297475804704],[75.34742444753066,10.965626698584543],[75.3526584468081,10.960736676244816],[75.35713212548104,10.946064384753981],[75.36185934330237,10.942032466430001],[75.36584877495606,10.927898931008574],[75.3701205684288,10.9241768717526],[75.3917982508166,10.85813848681994],[75.42738106459433,10.78027322381181],[75.44839813027959,10.706178928523672],[75.44991086403975,10.69026405451162],[75.45655336154275,10.68591340489811],[75.45831266824958,10.668851997733174],[75.46369683109926,10.664883442200704],[75.46567623838193,10.64834620630576],[75.47027014864487,10.64499779355085],[75.47342801911468,10.628602047202715],[75.47820956196396,10.624645021250792],[75.50870207087989,10.528200202764646],[75.5159046860068,10.49022913266396],[75.5190518054991,10.486262061943055],[75.51939745463511,10.465693479723361],[75.5485482366721,10.386418903689066],[75.57230408722442,10.297137088127574],[75.5703309727926,10.263661777386444],[75.54334581057876,10.216438932938287],[75.53694933609839,10.212696636912682],[75.51314876826488,10.209222697931745],[75.50212832961716,10.21389631637795],[75.48751099209454,10.235904727243197],[75.48407356481316,10.246331033445907],[75.47571246069334,10.25067561817744],[75.46932627240935,10.271516705429447],[75.45750114739934,10.290142253959916],[75.421748825313,10.33585952110136],[75.41810392126733,10.344674621052894],[75.39005018802165,10.374583529269644],[75.37460121012865,10.385042621306136],[75.36242957943365,10.400685992472411],[75.35801311119826,10.402107862201559],[75.33521522479283,10.431884767253266],[75.3267110816242,10.440111641551772],[75.31484578792472,10.441594171211422],[75.30043730899202,10.460068559870436],[75.29159773361296,10.460873587502768],[75.28814042691117,10.467145163489901],[75.28179679924976,10.468067932661562],[75.27874096405034,10.473466310173762],[75.26832464737252,10.47625312466892],[75.26511248823222,10.482775658141552],[75.25629720623112,10.486008278459817],[75.25386227850395,10.4921723290659],[75.2361492819255,10.504428831668505],[75.2310110547222,10.51392426729596],[75.22376900116254,10.51572542596438],[75.21719166932287,10.528375526991175],[75.20666162325904,10.531196411603991],[75.2038124167499,10.540051448972342],[75.19438826476717,10.542113081548218],[75.19186523377108,10.547033811317965],[75.16174536452672,10.56532915456147],[75.14530130024617,10.579921507243382],[75.13375064774101,10.58101893782714],[75.12987978377278,10.587639536866272],[75.1178931516608,10.589289112834297],[75.11470936310815,10.59683381428084],[75.10520982988226,10.599141197910605],[75.10214039626662,10.606626780761347],[75.09232013896371,10.609532821628854],[75.08923829697713,10.616423249391438],[75.07945714247893,10.61961699864954],[75.07660997587645,10.62763274955062],[75.06825100778352,10.62952013330669],[75.06492548297341,10.638938518050889],[75.0568720906314,10.641179528675062],[75.05331529619318,10.649922440235184],[75.04440803267484,10.652875629916322],[75.04160384795811,10.660726174237116],[75.03457392568818,10.664141146427717],[75.03207625459576,10.67114342322354],[75.02467227016405,10.67460463181854],[75.02204193644472,10.682167815743103],[75.01620582076434,10.68519054096273],[75.0042535306539,10.703227804503257],[74.99651713474611,10.706820512616718],[74.9933324447898,10.716129279350474],[74.98638493283327,10.719450443649029],[74.98342772292914,10.728956462154956],[74.97627892869853,10.731994710159583],[74.974562850486,10.740795821612142],[74.96564528346539,10.744312315531777],[74.96239366283095,10.753267786957473],[74.95370351767836,10.758393166561367],[74.95050316861878,10.766761897887676],[74.94126597094615,10.770686594169613],[74.93873498988485,10.779939159110606],[74.92774905394977,10.783548185288593],[74.92565933698155,10.79245155409133],[74.91497929164633,10.795435451545517],[74.91313286952607,10.805124053170944],[74.90111367296858,10.807857052792029],[74.89717565450748,10.81908139470461],[74.88777029084041,10.822150656845796],[74.88461498022225,10.830902264915583],[74.8749131163779,10.83506970163066],[74.87364299677502,10.842395055211414],[74.86198908500977,10.847163256850127],[74.81376816711355,10.888645244786487],[74.7717696477543,10.917654176475219],[74.72408538135663,10.958623899330709],[74.71484622096122,10.962292755838472],[74.70669011018967,10.972350716346188],[74.69448560515761,10.976576200143509],[74.68778419415618,10.986870122398818],[74.67559359972601,10.99088312024631],[74.66954131628175,10.999459594758108],[74.65658302977864,11.004209843298407],[74.65075718844669,11.012474655968147],[74.57666215230613,11.048862661236742],[74.49937341469918,11.213158503231773],[74.44301567554432,11.254218893345376],[74.42814780135409,11.270122240449211],[74.38067708766918,11.430821076151778],[74.39063609167724,11.465774841662975],[74.4661684515052,11.507171845876421],[74.44853761466781,11.546247132796621],[74.4326301866518,11.55652428286853],[74.42999972619873,11.568339388483382],[74.41131089018864,11.57746376471543],[74.40774249548211,11.592119702275484],[74.38851113876548,11.601256595934196],[74.38631298915439,11.615334853262265],[74.36649166652928,11.624661795007151],[74.36437399698285,11.636578770722991],[74.34617415181805,11.644296448789996],[74.34330043459437,11.657869312673434],[74.32657433458874,11.66302367316499],[74.32156101831576,11.669575648000475],[74.32040544479862,11.680144555553195],[74.30222677499137,11.68724336756985],[74.29789019057198,11.701692104632064],[74.2780101083733,11.707858070638583],[74.27444753177538,11.722446898142215],[74.25522709631869,11.72661355172066],[74.25141067833187,11.730229969688107],[74.24092130912315,11.835284187911146],[74.24244477473829,11.851542509990473],[74.25464940988374,11.863968719533599],[74.29981630773021,11.854375924224817],[74.32661052737824,11.833660270654637],[74.59216695424539,11.76846141999973],[74.66147817290482,11.793631503749284],[74.68111903431017,11.79455678490028],[74.69020151963358,11.777434727822738],[74.69680894779535,11.777104553061251],[74.70096031166753,11.772220622108536],[74.70574106294276,11.758458094855602],[74.71750631415908,11.754576362576216],[74.72183686901339,11.739092500178124],[74.73269596189095,11.738266240888773],[74.74045686635384,11.720225958418935],[74.75206539313277,11.718838324797515],[74.758929289898,11.700997297593458],[74.77171088846244,11.698871885828396],[74.77660701012309,11.692778598721725],[74.77841531074215,11.682090035970921],[74.9627894060108,11.669545408841493],[74.98579732051226,11.662360981748709],[75.00296711693927,11.650382710038931],[75.03028535274521,11.624596171472362],[75.0323728108641,11.613323661611078],[75.04552289168282,11.590297257612859],[75.05581871009021,11.561634139468051],[75.06189036393418,11.556024662242793],[75.07371590460869,11.526415199080121],[75.0959119536732,11.48891889210868],[75.1132549055666,11.439313684299764],[75.1287934562478,11.407120912085997],[75.16626469434044,11.347503397014048],[75.18084621469973,11.31670243363068],[75.23090759029061,11.189967438603535],[75.23558995438347,11.18477084060401],[75.23725238708515,11.174625365706754],[75.24267980565614,11.169515462701565],[75.24536425584247,11.157196396428846],[75.27015768241544,11.117311217033867]],[[74.47302611969269,11.683263094477642],[74.4780197310992,11.67429770663969],[74.49536368333246,11.661034582784055],[74.49863482713897,11.654679066578872],[74.51839229741336,11.637464886319966],[74.51936838710326,11.632315228492672],[74.54065408356934,11.613080947636604],[74.56198153019359,11.609698817907798],[74.59258006799038,11.642973911182748],[74.59432416996262,11.668386528832663],[74.45772972652962,11.695233055521413],[74.47302611969269,11.683263094477642]],[[74.45281435259005,11.71601754583781],[74.43650144438301,11.719609168712728],[74.43614803370801,11.717908349750827],[74.45281435259005,11.71601754583781]],[[74.4546562532588,11.770441365545764],[74.58272647810564,11.750897479174407],[74.58188946671295,11.756857840295373],[74.39466835272522,11.784774755578004],[74.4546562532588,11.770441365545764]]]},"properties":{"kind":"release_corridor","age_prior_h":{"min":3,"max":72,"label":"weak prior","spreading_min_h":0.0}}},{"type":"Feature","geometry":{"type":"Polygon","coordinates":[[[74.34602413896127,11.583989751670998],[74.21708736526308,11.700258488342838],[74.20433804951206,11.727162336946465],[74.19622082177203,11.853741644274326],[74.2034817359263,11.875112952778705],[74.22147108456969,11.89646421364274],[74.23852496800419,11.906436043841227],[74.25814520287972,11.909101334809074],[74.31644171528471,11.896539019124221],[74.34736059580945,11.875152850207725],[74.58957198959018,11.815685622559238],[74.65230695183683,11.837928281706429],[74.69453698800697,11.837780483246055],[74.71537149796704,11.825500192869562],[74.80924201761813,11.724890049890814],[74.98809492099168,11.710377663643216],[75.03035425769296,11.6865613038747],[75.06444413516111,11.654817534965858],[75.13705867350416,11.50850915653272],[75.16859828431413,11.431095969858607],[75.22309367454727,11.33384081568208],[75.28776414255985,11.177572356683132],[75.40369368516488,10.960137743187635],[75.43523316909122,10.873128215286103],[75.4706921339056,10.794578026998325],[75.48875253606106,10.727401303047872],[75.55196599470412,10.542638118423174],[75.5659170704412,10.471155237063813],[75.5926716409049,10.398027960701036],[75.61690974358476,10.307006263276195],[75.61296012411142,10.247471694811262],[75.57279161173992,10.181707519502039],[75.55142520872796,10.169811394320627],[75.51529731133817,10.164054214531824],[75.49519092770454,10.16679191328319],[75.47345571077568,10.17870833806917],[75.43690173283312,10.226859089378943],[75.42815900778858,10.250035172219347],[75.3943600723622,10.298588812065685],[75.30480888053984,10.396717231087905],[75.2395211508737,10.441102901985666],[75.15110672887793,10.519085989522825],[75.12660927612069,10.536313880470257],[75.09412806378758,10.55068014000534],[75.05012115803734,10.584969592765336],[74.9910508281993,10.64401446328733],[74.91610746955448,10.732772462042284],[74.80548476631083,10.836717984602465],[74.61936708855285,10.9777110672809],[74.55572623759451,11.00820706476222],[74.54165549390488,11.019833906176679],[74.46277921180842,11.183685517157203],[74.41389734743586,11.219389143783959],[74.38854616945373,11.24762389599744],[74.34175738656803,11.399262151175328],[74.33518006055252,11.437340312350775],[74.347820780724,11.482785821121746],[74.36323456355251,11.501945544762098],[74.40146101116203,11.523444895389401],[74.34602413896127,11.583989751670998]]]},"properties":{"kind":"expanded_corridor_for_veto","margin_km":5.0}}],"properties":{"physics":{"formula":"V_oil = V_current + V_tide + V_Stokes + alpha * V_wind10","current_source":"CMEMS SMOC (uo+utide, vo+vtide)","stokes_source":"CMEMS SMOC (vsdx, vsdy)","wind_source":"ERA5 10 m (u10, v10)","alpha":0.02,"alpha_range":[0.01,0.03],"current_scale_sd":0.15,"wind_rotation_sd_deg":10.0,"current_error_sd_ms":0.1,"diffusion_m2s":1.0,"time_step_s":900,"backward_members":10,"backward_particles":500,"forward_members":5,"max_age_h":72}}}