{"type":"FeatureCollection","features":[{"type":"Feature","geometry":{"type":"Polygon","coordinates":[[[75.69512448684969,10.097267254498238],[75.7033508018706,10.105972370543956],[75.7221637182671,10.10731951962875],[75.76977866249482,10.095538007111896],[75.77850056044103,10.087542667456283],[75.78141651367325,10.077609948211231],[75.77567519357123,10.052720137192885],[75.77375484641713,9.951310247858055],[75.80760885731802,9.888588565547368],[75.81431922787407,9.855989670927274],[75.81592825692846,9.819568448763073],[75.81201792310735,9.794633330682444],[75.79558701755907,9.7557333879543],[75.78378495595302,9.739393364069441],[75.7676719180845,9.744554855511366],[75.75375216480712,9.769778029815745],[75.76344214002961,9.900934565262835],[75.75003405123853,9.93025383258084],[75.75098457535698,9.93703689472129],[75.71368972480171,10.05390283064999],[75.69173094286108,10.084348101583435],[75.69512448684969,10.097267254498238]]]},"properties":{"kind":"forecast_envelope","hours":24,"active_fraction":1.0}},{"type":"Feature","geometry":{"type":"Polygon","coordinates":[[[75.90768604193421,9.684272211910205],[75.91360767228065,9.695875601231585],[75.92262011360548,9.700900448755414],[75.96890803507007,9.706455981694582],[75.97727037540575,9.702038745602888],[75.97472557329995,9.534519213980595],[76.0109849730283,9.477580083293406],[76.02204807905363,9.415418094478724],[76.02011649877967,9.389635365270728],[76.0072088048017,9.32465670750717],[75.99030602870603,9.30670943986027],[75.97258797302636,9.320455391295939],[75.96708709803198,9.339005587246088],[75.96060809612322,9.485605017285534],[75.92511363428657,9.641175238989527],[75.9147827068136,9.660557067826367],[75.90768604193421,9.684272211910205]]]},"properties":{"kind":"forecast_envelope","hours":48,"active_fraction":1.0}},{"type":"Feature","geometry":{"type":"Polygon","coordinates":[[[76.00550358393136,9.334387628228704],[76.01432453366024,9.353087429371175],[76.0332785771759,9.358378042758371],[76.06822002679037,9.363782693706208],[76.08299642182024,9.362334042717553],[76.08763212908723,9.355422616384397],[76.08794229076085,9.328853901401203],[76.04621065464174,9.281701495963098],[76.08116717947426,9.188527102765548],[76.1214673483097,9.140815118837306],[76.14862087504892,9.04565399938665],[76.15024222040789,8.971278108280908],[76.14522193048766,8.954447404368457],[76.13395751938835,8.94760805753412],[76.12092734807044,8.949075315094206],[76.10598933316763,8.960255203495436],[76.10571717130966,9.005754162302601],[76.06804722763651,9.130351716665622],[76.05293315316736,9.165324252357236],[76.01523232214615,9.285560857707797],[76.005568595012,9.306666851405307],[76.00550358393136,9.334387628228704]]]},"properties":{"kind":"forecast_envelope","hours":72,"active_fraction":1.0}}],"properties":{"model":"OpenDrift OpenOil","oil_type":"GENERIC INTERMEDIATE FUEL OIL 180","hours":72,"coastal_impact":false,"stranded_elements":0,"elements":1500,"mass_budget_fraction":{"mass_oil":[1.0,0.991100013256073,0.9860000014305115,0.979200005531311,0.972100019454956,0.964900016784668,0.9564999938011169,0.9473000168800354,0.9398000240325928,0.9325000047683716,0.9240000247955322,0.9107000231742859,0.8938999772071838,0.8763999938964844,0.8605999946594238,0.8501999974250793,0.8392000198364258,0.8234000205993652,0.8080000281333923,0.7947999835014343,0.7856000065803528,0.7764999866485596,0.7684999704360962,0.7638000249862671,0.7601000070571899,0.7599999904632568,0.7599999904632568,0.7599999904632568,0.7599999904632568,0.7599999904632568,0.7599999904632568,0.7599999904632568,0.7598999738693237,0.7598000168800354,0.7576000094413757,0.7512000203132629,0.7426000237464905,0.7325000166893005,0.7261999845504761,0.7246999740600586,0.7232999801635742,0.7217000126838684,0.7213000059127808,0.7211999893188477,0.7211999893188477,0.7211999893188477,0.7211999893188477,0.7211999893188477,0.7211999893188477,0.7210999727249146,0.7210000157356262,0.7208999991416931,0.7199000120162964,0.7178999781608582,0.714900016784668,0.7102000117301941,0.7056999802589417,0.7037000060081482,0.7031000256538391,0.703000009059906,0.7028999924659729,0.7028999924659729,0.7027999758720398,0.7024999856948853,0.7024000287055969,0.7023000121116638,0.7023000121116638,0.7020999789237976,0.7016000151634216,0.7010999917984009,0.6998999714851379,0.6966999769210815],"mass_evaporated":[0.0,0.008899999782443047,0.014000000432133675,0.020800000056624413,0.027899999171495438,0.03519999980926514,0.04320000112056732,0.051600001752376556,0.05889999866485596,0.06599999964237213,0.07349999994039536,0.08139999955892563,0.08940000087022781,0.09690000116825104,0.1039000004529953,0.11010000109672546,0.1160999983549118,0.12200000137090683,0.12759999930858612,0.13269999623298645,0.13729999959468842,0.14169999957084656,0.14569999277591705,0.14920000731945038,0.15240000188350677,0.15240000188350677,0.15240000188350677,0.15240000188350677,0.15240000188350677,0.15240000188350677,0.15240000188350677,0.15240000188350677,0.15240000188350677,0.15240000188350677,0.15240000188350677,0.15240000188350677,0.15240000188350677,0.15240000188350677,0.15240000188350677,0.15240000188350677,0.15240000188350677,0.15240000188350677,0.15240000188350677,0.15240000188350677,0.15240000188350677,0.15240000188350677,0.15240000188350677,0.15240000188350677,0.15240000188350677,0.15240000188350677,0.15240000188350677,0.15240000188350677,0.15240000188350677,0.15240000188350677,0.15240000188350677,0.15240000188350677,0.15240000188350677,0.15240000188350677,0.15240000188350677,0.15240000188350677,0.15240000188350677,0.15240000188350677,0.15240000188350677,0.15240000188350677,0.15240000188350677,0.15240000188350677,0.15240000188350677,0.15240000188350677,0.15240000188350677,0.15240000188350677,0.15240000188350677,0.15240000188350677],"mass_dispersed":[0.0,0.0,0.0,0.0,0.0,0.0,0.0003000000142492354,0.0012000000569969416,0.0013000000035390258,0.001500000013038516,0.0024999999441206455,0.007899999618530273,0.01679999940097332,0.02669999934732914,0.03550000116229057,0.03970000147819519,0.04470000043511391,0.05460000038146973,0.06440000236034393,0.07240000367164612,0.0771000012755394,0.08190000057220459,0.08590000122785568,0.08699999749660492,0.08749999850988388,0.08760000020265579,0.08760000020265579,0.08760000020265579,0.08760000020265579,0.08760000020265579,0.08760000020265579,0.08760000020265579,0.0877000018954277,0.08780000358819962,0.09000000357627869,0.09640000015497208,0.10499999672174454,0.11509999632835388,0.12139999866485596,0.12290000170469284,0.1242000013589859,0.125900000333786,0.12630000710487366,0.12630000710487366,0.12639999389648438,0.12639999389648438,0.12639999389648438,0.12639999389648438,0.12639999389648438,0.1264999955892563,0.1265999972820282,0.1266999989748001,0.12770000100135803,0.12970000505447388,0.13269999623298645,0.13740000128746033,0.14190000295639038,0.14390000700950623,0.1445000022649765,0.1446000039577484,0.14470000565052032,0.14470000565052032,0.14480000734329224,0.14509999752044678,0.1451999992132187,0.1453000009059906,0.1453000009059906,0.14550000429153442,0.1459999978542328,0.14650000631809235,0.1476999968290329,0.1509000062942505]}}}