{"type":"FeatureCollection","features":[{"type":"Feature","geometry":{"type":"Point","coordinates":[73.97115,11.01837]},"properties":{"peak_db":12.8,"area_px":19,"approx_length_m":183,"platform":false}},{"type":"Feature","geometry":{"type":"Point","coordinates":[73.9726,11.01737]},"properties":{"peak_db":0.6,"area_px":4,"approx_length_m":84,"platform":false}},{"type":"Feature","geometry":{"type":"Point","coordinates":[75.45551,10.71097]},"properties":{"peak_db":-6.2,"area_px":1,"approx_length_m":42,"platform":false}},{"type":"Feature","geometry":{"type":"Point","coordinates":[75.62735,10.66064]},"properties":{"peak_db":-4.6,"area_px":1,"approx_length_m":42,"platform":false}},{"type":"Feature","geometry":{"type":"Point","coordinates":[75.25094,10.73541]},"properties":{"peak_db":-5.6,"area_px":2,"approx_length_m":59,"platform":false}},{"type":"Feature","geometry":{"type":"Point","coordinates":[75.3977,10.67288]},"properties":{"peak_db":-4.7,"area_px":1,"approx_length_m":42,"platform":false}},{"type":"Feature","geometry":{"type":"Point","coordinates":[75.39721,10.67185]},"properties":{"peak_db":-4.9,"area_px":1,"approx_length_m":42,"platform":false}},{"type":"Feature","geometry":{"type":"Point","coordinates":[75.3719,10.66843]},"properties":{"peak_db":-6.0,"area_px":1,"approx_length_m":42,"platform":false}},{"type":"Feature","geometry":{"type":"Point","coordinates":[75.43273,10.64972]},"properties":{"peak_db":-4.4,"area_px":2,"approx_length_m":59,"platform":false}},{"type":"Feature","geometry":{"type":"Point","coordinates":[75.96578,10.53476]},"properties":{"peak_db":-6.3,"area_px":1,"approx_length_m":42,"platform":false}},{"type":"Feature","geometry":{"type":"Point","coordinates":[75.35717,10.62743]},"properties":{"peak_db":-6.1,"area_px":1,"approx_length_m":42,"platform":false}},{"type":"Feature","geometry":{"type":"Point","coordinates":[75.488,10.58869]},"properties":{"peak_db":-6.7,"area_px":1,"approx_length_m":42,"platform":false}},{"type":"Feature","geometry":{"type":"Point","coordinates":[75.48845,10.58818]},"properties":{"peak_db":-7.1,"area_px":2,"approx_length_m":59,"platform":false}},{"type":"Feature","geometry":{"type":"Point","coordinates":[75.48831,10.5875]},"properties":{"peak_db":-7.0,"area_px":1,"approx_length_m":42,"platform":false}},{"type":"Feature","geometry":{"type":"Point","coordinates":[75.48187,10.58879]},"properties":{"peak_db":-6.6,"area_px":1,"approx_length_m":42,"platform":false}},{"type":"Feature","geometry":{"type":"Point","coordinates":[74.90941,10.68211]},"properties":{"peak_db":12.0,"area_px":18,"approx_length_m":178,"platform":false}},{"type":"Feature","geometry":{"type":"Point","coordinates":[75.65763,10.53198]},"properties":{"peak_db":-7.2,"area_px":1,"approx_length_m":42,"platform":false}},{"type":"Feature","geometry":{"type":"Point","coordinates":[74.16218,10.81355]},"properties":{"peak_db":7.7,"area_px":2,"approx_length_m":59,"platform":false}},{"type":"Feature","geometry":{"type":"Point","coordinates":[74.16323,10.81221]},"properties":{"peak_db":20.8,"area_px":22,"approx_length_m":197,"platform":false}},{"type":"Feature","geometry":{"type":"Point","coordinates":[75.56218,10.53454]},"properties":{"peak_db":14.1,"area_px":16,"approx_length_m":168,"platform":false}},{"type":"Feature","geometry":{"type":"Point","coordinates":[75.79409,10.48266]},"properties":{"peak_db":-6.4,"area_px":1,"approx_length_m":42,"platform":false}},{"type":"Feature","geometry":{"type":"Point","coordinates":[74.61646,10.7035]},"properties":{"peak_db":2.3,"area_px":6,"approx_length_m":103,"platform":false}},{"type":"Feature","geometry":{"type":"Point","coordinates":[75.70279,10.47783]},"properties":{"peak_db":-5.9,"area_px":1,"approx_length_m":42,"platform":false}},{"type":"Feature","geometry":{"type":"Point","coordinates":[74.68507,10.6683]},"properties":{"peak_db":1.3,"area_px":3,"approx_length_m":73,"platform":false}},{"type":"Feature","geometry":{"type":"Point","coordinates":[74.68607,10.66725]},"properties":{"peak_db":14.3,"area_px":16,"approx_length_m":168,"platform":false}},{"type":"Feature","geometry":{"type":"Point","coordinates":[74.08287,10.77964]},"properties":{"peak_db":11.0,"area_px":11,"approx_length_m":139,"platform":false}},{"type":"Feature","geometry":{"type":"Point","coordinates":[75.83041,10.43195]},"properties":{"peak_db":-7.5,"area_px":1,"approx_length_m":42,"platform":false}},{"type":"Feature","geometry":{"type":"Point","coordinates":[75.67757,10.45018]},"properties":{"peak_db":-7.2,"area_px":1,"approx_length_m":42,"platform":false}},{"type":"Feature","geometry":{"type":"Point","coordinates":[75.69513,10.44032]},"properties":{"peak_db":-6.7,"area_px":2,"approx_length_m":59,"platform":false}},{"type":"Feature","geometry":{"type":"Point","coordinates":[75.691,10.4365]},"properties":{"peak_db":-7.5,"area_px":1,"approx_length_m":42,"platform":false}},{"type":"Feature","geometry":{"type":"Point","coordinates":[75.72539,10.41044]},"properties":{"peak_db":-7.0,"area_px":1,"approx_length_m":42,"platform":false}},{"type":"Feature","geometry":{"type":"Point","coordinates":[75.70671,10.40939]},"properties":{"peak_db":-6.3,"area_px":1,"approx_length_m":42,"platform":false}},{"type":"Feature","geometry":{"type":"Point","coordinates":[75.76095,10.39429]},"properties":{"peak_db":-7.1,"area_px":1,"approx_length_m":42,"platform":false}},{"type":"Feature","geometry":{"type":"Point","coordinates":[75.02774,10.53916]},"properties":{"peak_db":2.0,"area_px":9,"approx_length_m":126,"platform":false}},{"type":"Feature","geometry":{"type":"Point","coordinates":[75.79133,10.38297]},"properties":{"peak_db":-6.2,"area_px":2,"approx_length_m":59,"platform":false}},{"type":"Feature","geometry":{"type":"Point","coordinates":[75.02947,10.53397]},"properties":{"peak_db":-4.2,"area_px":2,"approx_length_m":59,"platform":false}},{"type":"Feature","geometry":{"type":"Point","coordinates":[75.02982,10.53362]},"properties":{"peak_db":-5.0,"area_px":1,"approx_length_m":42,"platform":false}},{"type":"Feature","geometry":{"type":"Point","coordinates":[75.73027,10.37958]},"properties":{"peak_db":-7.9,"area_px":1,"approx_length_m":42,"platform":false}},{"type":"Feature","geometry":{"type":"Point","coordinates":[75.94205,10.3294]},"properties":{"peak_db":-5.1,"area_px":2,"approx_length_m":59,"platform":false}},{"type":"Feature","geometry":{"type":"Point","coordinates":[75.76221,10.36217]},"properties":{"peak_db":-6.9,"area_px":1,"approx_length_m":42,"platform":false}},{"type":"Feature","geometry":{"type":"Point","coordinates":[75.74025,10.34909]},"properties":{"peak_db":-7.8,"area_px":1,"approx_length_m":42,"platform":false}},{"type":"Feature","geometry":{"type":"Point","coordinates":[75.73622,10.3499]},"properties":{"peak_db":-6.7,"area_px":1,"approx_length_m":42,"platform":false}},{"type":"Feature","geometry":{"type":"Point","coordinates":[75.88035,10.31262]},"properties":{"peak_db":-5.6,"area_px":2,"approx_length_m":59,"platform":false}},{"type":"Feature","geometry":{"type":"Point","coordinates":[75.88021,10.31194]},"properties":{"peak_db":-5.7,"area_px":1,"approx_length_m":42,"platform":false}},{"type":"Feature","geometry":{"type":"Point","coordinates":[75.74873,10.32906]},"properties":{"peak_db":-6.0,"area_px":1,"approx_length_m":42,"platform":false}},{"type":"Feature","geometry":{"type":"Point","coordinates":[75.63327,10.34799]},"properties":{"peak_db":-6.0,"area_px":1,"approx_length_m":42,"platform":false}},{"type":"Feature","geometry":{"type":"Point","coordinates":[74.16951,10.63347]},"properties":{"peak_db":2.7,"area_px":1,"approx_length_m":42,"platform":false}},{"type":"Feature","geometry":{"type":"Point","coordinates":[74.16999,10.6331]},"properties":{"peak_db":0.9,"area_px":1,"approx_length_m":42,"platform":false}},{"type":"Feature","geometry":{"type":"Point","coordinates":[74.17118,10.63198]},"properties":{"peak_db":18.0,"area_px":19,"approx_length_m":183,"platform":false}},{"type":"Feature","geometry":{"type":"Point","coordinates":[75.80681,10.30696]},"properties":{"peak_db":-7.8,"area_px":1,"approx_length_m":42,"platform":false}},{"type":"Feature","geometry":{"type":"Point","coordinates":[75.06022,10.45492]},"properties":{"peak_db":10.9,"area_px":24,"approx_length_m":206,"platform":false}},{"type":"Feature","geometry":{"type":"Point","coordinates":[75.77969,10.311]},"properties":{"peak_db":-3.8,"area_px":1,"approx_length_m":42,"platform":false}},{"type":"Feature","geometry":{"type":"Point","coordinates":[74.80764,10.487]},"properties":{"peak_db":10.6,"area_px":19,"approx_length_m":183,"platform":false}},{"type":"Feature","geometry":{"type":"Point","coordinates":[75.80241,10.27316]},"properties":{"peak_db":-7.9,"area_px":1,"approx_length_m":42,"platform":false}},{"type":"Feature","geometry":{"type":"Point","coordinates":[75.75242,10.26924]},"properties":{"peak_db":-1.4,"area_px":2,"approx_length_m":59,"platform":false}},{"type":"Feature","geometry":{"type":"Point","coordinates":[75.16977,10.37368]},"properties":{"peak_db":-4.5,"area_px":7,"approx_length_m":111,"platform":false}},{"type":"Feature","geometry":{"type":"Point","coordinates":[75.17049,10.37202]},"properties":{"peak_db":-5.0,"area_px":3,"approx_length_m":73,"platform":false}},{"type":"Feature","geometry":{"type":"Point","coordinates":[74.27142,10.54752]},"properties":{"peak_db":-3.0,"area_px":1,"approx_length_m":42,"platform":false}},{"type":"Feature","geometry":{"type":"Point","coordinates":[74.27107,10.5466]},"properties":{"peak_db":11.2,"area_px":20,"approx_length_m":188,"platform":false}},{"type":"Feature","geometry":{"type":"Point","coordinates":[75.7295,10.21906]},"properties":{"peak_db":3.9,"area_px":5,"approx_length_m":94,"platform":false}},{"type":"Feature","geometry":{"type":"Point","coordinates":[75.73003,10.2175]},"properties":{"peak_db":9.5,"area_px":16,"approx_length_m":168,"platform":false}},{"type":"Feature","geometry":{"type":"Point","coordinates":[75.899,10.16769]},"properties":{"peak_db":-7.9,"area_px":1,"approx_length_m":42,"platform":false}},{"type":"Feature","geometry":{"type":"Point","coordinates":[76.01273,10.13748]},"properties":{"peak_db":9.1,"area_px":23,"approx_length_m":201,"platform":false}},{"type":"Feature","geometry":{"type":"Point","coordinates":[75.90539,10.15794]},"properties":{"peak_db":-7.9,"area_px":1,"approx_length_m":42,"platform":false}},{"type":"Feature","geometry":{"type":"Point","coordinates":[75.86311,10.15743]},"properties":{"peak_db":-7.3,"area_px":1,"approx_length_m":42,"platform":false}},{"type":"Feature","geometry":{"type":"Point","coordinates":[75.88619,10.12006]},"properties":{"peak_db":-7.0,"area_px":1,"approx_length_m":42,"platform":false}},{"type":"Feature","geometry":{"type":"Point","coordinates":[75.88787,10.11873]},"properties":{"peak_db":-5.3,"area_px":2,"approx_length_m":59,"platform":false}},{"type":"Feature","geometry":{"type":"Point","coordinates":[75.86708,10.12187]},"properties":{"peak_db":-0.9,"area_px":4,"approx_length_m":84,"platform":false}},{"type":"Feature","geometry":{"type":"Point","coordinates":[75.22257,10.2233]},"properties":{"peak_db":12.7,"area_px":21,"approx_length_m":192,"platform":false}},{"type":"Feature","geometry":{"type":"Point","coordinates":[75.97077,10.03682]},"properties":{"peak_db":0.2,"area_px":2,"approx_length_m":59,"platform":false}},{"type":"Feature","geometry":{"type":"Point","coordinates":[75.97149,10.03523]},"properties":{"peak_db":10.7,"area_px":19,"approx_length_m":183,"platform":false}},{"type":"Feature","geometry":{"type":"Point","coordinates":[74.53429,10.31281]},"properties":{"peak_db":9.6,"area_px":17,"approx_length_m":173,"platform":false}},{"type":"Feature","geometry":{"type":"Point","coordinates":[75.98593,10.0023]},"properties":{"peak_db":10.6,"area_px":18,"approx_length_m":178,"platform":false}},{"type":"Feature","geometry":{"type":"Point","coordinates":[74.49106,10.28084]},"properties":{"peak_db":11.5,"area_px":14,"approx_length_m":157,"platform":false}},{"type":"Feature","geometry":{"type":"Point","coordinates":[74.23012,10.32342]},"properties":{"peak_db":18.7,"area_px":16,"approx_length_m":168,"platform":false}},{"type":"Feature","geometry":{"type":"Point","coordinates":[75.29657,10.10404]},"properties":{"peak_db":16.2,"area_px":25,"approx_length_m":210,"platform":false}},{"type":"Feature","geometry":{"type":"Point","coordinates":[75.34758,10.07516]},"properties":{"peak_db":-2.9,"area_px":1,"approx_length_m":42,"platform":false}},{"type":"Feature","geometry":{"type":"Point","coordinates":[74.86096,10.16971]},"properties":{"peak_db":-0.0,"area_px":5,"approx_length_m":94,"platform":false}},{"type":"Feature","geometry":{"type":"Point","coordinates":[75.30448,10.05045]},"properties":{"peak_db":12.2,"area_px":19,"approx_length_m":183,"platform":false}},{"type":"Feature","geometry":{"type":"Point","coordinates":[74.92373,10.11621]},"properties":{"peak_db":12.2,"area_px":17,"approx_length_m":173,"platform":false}},{"type":"Feature","geometry":{"type":"Point","coordinates":[75.9061,9.91948]},"properties":{"peak_db":12.8,"area_px":17,"approx_length_m":173,"platform":false}},{"type":"Feature","geometry":{"type":"Point","coordinates":[75.95182,9.90084]},"properties":{"peak_db":-4.5,"area_px":1,"approx_length_m":42,"platform":false}},{"type":"Feature","geometry":{"type":"Point","coordinates":[75.95198,9.90025]},"properties":{"peak_db":-3.2,"area_px":1,"approx_length_m":42,"platform":false}},{"type":"Feature","geometry":{"type":"Point","coordinates":[75.95187,9.8997]},"properties":{"peak_db":-4.6,"area_px":1,"approx_length_m":42,"platform":false}},{"type":"Feature","geometry":{"type":"Point","coordinates":[75.95205,9.89924]},"properties":{"peak_db":-3.9,"area_px":2,"approx_length_m":59,"platform":false}},{"type":"Feature","geometry":{"type":"Point","coordinates":[75.28864,10.0321]},"properties":{"peak_db":19.6,"area_px":17,"approx_length_m":173,"platform":false}},{"type":"Feature","geometry":{"type":"Point","coordinates":[75.9521,9.89811]},"properties":{"peak_db":-3.9,"area_px":2,"approx_length_m":59,"platform":false}},{"type":"Feature","geometry":{"type":"Point","coordinates":[75.28885,10.0307]},"properties":{"peak_db":11.7,"area_px":2,"approx_length_m":59,"platform":false}},{"type":"Feature","geometry":{"type":"Point","coordinates":[75.28898,10.02997]},"properties":{"peak_db":9.3,"area_px":1,"approx_length_m":42,"platform":false}},{"type":"Feature","geometry":{"type":"Point","coordinates":[75.9523,9.89228]},"properties":{"peak_db":-5.5,"area_px":1,"approx_length_m":42,"platform":false}},{"type":"Feature","geometry":{"type":"Point","coordinates":[75.12187,10.03999]},"properties":{"peak_db":-5.8,"area_px":1,"approx_length_m":42,"platform":false}},{"type":"Feature","geometry":{"type":"Point","coordinates":[75.87461,9.88607]},"properties":{"peak_db":10.0,"area_px":15,"approx_length_m":163,"platform":false}},{"type":"Feature","geometry":{"type":"Point","coordinates":[75.95671,9.84441]},"properties":{"peak_db":-6.2,"area_px":2,"approx_length_m":59,"platform":false}},{"type":"Feature","geometry":{"type":"Point","coordinates":[75.9339,9.84619]},"properties":{"peak_db":-4.8,"area_px":2,"approx_length_m":59,"platform":false}},{"type":"Feature","geometry":{"type":"Point","coordinates":[74.51268,10.12646]},"properties":{"peak_db":6.2,"area_px":17,"approx_length_m":173,"platform":false}},{"type":"Feature","geometry":{"type":"Point","coordinates":[75.88762,9.83622]},"properties":{"peak_db":-3.0,"area_px":2,"approx_length_m":59,"platform":false}},{"type":"Feature","geometry":{"type":"Point","coordinates":[75.50749,9.90497]},"properties":{"peak_db":-7.3,"area_px":1,"approx_length_m":42,"platform":false}},{"type":"Feature","geometry":{"type":"Point","coordinates":[75.39584,9.92683]},"properties":{"peak_db":-5.2,"area_px":1,"approx_length_m":42,"platform":false}},{"type":"Feature","geometry":{"type":"Point","coordinates":[75.89276,9.82249]},"properties":{"peak_db":-4.8,"area_px":1,"approx_length_m":42,"platform":false}},{"type":"Feature","geometry":{"type":"Point","coordinates":[75.48274,9.89585]},"properties":{"peak_db":-5.2,"area_px":1,"approx_length_m":42,"platform":false}},{"type":"Feature","geometry":{"type":"Point","coordinates":[75.19525,9.94912]},"properties":{"peak_db":1.6,"area_px":2,"approx_length_m":59,"platform":false}},{"type":"Feature","geometry":{"type":"Point","coordinates":[75.19601,9.94714]},"properties":{"peak_db":8.1,"area_px":22,"approx_length_m":197,"platform":false}},{"type":"Feature","geometry":{"type":"Point","coordinates":[75.94205,9.77979]},"properties":{"peak_db":-5.9,"area_px":1,"approx_length_m":42,"platform":false}},{"type":"Feature","geometry":{"type":"Point","coordinates":[75.25577,9.89884]},"properties":{"peak_db":8.6,"area_px":19,"approx_length_m":183,"platform":false}},{"type":"Feature","geometry":{"type":"Point","coordinates":[75.22909,9.87797]},"properties":{"peak_db":-7.5,"area_px":1,"approx_length_m":42,"platform":false}},{"type":"Feature","geometry":{"type":"Point","coordinates":[74.7943,9.95993]},"properties":{"peak_db":16.9,"area_px":23,"approx_length_m":201,"platform":false}},{"type":"Feature","geometry":{"type":"Point","coordinates":[75.60666,9.76611]},"properties":{"peak_db":-1.1,"area_px":9,"approx_length_m":126,"platform":false}},{"type":"Feature","geometry":{"type":"Point","coordinates":[75.54604,9.75724]},"properties":{"peak_db":0.1,"area_px":5,"approx_length_m":94,"platform":false}},{"type":"Feature","geometry":{"type":"Point","coordinates":[75.25654,9.8003]},"properties":{"peak_db":6.4,"area_px":22,"approx_length_m":197,"platform":false}},{"type":"Feature","geometry":{"type":"Point","coordinates":[75.32068,9.69774]},"properties":{"peak_db":10.9,"area_px":17,"approx_length_m":173,"platform":false}},{"type":"Feature","geometry":{"type":"Point","coordinates":[75.52144,9.63099]},"properties":{"peak_db":5.2,"area_px":14,"approx_length_m":157,"platform":false}},{"type":"Feature","geometry":{"type":"Point","coordinates":[74.7213,9.77556]},"properties":{"peak_db":14.8,"area_px":24,"approx_length_m":206,"platform":false}},{"type":"Feature","geometry":{"type":"Point","coordinates":[74.72196,9.77449]},"properties":{"peak_db":1.1,"area_px":1,"approx_length_m":42,"platform":false}},{"type":"Feature","geometry":{"type":"Point","coordinates":[74.72233,9.77404]},"properties":{"peak_db":3.6,"area_px":3,"approx_length_m":73,"platform":false}},{"type":"Feature","geometry":{"type":"Point","coordinates":[75.46154,9.56913]},"properties":{"peak_db":17.0,"area_px":23,"approx_length_m":201,"platform":false}},{"type":"Feature","geometry":{"type":"Point","coordinates":[75.55186,9.53428]},"properties":{"peak_db":12.6,"area_px":15,"approx_length_m":163,"platform":false}},{"type":"Feature","geometry":{"type":"Point","coordinates":[75.03613,9.63376]},"properties":{"peak_db":13.3,"area_px":20,"approx_length_m":188,"platform":false}},{"type":"Feature","geometry":{"type":"Point","coordinates":[75.46342,9.52421]},"properties":{"peak_db":10.9,"area_px":16,"approx_length_m":168,"platform":false}}],"properties":{"method":"two-window CFAR, 30 m, 9.0 dB over local background","validated":false}}