{"type":"FeatureCollection","features":[{"type":"Feature","geometry":{"type":"MultiPolygon","coordinates":[[[[75.817969,10.018103],[75.818655,10.018103],[75.818312,10.01673],[75.817969,10.01673],[75.817969,10.018103]]],[[[75.818312,10.01673],[75.818655,10.01673],[75.818655,10.0157],[75.818312,10.0157],[75.818312,10.01673]]],[[[75.585883,10.321944],[75.586226,10.322287],[75.586226,10.321944],[75.585883,10.321944]]],[[[75.583479,10.3216],[75.583823,10.321944],[75.583823,10.3216],[75.583479,10.3216]]],[[[75.575926,10.247443],[75.57627,10.247443],[75.57627,10.246756],[75.576956,10.246756],[75.576613,10.245726],[75.575926,10.246413],[75.575926,10.247443]]],[[[75.574896,10.212424],[75.57627,10.212424],[75.57627,10.211737],[75.574896,10.211737],[75.574896,10.212424]]],[[[75.534041,10.176375],[75.534727,10.178435],[75.535414,10.178435],[75.535757,10.177748],[75.536787,10.177748],[75.536787,10.178435],[75.536444,10.178435],[75.536787,10.179465],[75.537474,10.179465],[75.537474,10.178435],[75.538161,10.178435],[75.538504,10.177748],[75.538847,10.177748],[75.538847,10.178435],[75.539534,10.178435],[75.539534,10.177061],[75.540221,10.177061],[75.540221,10.178435],[75.540907,10.178435],[75.540907,10.179121],[75.541594,10.179808],[75.541251,10.180495],[75.541937,10.180838],[75.541937,10.181525],[75.542967,10.181181],[75.542967,10.183241],[75.543997,10.183241],[75.543997,10.183928],[75.545027,10.184271],[75.545714,10.187361],[75.546744,10.187361],[75.54743,10.189078],[75.549834,10.190108],[75.549147,10.193198],[75.549834,10.194228],[75.55052,10.193884],[75.55052,10.194571],[75.550864,10.194571],[75.550864,10.196974],[75.552237,10.198004],[75.553267,10.198004],[75.553954,10.199034],[75.554984,10.199377],[75.554984,10.200064],[75.556013,10.200064],[75.556013,10.200751],[75.557043,10.200751],[75.557387,10.201437],[75.558073,10.201437],[75.558417,10.202811],[75.559103,10.202467],[75.55979,10.204184],[75.56082,10.204527],[75.561163,10.206587],[75.561507,10.206587],[75.561507,10.207274],[75.561163,10.207274],[75.561507,10.208304],[75.563567,10.208304],[75.56391,10.209677],[75.565283,10.21002],[75.565283,10.210707],[75.564597,10.210707],[75.565283,10.212424],[75.566656,10.212767],[75.567343,10.213797],[75.568373,10.213454],[75.568373,10.212767],[75.569746,10.212767],[75.570433,10.213454],[75.57112,10.213454],[75.571806,10.212767],[75.571463,10.214484],[75.57215,10.214484],[75.57215,10.21414],[75.573523,10.214484],[75.573523,10.21414],[75.572836,10.21414],[75.572836,10.213454],[75.574553,10.213797],[75.57421,10.21208],[75.573866,10.21208],[75.573866,10.212767],[75.572836,10.212424],[75.57318,10.21105],[75.573866,10.211394],[75.574553,10.210707],[75.572836,10.210364],[75.572836,10.21105],[75.571463,10.210707],[75.571463,10.210364],[75.570776,10.210707],[75.570776,10.21002],[75.569746,10.209677],[75.569746,10.20899],[75.57009,10.208647],[75.57112,10.20899],[75.57112,10.208647],[75.56906,10.207961],[75.568373,10.205557],[75.566656,10.205901],[75.566313,10.204871],[75.56494,10.204871],[75.56494,10.205214],[75.563567,10.204871],[75.563223,10.205214],[75.56288,10.203497],[75.563223,10.203154],[75.564597,10.203497],[75.564597,10.203154],[75.563223,10.202811],[75.563223,10.201094],[75.562537,10.200064],[75.56185,10.200064],[75.56185,10.199034],[75.561507,10.198691],[75.560477,10.199034],[75.559447,10.198004],[75.559447,10.197318],[75.558417,10.197318],[75.558417,10.195944],[75.55773,10.195944],[75.55773,10.195258],[75.557043,10.195258],[75.55773,10.194571],[75.55773,10.193541],[75.557043,10.193541],[75.5567,10.192168],[75.55773,10.193198],[75.558073,10.192854],[75.55773,10.191138],[75.5567,10.191138],[75.5567,10.190451],[75.554984,10.190451],[75.55464,10.189078],[75.553954,10.189078],[75.553954,10.189421],[75.553267,10.189078],[75.55361,10.187018],[75.552924,10.187018],[75.552924,10.187704],[75.55258,10.187704],[75.552237,10.186331],[75.549834,10.185988],[75.549147,10.182555],[75.54846,10.182211],[75.548117,10.181181],[75.54743,10.181181],[75.546744,10.178435],[75.545714,10.178091],[75.545714,10.177748],[75.5464,10.177748],[75.546744,10.175688],[75.548117,10.175345],[75.54846,10.174315],[75.54743,10.174315],[75.546744,10.173285],[75.545027,10.173285],[75.545027,10.171568],[75.543997,10.171225],[75.543997,10.170538],[75.544684,10.170538],[75.54537,10.169852],[75.54537,10.169165],[75.545027,10.169165],[75.54537,10.168478],[75.544341,10.168478],[75.544341,10.167105],[75.544684,10.167105],[75.544341,10.166418],[75.544684,10.166418],[75.544684,10.165732],[75.54537,10.165732],[75.54537,10.165045],[75.547087,10.165045],[75.546744,10.162985],[75.54743,10.163329],[75.54743,10.164359],[75.548804,10.165045],[75.549147,10.162299],[75.550864,10.161612],[75.550864,10.160239],[75.551207,10.160239],[75.550864,10.159209],[75.551894,10.159209],[75.55155,10.159552],[75.551894,10.160239],[75.553954,10.160239],[75.553267,10.157835],[75.55258,10.157835],[75.55258,10.157492],[75.550864,10.157835],[75.551207,10.156805],[75.552237,10.156805],[75.552237,10.156119],[75.55258,10.156119],[75.55258,10.155089],[75.551894,10.156119],[75.551207,10.156119],[75.551207,10.154059],[75.551894,10.154059],[75.551894,10.153029],[75.549834,10.153716],[75.549147,10.155775],[75.548117,10.155432],[75.547774,10.157149],[75.5464,10.157149],[75.545714,10.157835],[75.545027,10.157835],[75.54537,10.158865],[75.543311,10.158522],[75.543654,10.159895],[75.543311,10.159552],[75.542624,10.159895],[75.542967,10.161612],[75.542281,10.162299],[75.541594,10.162299],[75.541251,10.162985],[75.540221,10.162642],[75.539534,10.163329],[75.539534,10.166075],[75.538161,10.168135],[75.538504,10.169165],[75.539534,10.169852],[75.539534,10.170538],[75.539191,10.170538],[75.539534,10.173972],[75.538161,10.173972],[75.538504,10.174658],[75.539191,10.174658],[75.538847,10.176375],[75.537131,10.176718],[75.536444,10.176031],[75.535757,10.176031],[75.535757,10.176718],[75.534041,10.176375]],[[75.553267,10.189421],[75.55361,10.189764],[75.553267,10.189764],[75.553267,10.189421]],[[75.550864,10.158865],[75.55052,10.159209],[75.55052,10.158865],[75.550864,10.158865]],[[75.569403,10.210707],[75.569403,10.21002],[75.569746,10.21002],[75.57009,10.210707],[75.569403,10.210707]],[[75.57009,10.210707],[75.570776,10.21105],[75.570776,10.211737],[75.57009,10.211394],[75.57009,10.210707]],[[75.565627,10.206587],[75.565283,10.205901],[75.56597,10.205557],[75.566313,10.206244],[75.565627,10.206587]],[[75.562193,10.207617],[75.562193,10.206931],[75.56288,10.207274],[75.56288,10.207617],[75.562193,10.207617]],[[75.54846,10.160239],[75.54846,10.159552],[75.548804,10.159552],[75.548804,10.160239],[75.54846,10.160239]],[[75.545714,10.164015],[75.54537,10.163672],[75.545714,10.163672],[75.545714,10.164015]],[[75.545027,10.160239],[75.545027,10.159895],[75.545714,10.159895],[75.545714,10.160239],[75.545027,10.160239]],[[75.545027,10.179465],[75.545027,10.178435],[75.54537,10.178435],[75.54537,10.179465],[75.545027,10.179465]],[[75.543997,10.163672],[75.544341,10.162299],[75.543654,10.162299],[75.543654,10.160582],[75.544341,10.160582],[75.544684,10.161955],[75.54537,10.161612],[75.54537,10.162642],[75.544684,10.163672],[75.543997,10.163672]],[[75.544684,10.179121],[75.544341,10.178778],[75.544684,10.178778],[75.544684,10.179121]],[[75.542967,10.168478],[75.542967,10.167792],[75.543654,10.167792],[75.543654,10.168478],[75.542967,10.168478]],[[75.543311,10.167448],[75.542967,10.167105],[75.543311,10.167105],[75.543311,10.167448]],[[75.540221,10.173285],[75.540221,10.172598],[75.540564,10.172598],[75.540564,10.173285],[75.540221,10.173285]],[[75.539191,10.168478],[75.538847,10.168135],[75.539191,10.168135],[75.539191,10.168478]],[[75.537474,10.177748],[75.537131,10.177405],[75.537474,10.177405],[75.537474,10.177748]]],[[[75.531981,10.177061],[75.532324,10.177061],[75.532324,10.176031],[75.532668,10.176031],[75.532324,10.175345],[75.533011,10.174315],[75.533354,10.174315],[75.533354,10.175002],[75.533698,10.175002],[75.533698,10.173972],[75.536101,10.174658],[75.536101,10.173972],[75.535757,10.173972],[75.536101,10.172942],[75.535414,10.172255],[75.534384,10.172255],[75.534384,10.171912],[75.533354,10.172255],[75.533354,10.171568],[75.533011,10.171568],[75.533011,10.172255],[75.531981,10.172598],[75.532324,10.174658],[75.531638,10.174658],[75.531638,10.173972],[75.530608,10.173972],[75.530264,10.173285],[75.528891,10.173628],[75.529234,10.175002],[75.530264,10.174658],[75.530608,10.176031],[75.531294,10.176031],[75.531294,10.175688],[75.531981,10.176031],[75.531981,10.177061]],[[75.534384,10.173285],[75.534384,10.172942],[75.535414,10.172942],[75.535414,10.173285],[75.534384,10.173285]],[[75.533698,10.172942],[75.533354,10.172598],[75.533698,10.172598],[75.533698,10.172942]]],[[[75.535757,10.175002],[75.535414,10.174658],[75.535414,10.175002],[75.535757,10.175002]]],[[[75.533354,10.175002],[75.532668,10.175688],[75.533698,10.176031],[75.533698,10.175345],[75.533354,10.175002]]],[[[75.534041,10.176031],[75.533698,10.176375],[75.534041,10.176375],[75.534041,10.176031]]],[[[75.538847,10.178778],[75.538504,10.178435],[75.538504,10.178778],[75.538847,10.178778]]],[[[75.539877,10.178435],[75.539534,10.178778],[75.539877,10.178778],[75.539877,10.178435]]],[[[75.574553,10.213797],[75.574553,10.214484],[75.57524,10.214484],[75.57524,10.21414],[75.574553,10.213797]]],[[[75.571463,10.216544],[75.572493,10.216544],[75.57215,10.214827],[75.571463,10.215514],[75.571806,10.215857],[75.571463,10.216544]]],[[[75.571463,10.20899],[75.571806,10.209334],[75.571806,10.20899],[75.571463,10.20899]]],[[[75.570433,10.214484],[75.57112,10.21517],[75.57112,10.214484],[75.570433,10.214484]]],[[[75.568716,10.213454],[75.56906,10.213797],[75.56906,10.213454],[75.568716,10.213454]]],[[[75.521338,10.300314],[75.522368,10.300314],[75.522025,10.299284],[75.523398,10.298941],[75.525114,10.296881],[75.524771,10.295851],[75.523741,10.296194],[75.525114,10.294821],[75.525114,10.294135],[75.524771,10.294135],[75.525114,10.290015],[75.526144,10.290015],[75.526144,10.291045],[75.526831,10.291045],[75.526488,10.289671],[75.527174,10.289671],[75.527861,10.288641],[75.529234,10.288985],[75.529578,10.287955],[75.528891,10.287955],[75.528891,10.287268],[75.529921,10.286238],[75.532324,10.286581],[75.533011,10.285895],[75.533011,10.285551],[75.532324,10.285551],[75.532324,10.283835],[75.532668,10.283835],[75.532668,10.283148],[75.533698,10.283148],[75.534384,10.282118],[75.534727,10.282118],[75.534727,10.283148],[75.534384,10.283148],[75.534041,10.285208],[75.534727,10.285895],[75.536101,10.286238],[75.535757,10.287611],[75.536444,10.287268],[75.536444,10.285895],[75.537131,10.285551],[75.537131,10.284865],[75.537474,10.285208],[75.540564,10.285208],[75.539534,10.284521],[75.539534,10.284178],[75.540221,10.284178],[75.540221,10.283492],[75.539534,10.283492],[75.540221,10.282462],[75.539191,10.282462],[75.539534,10.282118],[75.539191,10.280745],[75.538504,10.280745],[75.538504,10.281088],[75.537131,10.280745],[75.537817,10.282462],[75.536444,10.283835],[75.536444,10.281775],[75.535757,10.281775],[75.535757,10.281432],[75.536101,10.281432],[75.536101,10.280745],[75.536787,10.280745],[75.537131,10.278685],[75.538161,10.277655],[75.539877,10.277312],[75.540221,10.275938],[75.541594,10.275938],[75.541594,10.275595],[75.542624,10.275595],[75.542967,10.276625],[75.543654,10.276625],[75.543311,10.275595],[75.543654,10.275938],[75.545027,10.275595],[75.54537,10.277655],[75.547087,10.277655],[75.547087,10.278342],[75.547774,10.278342],[75.547774,10.276968],[75.54846,10.276968],[75.54846,10.275938],[75.548804,10.275938],[75.548804,10.274908],[75.54846,10.274908],[75.548804,10.274222],[75.548117,10.273192],[75.54949,10.272162],[75.54949,10.271475],[75.548804,10.271475],[75.548804,10.268729],[75.549834,10.268385],[75.549834,10.269072],[75.550864,10.269415],[75.550864,10.270102],[75.551207,10.270102],[75.552237,10.269415],[75.55258,10.267699],[75.553954,10.266325],[75.55361,10.264952],[75.554984,10.264952],[75.554984,10.265639],[75.55464,10.265639],[75.554984,10.266669],[75.556013,10.266325],[75.556357,10.263922],[75.5567,10.263922],[75.556357,10.262892],[75.55773,10.262549],[75.558073,10.262892],[75.55773,10.263922],[75.560477,10.263235],[75.560477,10.262206],[75.561163,10.261862],[75.56082,10.258772],[75.562193,10.258429],[75.562193,10.257742],[75.562537,10.257742],[75.562193,10.257056],[75.561163,10.257399],[75.56082,10.258086],[75.560133,10.258086],[75.560133,10.258772],[75.559447,10.258772],[75.55876,10.259459],[75.557387,10.259459],[75.557387,10.260146],[75.556357,10.260146],[75.556013,10.260832],[75.555327,10.260832],[75.553954,10.262549],[75.55258,10.262549],[75.551894,10.264265],[75.55155,10.264609],[75.55052,10.264265],[75.55052,10.264952],[75.54949,10.265639],[75.549147,10.267355],[75.54743,10.267699],[75.54743,10.268729],[75.546744,10.269415],[75.545714,10.269415],[75.54537,10.270102],[75.543997,10.270445],[75.543997,10.271132],[75.542624,10.271475],[75.542281,10.272849],[75.541251,10.273192],[75.540907,10.273878],[75.539877,10.273878],[75.538847,10.274908],[75.537817,10.274908],[75.537474,10.276282],[75.536444,10.277312],[75.535757,10.277312],[75.535757,10.277998],[75.534727,10.279028],[75.533354,10.279372],[75.533011,10.281088],[75.531981,10.281088],[75.532324,10.281775],[75.531981,10.282118],[75.531294,10.281775],[75.530608,10.282462],[75.530951,10.283492],[75.528891,10.283835],[75.528548,10.284865],[75.527861,10.284521],[75.526831,10.285208],[75.525801,10.287611],[75.524771,10.287955],[75.524771,10.288641],[75.523741,10.289328],[75.524428,10.290701],[75.523055,10.291045],[75.523055,10.291388],[75.523741,10.291388],[75.523741,10.292075],[75.523055,10.292418],[75.523055,10.293448],[75.522711,10.293448],[75.522711,10.294135],[75.523055,10.294135],[75.522711,10.295508],[75.523398,10.295508],[75.523398,10.296194],[75.523055,10.296194],[75.522711,10.298254],[75.521681,10.297911],[75.521338,10.300314]],[[75.537817,10.282805],[75.538161,10.282462],[75.538161,10.282805],[75.537817,10.282805]],[[75.560477,10.260832],[75.560133,10.260489],[75.560477,10.260489],[75.560477,10.260832]],[[75.55876,10.261176],[75.558417,10.260832],[75.55876,10.260832],[75.55876,10.261176]],[[75.559103,10.260832],[75.55876,10.260489],[75.559103,10.260489],[75.559103,10.260832]],[[75.54846,10.272505],[75.548117,10.272162],[75.54846,10.272162],[75.54846,10.272505]],[[75.54537,10.273878],[75.54537,10.273535],[75.544684,10.273535],[75.544684,10.272849],[75.546057,10.272505],[75.545714,10.273535],[75.5464,10.273535],[75.5464,10.273878],[75.54537,10.273878]],[[75.543654,10.275252],[75.543654,10.274565],[75.544341,10.274908],[75.544341,10.275252],[75.543654,10.275252]],[[75.538504,10.282118],[75.538161,10.281775],[75.538504,10.281775],[75.538504,10.282118]],[[75.533011,10.282805],[75.532668,10.282462],[75.533011,10.282462],[75.533011,10.282805]],[[75.529921,10.285208],[75.530264,10.284521],[75.530608,10.284521],[75.530608,10.285208],[75.529921,10.285208]],[[75.528891,10.285551],[75.528891,10.284865],[75.529578,10.285208],[75.529578,10.285551],[75.528891,10.285551]]],[[[75.54537,10.277655],[75.545027,10.277655],[75.545027,10.278685],[75.544341,10.279372],[75.543654,10.279372],[75.543311,10.280402],[75.542281,10.280402],[75.542281,10.281088],[75.543311,10.281088],[75.543311,10.281432],[75.543997,10.280745],[75.546057,10.281088],[75.545027,10.280058],[75.545027,10.279372],[75.5464,10.279372],[75.5464,10.279028],[75.54537,10.279028],[75.54537,10.277655]]],[[[75.531294,10.286581],[75.530951,10.286925],[75.531294,10.286925],[75.531294,10.286581]]],[[[75.543654,10.281432],[75.543311,10.282118],[75.544341,10.282118],[75.544341,10.281432],[75.543654,10.281432]]],[[[75.543311,10.282118],[75.541937,10.282462],[75.541937,10.282805],[75.540564,10.282805],[75.540564,10.283148],[75.542967,10.283835],[75.542967,10.283148],[75.543654,10.283148],[75.543311,10.282118]]],[[[75.561507,10.260146],[75.56185,10.260489],[75.56185,10.260146],[75.561507,10.260146]]],[[[75.558073,10.191824],[75.55876,10.191824],[75.559103,10.190794],[75.558073,10.190451],[75.558073,10.191824]]],[[[75.552924,10.153029],[75.553267,10.153372],[75.552924,10.151999],[75.55361,10.151999],[75.554297,10.152686],[75.553954,10.153372],[75.55464,10.153372],[75.55464,10.151999],[75.55567,10.151999],[75.55567,10.151656],[75.554984,10.151656],[75.554984,10.150969],[75.554297,10.150969],[75.554297,10.150626],[75.553954,10.150969],[75.553267,10.150626],[75.553267,10.151312],[75.55258,10.151312],[75.55258,10.151999],[75.552237,10.151999],[75.552237,10.153029],[75.552924,10.153029]]],[[[75.55361,10.156119],[75.554297,10.156119],[75.554297,10.155432],[75.55464,10.155432],[75.554297,10.154745],[75.553267,10.155089],[75.55361,10.156119]]],[[[75.552924,10.154745],[75.55361,10.154745],[75.55361,10.153716],[75.552924,10.154059],[75.552924,10.154745]]],[[[75.55258,10.186331],[75.552924,10.186674],[75.552924,10.186331],[75.55258,10.186331]]],[[[75.551894,10.154402],[75.552237,10.154745],[75.552237,10.154402],[75.551894,10.154402]]],[[[75.551207,10.162299],[75.551894,10.162299],[75.551894,10.161955],[75.551207,10.161955],[75.551207,10.162299]]],[[[75.55052,10.036642],[75.551207,10.036642],[75.551207,10.036299],[75.55052,10.036299],[75.55052,10.036642]]],[[[75.54949,10.036642],[75.549834,10.036642],[75.549834,10.035956],[75.54949,10.035956],[75.54949,10.036642]]],[[[75.549147,10.163672],[75.549834,10.163672],[75.549834,10.163329],[75.549147,10.163329],[75.549147,10.163672]]],[[[75.54743,10.285208],[75.547774,10.285208],[75.547774,10.283835],[75.54846,10.283492],[75.54846,10.283148],[75.547774,10.283148],[75.547774,10.282118],[75.54743,10.282118],[75.54743,10.283148],[75.5464,10.283835],[75.5464,10.284521],[75.54743,10.284521],[75.54743,10.285208]]],[[[75.5464,10.282118],[75.547087,10.282118],[75.54743,10.281432],[75.5464,10.281432],[75.5464,10.282118]]],[[[75.54743,10.281088],[75.548117,10.281775],[75.548117,10.281088],[75.54743,10.281088]]],[[[75.54743,10.278685],[75.547774,10.279028],[75.547774,10.278685],[75.54743,10.278685]]],[[[75.5464,10.285895],[75.546744,10.285895],[75.546744,10.285208],[75.5464,10.285208],[75.5464,10.285895]]],[[[75.546057,10.279715],[75.5464,10.280058],[75.5464,10.279715],[75.546057,10.279715]]],[[[75.543654,10.277312],[75.544684,10.277312],[75.545027,10.276625],[75.543997,10.276625],[75.543654,10.277312]]],[[[75.544341,10.282805],[75.544684,10.283148],[75.544684,10.282805],[75.544341,10.282805]]],[[[75.543654,10.285895],[75.543997,10.285895],[75.543997,10.285208],[75.543654,10.285208],[75.543654,10.285895]]],[[[75.543997,10.285208],[75.544341,10.285208],[75.544341,10.284521],[75.543997,10.284521],[75.543997,10.285208]]],[[[75.541594,10.160582],[75.542281,10.160582],[75.542281,10.159552],[75.541594,10.159552],[75.541594,10.160582]]],[[[75.540564,10.284178],[75.541594,10.284178],[75.541594,10.283835],[75.540564,10.283835],[75.540564,10.284178]]],[[[75.540221,10.180151],[75.540907,10.180151],[75.540907,10.179465],[75.540221,10.179465],[75.540221,10.180151]]],[[[75.540221,10.279372],[75.540564,10.279715],[75.540564,10.279372],[75.540221,10.279372]]],[[[75.539877,10.279028],[75.540564,10.279028],[75.540564,10.278342],[75.539877,10.278342],[75.539877,10.279028]]],[[[75.533698,10.171568],[75.534041,10.171568],[75.534384,10.170882],[75.533698,10.170882],[75.533698,10.171568]]],[[[75.533354,10.177748],[75.533698,10.177748],[75.533698,10.177061],[75.533354,10.177061],[75.533354,10.177748]]],[[[75.531638,10.171912],[75.531981,10.172255],[75.531981,10.171912],[75.531638,10.171912]]],[[[75.530951,10.173285],[75.531294,10.173628],[75.531294,10.173285],[75.530951,10.173285]]],[[[75.530264,10.177405],[75.530951,10.177405],[75.530951,10.177061],[75.530264,10.177061],[75.530264,10.177405]]],[[[75.530951,10.176718],[75.531294,10.177061],[75.531294,10.176718],[75.530951,10.176718]]],[[[75.530264,10.418417],[75.530951,10.419104],[75.530951,10.418417],[75.530264,10.418417]]],[[[75.528548,10.176718],[75.529234,10.176718],[75.529234,10.176375],[75.528548,10.176375],[75.528548,10.176718]]],[[[75.527518,10.178091],[75.528891,10.178091],[75.528548,10.177061],[75.528204,10.177061],[75.528204,10.177748],[75.527518,10.177748],[75.527518,10.178091]]],[[[75.525458,10.293448],[75.526144,10.293448],[75.526144,10.293105],[75.525458,10.293105],[75.525458,10.293448]]],[[[75.501425,10.424254],[75.501768,10.424597],[75.501768,10.424254],[75.501425,10.424254]]],[[[75.501768,10.424254],[75.502455,10.424254],[75.502798,10.425627],[75.501425,10.425627],[75.502455,10.426314],[75.501425,10.427344],[75.525458,10.427344],[75.525458,10.426657],[75.524084,10.426657],[75.524428,10.425284],[75.523398,10.42494],[75.523398,10.423911],[75.523055,10.423911],[75.523398,10.421507],[75.522711,10.422537],[75.521681,10.421507],[75.521681,10.420477],[75.522368,10.420134],[75.522368,10.418761],[75.522025,10.418761],[75.522025,10.417044],[75.522711,10.416357],[75.522368,10.414984],[75.521338,10.415327],[75.521338,10.416357],[75.520651,10.416014],[75.519965,10.417044],[75.518935,10.416357],[75.519278,10.415327],[75.516875,10.414984],[75.516531,10.415671],[75.515158,10.415327],[75.514815,10.416357],[75.514128,10.416357],[75.513785,10.415671],[75.512755,10.415671],[75.512411,10.416357],[75.511382,10.416014],[75.511382,10.416701],[75.507262,10.416357],[75.506232,10.417731],[75.505545,10.417731],[75.505545,10.417044],[75.505202,10.417044],[75.505202,10.417731],[75.504172,10.417731],[75.503828,10.416014],[75.502112,10.416357],[75.502112,10.416701],[75.499022,10.416014],[75.499365,10.418417],[75.500052,10.419104],[75.500739,10.419104],[75.500739,10.420477],[75.501425,10.420477],[75.501425,10.421851],[75.502112,10.421851],[75.502112,10.422194],[75.501425,10.422194],[75.501425,10.422537],[75.502112,10.422537],[75.501768,10.424254]],[[75.521681,10.417731],[75.521338,10.417387],[75.521681,10.417387],[75.521681,10.417731]],[[75.502798,10.427],[75.502798,10.426657],[75.503485,10.426657],[75.503485,10.427],[75.502798,10.427]]],[[[75.523055,10.420134],[75.523741,10.421164],[75.524084,10.420134],[75.523055,10.420134]]],[[[75.522025,10.296194],[75.522368,10.296538],[75.522368,10.296194],[75.522025,10.296194]]],[[[75.514815,10.315077],[75.515501,10.315421],[75.515501,10.316107],[75.516188,10.316107],[75.516188,10.314734],[75.516531,10.314734],[75.516188,10.313704],[75.516875,10.313361],[75.517218,10.310957],[75.518248,10.309927],[75.517905,10.307867],[75.518935,10.307181],[75.518935,10.306494],[75.518248,10.306494],[75.518248,10.305807],[75.517905,10.305807],[75.517905,10.304778],[75.519621,10.304091],[75.519621,10.303404],[75.519965,10.303404],[75.519621,10.302374],[75.520308,10.302031],[75.520651,10.301001],[75.517905,10.301344],[75.517905,10.302374],[75.517218,10.302718],[75.517561,10.304091],[75.516531,10.304091],[75.516188,10.305464],[75.515501,10.305464],[75.515501,10.305807],[75.516531,10.305807],[75.516188,10.307524],[75.515158,10.307181],[75.515158,10.305807],[75.514815,10.305807],[75.514815,10.307181],[75.513785,10.307181],[75.513785,10.308897],[75.513098,10.309241],[75.513441,10.310271],[75.513098,10.310614],[75.512068,10.310271],[75.512068,10.312674],[75.512755,10.312674],[75.512755,10.311301],[75.513441,10.311301],[75.513441,10.310614],[75.514128,10.310614],[75.515501,10.309241],[75.516188,10.309241],[75.515845,10.309927],[75.514815,10.310271],[75.514815,10.310614],[75.515845,10.310614],[75.515845,10.311301],[75.516188,10.311301],[75.515845,10.312331],[75.515158,10.311644],[75.514471,10.311644],[75.513785,10.312674],[75.515158,10.313704],[75.514815,10.315077]],[[75.516188,10.309241],[75.516188,10.308554],[75.516531,10.308554],[75.516531,10.309241],[75.516188,10.309241]],[[75.514815,10.308211],[75.514815,10.307524],[75.515501,10.307524],[75.515501,10.308211],[75.514815,10.308211]],[[75.515158,10.308897],[75.514815,10.308554],[75.515158,10.308554],[75.515158,10.308897]]],[[[75.514471,10.318854],[75.515158,10.318854],[75.514815,10.315077],[75.514128,10.315764],[75.514471,10.316794],[75.513785,10.317824],[75.513785,10.31851],[75.514471,10.31851],[75.514471,10.318854]]],[[[75.520651,10.301344],[75.520651,10.301688],[75.521338,10.301688],[75.521338,10.301344],[75.520651,10.301344]]],[[[75.519278,10.304778],[75.519621,10.305121],[75.519621,10.304778],[75.519278,10.304778]]],[[[75.517905,10.413268],[75.518248,10.413611],[75.518248,10.413268],[75.517905,10.413268]]],[[[75.516531,10.414297],[75.517218,10.414297],[75.517218,10.413954],[75.516531,10.413954],[75.516531,10.414297]]],[[[75.513785,10.306494],[75.514128,10.306837],[75.514128,10.306494],[75.513785,10.306494]]],[[[75.513098,10.307181],[75.513441,10.307524],[75.513441,10.307181],[75.513098,10.307181]]],[[[75.507948,10.415327],[75.508978,10.415327],[75.508978,10.414984],[75.507605,10.414641],[75.507948,10.415327]]],[[[75.504858,10.415671],[75.505545,10.415671],[75.505545,10.414984],[75.504858,10.415327],[75.504858,10.415671]]],[[[75.501082,10.42494],[75.501425,10.425284],[75.501425,10.42494],[75.501082,10.42494]]],[[[75.474303,10.400221],[75.474646,10.400565],[75.474646,10.400221],[75.474303,10.400221]]],[[[75.471213,10.403654],[75.472586,10.403654],[75.472586,10.403311],[75.473273,10.403311],[75.473273,10.402625],[75.473959,10.402625],[75.473616,10.402281],[75.473959,10.399878],[75.473616,10.399878],[75.473616,10.399191],[75.472929,10.399191],[75.472929,10.398505],[75.470526,10.398161],[75.470183,10.398848],[75.468466,10.399191],[75.467093,10.400565],[75.467093,10.401938],[75.467436,10.401938],[75.467436,10.402968],[75.468466,10.402625],[75.468466,10.403311],[75.471213,10.403311],[75.471213,10.403654]],[[75.470869,10.399878],[75.470869,10.399535],[75.471556,10.399535],[75.471556,10.399878],[75.470869,10.399878]],[[75.46881,10.401938],[75.468123,10.401251],[75.46881,10.401251],[75.46881,10.401938]],[[75.469153,10.401251],[75.46881,10.400908],[75.469153,10.400908],[75.469153,10.401251]],[[75.46881,10.401938],[75.469153,10.401938],[75.469153,10.402281],[75.46881,10.402281],[75.46881,10.401938]]],[[[75.472929,10.403654],[75.473273,10.403998],[75.473273,10.403654],[75.472929,10.403654]]],[[[75.469153,10.403654],[75.469496,10.403998],[75.469496,10.403654],[75.469153,10.403654]]],[[[75.470526,10.403654],[75.469496,10.404341],[75.470869,10.404684],[75.470526,10.403654]]],[[[75.46675,10.398161],[75.468123,10.397131],[75.46778,10.396445],[75.466406,10.396445],[75.46675,10.398161]]],[[[75.466063,10.405714],[75.466406,10.406058],[75.466406,10.403998],[75.46572,10.403311],[75.465033,10.403654],[75.46469,10.402281],[75.464346,10.402281],[75.464346,10.403998],[75.465033,10.404684],[75.46469,10.405371],[75.466063,10.405714]]],[[[75.465376,10.398505],[75.466063,10.397818],[75.466063,10.396788],[75.465376,10.397131],[75.465376,10.398505]]],[[[75.465033,10.402968],[75.46572,10.402968],[75.46572,10.401938],[75.465033,10.401938],[75.465033,10.402968]]],[[[75.46366,10.395415],[75.464003,10.395758],[75.464003,10.395415],[75.46366,10.395415]]],[[[75.464003,10.395415],[75.465376,10.396101],[75.46572,10.394728],[75.465376,10.394385],[75.464003,10.394728],[75.464003,10.395415]]],[[[75.464003,10.42597],[75.464346,10.426314],[75.464346,10.42597],[75.464003,10.42597]]],[[[75.464346,10.426314],[75.464346,10.427344],[75.465033,10.427344],[75.46469,10.426314],[75.464346,10.426314]]],[[[75.451987,10.424597],[75.45233,10.424254],[75.454047,10.424597],[75.453703,10.422881],[75.455763,10.420477],[75.45748,10.420477],[75.457823,10.421164],[75.45851,10.421164],[75.458853,10.422194],[75.459196,10.422194],[75.459196,10.421507],[75.460226,10.421851],[75.46057,10.421507],[75.460226,10.419791],[75.461256,10.419447],[75.461256,10.418417],[75.463316,10.418074],[75.464346,10.417387],[75.464003,10.416357],[75.463316,10.416357],[75.463316,10.416701],[75.462286,10.416357],[75.462286,10.417044],[75.46057,10.417387],[75.460226,10.416701],[75.45954,10.416701],[75.459883,10.414641],[75.459196,10.415327],[75.45748,10.414984],[75.45851,10.414297],[75.45851,10.413954],[75.457823,10.413954],[75.457823,10.413268],[75.45851,10.413268],[75.45851,10.412581],[75.459196,10.412581],[75.458853,10.410864],[75.45954,10.410864],[75.45954,10.410178],[75.460226,10.409834],[75.460226,10.408461],[75.46057,10.408461],[75.460226,10.406744],[75.4616,10.406058],[75.4616,10.404684],[75.463316,10.404684],[75.462286,10.403654],[75.46263,10.402281],[75.461943,10.402281],[75.461943,10.402968],[75.461256,10.402968],[75.461256,10.404341],[75.46057,10.404341],[75.46057,10.405028],[75.459883,10.405371],[75.459883,10.405028],[75.459196,10.405028],[75.459196,10.404341],[75.458167,10.403311],[75.45645,10.403654],[75.45645,10.402625],[75.456793,10.402625],[75.45645,10.400908],[75.45542,10.400565],[75.454733,10.399535],[75.45439,10.399535],[75.454733,10.401251],[75.455763,10.401251],[75.455763,10.403998],[75.456107,10.403998],[75.455763,10.405714],[75.45645,10.405714],[75.456793,10.404684],[75.457823,10.404341],[75.457823,10.405371],[75.45954,10.405714],[75.45954,10.407088],[75.45851,10.408118],[75.45851,10.408804],[75.45748,10.408804],[75.457137,10.409491],[75.45645,10.409491],[75.45645,10.410178],[75.45439,10.409834],[75.454047,10.408804],[75.45336,10.409834],[75.45233,10.409491],[75.45233,10.410178],[75.45336,10.410178],[75.45336,10.410864],[75.452673,10.411551],[75.45233,10.411551],[75.451643,10.409491],[75.4513,10.409491],[75.4513,10.410521],[75.44924,10.409834],[75.44924,10.411208],[75.45027,10.412238],[75.45027,10.413954],[75.449583,10.413954],[75.449583,10.413268],[75.44924,10.413268],[75.448897,10.413611],[75.44924,10.414297],[75.44821,10.416014],[75.446837,10.415671],[75.446837,10.416357],[75.44615,10.416357],[75.445807,10.418761],[75.44512,10.419104],[75.44512,10.419791],[75.445464,10.419791],[75.44512,10.421851],[75.445807,10.421851],[75.44615,10.423224],[75.447523,10.423224],[75.447523,10.422194],[75.448897,10.422537],[75.448897,10.422881],[75.449927,10.422537],[75.449927,10.423224],[75.450613,10.423224],[75.450957,10.423911],[75.451987,10.423911],[75.451987,10.424597]],[[75.458853,10.410521],[75.45851,10.410864],[75.45851,10.410521],[75.458853,10.410521]],[[75.457823,10.416357],[75.457823,10.415671],[75.45851,10.416014],[75.45851,10.416357],[75.457823,10.416357]],[[75.45645,10.414641],[75.456793,10.414297],[75.45645,10.412924],[75.457137,10.412581],[75.457137,10.414641],[75.45645,10.414641]]],[[[75.45439,10.399535],[75.45439,10.399191],[75.453703,10.398848],[75.453703,10.399535],[75.45439,10.399535]]],[[[75.453703,10.398848],[75.453703,10.397818],[75.45336,10.397818],[75.45336,10.398848],[75.453703,10.398848]]],[[[75.456793,10.401938],[75.45748,10.401938],[75.45748,10.401595],[75.456793,10.401595],[75.456793,10.401938]]],[[[75.463316,10.404684],[75.462973,10.405371],[75.464346,10.405028],[75.464346,10.404341],[75.463316,10.404684]]],[[[75.45954,10.412581],[75.459196,10.412924],[75.45954,10.412924],[75.45954,10.412581]]],[[[75.459883,10.422194],[75.45954,10.421851],[75.45954,10.422194],[75.459883,10.422194]]],[[[75.462973,10.425284],[75.46366,10.425284],[75.464003,10.423911],[75.462973,10.423567],[75.462973,10.422881],[75.46263,10.422881],[75.462973,10.425284]]],[[[75.461256,10.402281],[75.4616,10.402625],[75.4616,10.402281],[75.461256,10.402281]]],[[[75.46057,10.422881],[75.461256,10.422881],[75.460913,10.422194],[75.46057,10.422194],[75.46057,10.422881]]],[[[75.457823,10.427],[75.45851,10.42597],[75.46057,10.426314],[75.461256,10.425627],[75.459883,10.425284],[75.45954,10.423911],[75.459196,10.423911],[75.459196,10.424597],[75.45748,10.423911],[75.457137,10.42494],[75.45645,10.424254],[75.456107,10.426657],[75.457823,10.426657],[75.457823,10.427]]],[[[75.45954,10.426657],[75.459196,10.426314],[75.459196,10.426657],[75.45954,10.426657]]],[[[75.45748,10.402968],[75.45851,10.402968],[75.45851,10.401938],[75.457823,10.402281],[75.45748,10.402968]]],[[[75.44306,10.436613],[75.442717,10.436957],[75.442717,10.44142],[75.44203,10.442107],[75.440657,10.442107],[75.440657,10.44348],[75.441344,10.444167],[75.441344,10.445197],[75.442374,10.445197],[75.442374,10.445883],[75.44306,10.445883],[75.44306,10.446227],[75.44512,10.44554],[75.445807,10.446913],[75.444777,10.446913],[75.444777,10.447256],[75.44615,10.447256],[75.445807,10.44451],[75.44615,10.44451],[75.44615,10.443823],[75.446837,10.443823],[75.446494,10.44348],[75.446837,10.441077],[75.44821,10.441077],[75.447867,10.439703],[75.448897,10.439703],[75.448897,10.439017],[75.450613,10.439017],[75.450957,10.437643],[75.45027,10.436957],[75.450957,10.436957],[75.450957,10.43627],[75.451987,10.435927],[75.451643,10.434897],[75.45233,10.434897],[75.452673,10.433867],[75.45336,10.43421],[75.453017,10.432494],[75.453703,10.431807],[75.45439,10.43215],[75.45439,10.433524],[75.455077,10.433524],[75.455077,10.432837],[75.455763,10.432837],[75.455763,10.43215],[75.45439,10.430777],[75.45336,10.431464],[75.451987,10.43009],[75.451987,10.42803],[75.452673,10.42803],[75.453017,10.427344],[75.444777,10.427344],[75.444434,10.42803],[75.443404,10.427687],[75.44306,10.428374],[75.44409,10.428717],[75.44409,10.429747],[75.444777,10.429747],[75.445807,10.430777],[75.44615,10.43318],[75.445464,10.43318],[75.444434,10.434554],[75.443747,10.434554],[75.443747,10.435927],[75.44306,10.436613]],[[75.444777,10.44554],[75.44409,10.44554],[75.44409,10.445197],[75.444777,10.445197],[75.444777,10.44554]],[[75.449927,10.43833],[75.449583,10.437987],[75.449927,10.437987],[75.449927,10.43833]],[[75.44821,10.432837],[75.447867,10.432494],[75.44821,10.432494],[75.44821,10.432837]]],[[[75.442717,10.43627],[75.44306,10.436613],[75.44306,10.43627],[75.442717,10.43627]]],[[[75.455763,10.43215],[75.45645,10.43215],[75.45645,10.431807],[75.455763,10.431807],[75.455763,10.43215]]],[[[75.45542,10.407431],[75.456107,10.407431],[75.456107,10.406401],[75.455077,10.406401],[75.45542,10.407431]]],[[[75.450957,10.395071],[75.4513,10.395415],[75.4513,10.395071],[75.450957,10.395071]]],[[[75.4513,10.395415],[75.451643,10.396445],[75.452673,10.396445],[75.452673,10.396101],[75.451987,10.396101],[75.4513,10.395415]]],[[[75.451643,10.437987],[75.451987,10.43833],[75.451987,10.437987],[75.451643,10.437987]]],[[[75.4513,10.436613],[75.451643,10.436957],[75.451643,10.436613],[75.4513,10.436613]]],[[[75.43997,10.428717],[75.440657,10.428717],[75.440657,10.427344],[75.439627,10.427687],[75.43997,10.428717]]],[[[75.437224,10.434897],[75.43791,10.434897],[75.43791,10.433524],[75.437224,10.433524],[75.437224,10.434897]]],[[[75.437224,10.432837],[75.43791,10.432837],[75.43791,10.432494],[75.437224,10.432494],[75.437224,10.432837]]],[[[75.43688,10.498412],[75.437224,10.498755],[75.437224,10.498412],[75.43688,10.498412]]],[[[75.435851,10.499098],[75.436194,10.499442],[75.436194,10.499098],[75.435851,10.499098]]],[[[75.434821,10.499098],[75.435164,10.499442],[75.435164,10.499098],[75.434821,10.499098]]],[[[75.433791,10.42906],[75.434821,10.428717],[75.435164,10.427344],[75.433447,10.427687],[75.433791,10.42906]]],[[[75.434477,10.433867],[75.434821,10.433867],[75.434821,10.43318],[75.434477,10.43318],[75.434477,10.433867]]],[[[75.432417,10.43112],[75.433104,10.43112],[75.433104,10.429747],[75.432417,10.430434],[75.432417,10.43112]]],[[[75.428984,10.432494],[75.429327,10.432837],[75.429327,10.432494],[75.428984,10.432494]]]]},"properties":{"area_km2":15.509,"perimeter_km":169.13,"length_km":68.01,"mean_width_km":0.228,"elongation":298.2,"compactness":0.0068,"components":10,"orientation_deg":144.6,"centroid":[75.51304,10.31632],"taper":"undetermined","edge_truncated":false,"wind_speed_ms":1.6,"wind_reliability":0.54,"age_prior_h":{"min":3,"max":72,"label":"weak prior","spreading_min_h":0.0},"shape_indicator":"mixed shape: no source-type indication","cerulean_slick_id":4065984,"cerulean_machine_confidence":0.902,"cerulean_class":5,"s1_scene_id":"S1A_IW_GRDH_1SDV_20250602T004919_20250602T004942_059460_076193_DC08","source":"SkyTruth Cerulean slick polygon"}}]}