{"type":"FeatureCollection","features":[{"type":"Feature","geometry":{"type":"Polygon","coordinates":[[[75.27445779561404,9.867142901133732],[75.27805429701871,9.876669273356287],[75.28796310194467,9.882389175526104],[75.29884606125154,9.877815533260215],[75.31049026038063,9.865733065950963],[75.34854568030251,9.810123367320124],[75.3631749748326,9.77585956170798],[75.3964748060719,9.72519821321187],[75.42298714226374,9.661663675646386],[75.45052008959914,9.611876595810152],[75.46677682401487,9.570639728647878],[75.46304728137162,9.562647862610534],[75.45238645116225,9.56316449076042],[75.41123375313069,9.609996186561672],[75.37576841747217,9.640550509481287],[75.33820373508175,9.709218447706773],[75.32480288703724,9.77911488386722],[75.2961672189022,9.834879966712675],[75.27445779561404,9.867142901133732]]]},"properties":{"kind":"age","age_h":1,"in_age_prior":false}},{"type":"Feature","geometry":{"type":"Polygon","coordinates":[[[75.29147864367344,9.862206228889665],[75.29646095453796,9.873874985825367],[75.3092843363767,9.881028459072954],[75.32205972188562,9.876595477775119],[75.37129666984035,9.806848812553131],[75.38631899814808,9.773407645752902],[75.41900840234193,9.720546706413431],[75.44433999422596,9.655514040580233],[75.47173353065705,9.606359756959645],[75.4871032840996,9.563148711270225],[75.47968110965994,9.553257482280442],[75.4639122472278,9.554621813214018],[75.4249950303866,9.60227171815577],[75.39925626394849,9.622900973620448],[75.39095655633555,9.633419420985046],[75.353280947533,9.70349039911176],[75.33921349082593,9.77702390553401],[75.29147864367344,9.862206228889665]]]},"properties":{"kind":"age","age_h":2,"in_age_prior":false}},{"type":"Feature","geometry":{"type":"Polygon","coordinates":[[[75.30803663568054,9.855945333238985],[75.30917402016983,9.867540323083935],[75.32981260692303,9.878648404957593],[75.3421504478873,9.87592712840054],[75.35603274680811,9.8607677423125],[75.39398288507903,9.804070792661982],[75.40989176948253,9.769754772633545],[75.44138231611768,9.714799299943397],[75.46734527150466,9.644003432352982],[75.49226136645511,9.598961608567398],[75.50715568864615,9.555861397087389],[75.49711032013992,9.542294957487885],[75.47656094699957,9.544385251915363],[75.43948717109026,9.593105009964047],[75.41453229438125,9.614096463442333],[75.40694162003854,9.62510352523891],[75.36953703349201,9.694338862275877],[75.35538369087318,9.769797729385157],[75.30803663568054,9.855945333238985]]]},"properties":{"kind":"age","age_h":3,"in_age_prior":true}},{"type":"Feature","geometry":{"type":"Polygon","coordinates":[[[75.35317603685762,9.836822775092871],[75.35384479925845,9.85090423142796],[75.38383603042611,9.868354884657347],[75.40212235738646,9.871825473424105],[75.42060043854966,9.852406973164555],[75.45979147358122,9.79033516776656],[75.47466353903373,9.751750909746994],[75.5099436943272,9.693155552398737],[75.52926159393587,9.62206040921236],[75.55300710840886,9.573881114981894],[75.56329036087818,9.528518420116416],[75.5551339787515,9.50981818590431],[75.5393867568121,9.505951297454057],[75.51190649804512,9.51340894214114],[75.47732107080046,9.562139272503176],[75.45346623745806,9.586926685511461],[75.41677710136646,9.667685167533783],[75.40297920980703,9.746073975440614],[75.37567058835572,9.80098821317732],[75.35317603685762,9.836822775092871]]]},"properties":{"kind":"age","age_h":6,"in_age_prior":true}},{"type":"Feature","geometry":{"type":"Polygon","coordinates":[[[75.39442138403543,9.824997500095506],[75.39530684863499,9.83405341942752],[75.42384039368464,9.855620930530408],[75.45470622420069,9.862949291516985],[75.46189432689621,9.861149615046328],[75.47798612421127,9.839585673147003],[75.5207183629808,9.767866503720048],[75.53539407349331,9.730710928914357],[75.56798603399284,9.66404702731452],[75.58847487348024,9.59053300560921],[75.60852019646006,9.54047206536676],[75.6158262780493,9.492133324029101],[75.60166979955113,9.46599027796046],[75.57893452649854,9.462086480914738],[75.54262059430788,9.478775524380104],[75.48921098415644,9.552001341086335],[75.454266671837,9.644254357778513],[75.44694413625193,9.719599718527736],[75.39442138403543,9.824997500095506]]]},"properties":{"kind":"age","age_h":9,"in_age_prior":true}},{"type":"Feature","geometry":{"type":"Polygon","coordinates":[[[75.41518509626681,9.809502282490318],[75.41431234853403,9.822285482101247],[75.46478121668811,9.849371625015406],[75.47663449350797,9.852917602430283],[75.50746531051513,9.849170441482675],[75.52423713624866,9.826193292969874],[75.5684082198429,9.750463796494255],[75.62497403325534,9.61575741611952],[75.63737714564705,9.552898330847347],[75.65634711852637,9.499346267757467],[75.6616662066081,9.450425811904333],[75.64136122337784,9.419469740361738],[75.60900376610637,9.415956488614592],[75.56208757628912,9.44170260385269],[75.52135147012379,9.504984698986666],[75.51083210052904,9.528175726721058],[75.48569583672993,9.61307966341733],[75.48057338015867,9.690860753347856],[75.45274465881995,9.7587785361588],[75.41518509626681,9.809502282490318]]]},"properties":{"kind":"age","age_h":12,"in_age_prior":true}},{"type":"Feature","geometry":{"type":"Polygon","coordinates":[[[75.4883981412026,9.770771184840747],[75.4723932333066,9.789936365131384],[75.47280564567323,9.79553768810164],[75.50553975998363,9.819545183460114],[75.54449002245916,9.831894470835365],[75.57762024867122,9.836606591690565],[75.59988649001077,9.827016440824991],[75.61789276504165,9.799456128199616],[75.65709094435353,9.712702892511347],[75.71109263347445,9.553826390748767],[75.74246293635797,9.395378198488121],[75.74121351676641,9.346418297468732],[75.70445767205108,9.304731077551809],[75.64848541592444,9.31099758254642],[75.5922480545593,9.36049201422292],[75.56265834631401,9.442770367828626],[75.55290798010307,9.520476703992996],[75.54809061296211,9.625671624619052],[75.53295054684209,9.694007603504701],[75.4883981412026,9.770771184840747]]]},"properties":{"kind":"age","age_h":18,"in_age_prior":true}},{"type":"Feature","geometry":{"type":"Polygon","coordinates":[[[75.51179759006061,9.761616331170286],[75.5122416821275,9.766773192362693],[75.54724951563091,9.808315054435218],[75.59217452328829,9.824368969019305],[75.62808174541377,9.830337692774545],[75.67867737178842,9.800777494076629],[75.73354504373405,9.659833889843858],[75.797232806122,9.459771132602542],[75.80450601414671,9.433401690686743],[75.81682418723835,9.356903355224023],[75.82590276792727,9.27881989555802],[75.81286848783394,9.239113636806474],[75.75539086678367,9.19178638806073],[75.6795630783178,9.209909126325062],[75.62056158346789,9.26556351799781],[75.60771594542909,9.347196380227665],[75.60724879718502,9.42065615304147],[75.59149140102157,9.615667201665977],[75.51179759006061,9.761616331170286]]]},"properties":{"kind":"age","age_h":24,"in_age_prior":true}},{"type":"Feature","geometry":{"type":"Polygon","coordinates":[[[75.60405973163832,9.590092780640068],[75.61874044377802,9.775501272430713],[75.6377811445098,9.786061904288653],[75.69128693448981,9.798377140525423],[75.730467072914,9.802284368827431],[75.74382647582866,9.784402981199058],[75.77878353537815,9.717905936955129],[75.91140488055963,9.347112882635905],[75.9605271611279,9.200251244466488],[75.96285529657847,9.12328845865665],[75.95348160047443,9.049451027324185],[75.94332206804275,9.03106303008126],[75.9136253135867,9.00207190135492],[75.85602149257767,8.96170002290212],[75.82329756311357,8.952656095753044],[75.811614003896,8.954759037578029],[75.78068284417458,8.964856637550964],[75.68306124835146,9.015308759424494],[75.650237936666,9.086538897907314],[75.65066878523395,9.09097749647908],[75.71084826323441,9.176122323860396],[75.72544889057353,9.28208179535483],[75.7084694891958,9.356633605447849],[75.70036518421284,9.378437845157379],[75.65525531703713,9.483278890698848],[75.61463290823876,9.558398185445744],[75.60405973163832,9.590092780640068]]]},"properties":{"kind":"age","age_h":36,"in_age_prior":true}},{"type":"Feature","geometry":{"type":"Polygon","coordinates":[[[75.72260303457695,9.817863276608158],[75.72728674024485,9.834232840178396],[75.80095572808852,9.846286850812078],[75.85853413902522,9.788139828658398],[75.90068715658741,9.674974797508751],[75.99065365182496,9.35560085836213],[76.06178912775573,9.171491525366598],[76.09564683435198,9.066591143693092],[76.10461963183366,9.025267070890687],[76.10248323317,8.978668309500167],[76.0969772474263,8.946607097644675],[76.08164343616339,8.916025777344215],[76.05781957637655,8.898771440208314],[75.94619340825749,8.870196024914195],[75.90429817958258,8.867126940589376],[75.82890945413837,8.86924605428353],[75.7538021018989,8.894547701321002],[75.54587032558629,9.005182306523746],[75.54767716979431,9.010700503001553],[75.60969088169921,9.041259249478356],[75.77304130258,9.296956566505449],[75.74147559050635,9.355981291719509],[75.73557886333906,9.391288913374447],[75.73837316976883,9.614220611544932],[75.73370934547499,9.706520391600211],[75.72260303457695,9.817863276608158]]]},"properties":{"kind":"age","age_h":48,"in_age_prior":true}},{"type":"Feature","geometry":{"type":"Polygon","coordinates":[[[75.74174922053605,9.873089104971285],[75.75474529871639,9.895477116367951],[75.8494106594147,9.905616470839007],[75.8565088656974,9.900842037807722],[75.93384803806069,9.786544174436338],[75.94977006677274,9.755622565753834],[75.98155836351091,9.661013743110162],[76.06680355643208,9.260976435304979],[76.15900941790005,9.069522684243328],[76.22006628859845,8.910395891724162],[76.22049277236512,8.849872894067778],[76.21384135328192,8.815851526649542],[76.19383937844752,8.7893791829301],[76.15255869333674,8.773539599608867],[76.09519165640785,8.76875523263376],[75.78011045957199,8.787774806813326],[75.69040157844972,8.797655563890402],[75.5480624052143,8.838432894576124],[75.35553270137997,8.903906374395302],[75.24108383121077,8.947035807088174],[75.24455653233885,8.953407500539374],[75.3934471646306,8.975126971693046],[75.4807737076838,8.963998178598528],[75.8184909904554,9.176451153579736],[75.8343715636921,9.406400213177493],[75.81749502151382,9.483121606570489],[75.80365529983413,9.568792081487791],[75.7843140769674,9.719166244840673],[75.75840142313172,9.801734343646102],[75.74174922053605,9.873089104971285]]]},"properties":{"kind":"age","age_h":60,"in_age_prior":true}},{"type":"Feature","geometry":{"type":"Polygon","coordinates":[[[75.79163654166906,9.956617762458311],[75.79424264518235,9.966135676600896],[75.80361103141132,9.970276157270387],[75.89483896586461,9.97868774567761],[75.91053301727452,9.975754084509534],[76.02168961578712,9.759330142914004],[76.05699948495139,9.650140668770963],[76.06372691586164,9.59397220376204],[76.06801283014885,9.51764022288691],[76.25775799704374,9.029724234299099],[76.30729898615333,8.9666544164013],[76.35712238395254,8.891546712801617],[76.38167788885578,8.831724710689008],[76.39149140780287,8.75757593794318],[76.37698724399162,8.725759006119237],[76.33636335696025,8.679430116852748],[76.31820049860877,8.67670988986819],[76.23159765605104,8.678835123058995],[76.15375575965427,8.703632547124492],[75.77318846924317,8.801054206285873],[75.57481308129047,8.812539872169127],[75.48766609784586,8.823990615427556],[75.02070885236972,8.935017624936119],[74.98929050143602,8.94401001552803],[74.92149467615467,8.971738913348537],[74.92536806256865,8.978006977629796],[75.0755614755386,8.988582276232126],[75.14072970204424,8.974085684479606],[75.38567978411015,8.947300406744917],[75.5332265790254,8.920823863180884],[75.89945360373284,9.257945582574665],[75.89303567801338,9.35872139937426],[75.86148063981662,9.532212258599902],[75.85419138196158,9.67075004934006],[75.84165870306757,9.75102496171113],[75.81292482235892,9.851142012312996],[75.79163654166906,9.956617762458311]]]},"properties":{"kind":"age","age_h":72,"in_age_prior":true}},{"type":"Feature","geometry":{"type":"Polygon","coordinates":[[[75.78637844169351,9.933786051984054],[75.7939749334844,9.965803335346562],[75.80361103141132,9.970276157270387],[75.89483896586461,9.97868774567761],[75.91053301727452,9.975754084509534],[76.02168961578712,9.759330142914004],[76.05699948495139,9.650140668770963],[76.06372691586164,9.59397220376204],[76.06801283014885,9.51764022288691],[76.25775799704374,9.029724234299099],[76.30729898615333,8.9666544164013],[76.35712238395254,8.891546712801617],[76.38167788885578,8.831724710689008],[76.39149140780287,8.75757593794318],[76.37698724399162,8.725759006119237],[76.33636335696025,8.679430116852748],[76.31820049860877,8.67670988986819],[76.20401303867163,8.679233694591971],[76.16276084034033,8.690143316328209],[75.84762205011,8.742493598237363],[75.61916964967058,8.772183342165746],[74.98968652593567,8.943877056601663],[74.92149467615467,8.971738913348537],[74.92536806256865,8.978006977629796],[75.07511895646408,8.988615148096882],[75.14072970204424,8.974085684479606],[75.21786724653019,8.965430507542068],[75.26924611743416,8.960260825087524],[75.29611913124808,8.964814394479248],[75.29939451793764,8.968188339366053],[75.32375372325258,8.972117405061844],[75.32697008516118,8.975425704466849],[75.35163255631926,8.97965345047545],[75.38032290605513,8.989564457975703],[75.52698192218884,9.023731138473698],[75.58959033078256,9.077852642408239],[75.6214126082095,9.109786618684964],[75.6507208127905,9.14843364069366],[75.6479673246296,9.153169726068096],[75.64957229531001,9.162027266389469],[75.64468710011302,9.168761332034839],[75.64554957902288,9.177109362661868],[75.6403693508155,9.183938704615434],[75.63726486466484,9.211586666934714],[75.63318761973662,9.216788723735998],[75.6328183904733,9.228016152476206],[75.62827007266137,9.233417839030226],[75.62732718957066,9.246310799593298],[75.61349453140991,9.296685398550505],[75.57388001350651,9.408470307414742],[75.5503218607698,9.45539139020999],[75.5157265683672,9.512038537869255],[75.49581688613767,9.531802454227146],[75.48944315194345,9.532884211872227],[75.48179303209167,9.543015099361781],[75.47622451625759,9.54470968785098],[75.43948717109026,9.593105009964047],[75.41453229438125,9.614096463442333],[75.40665992804783,9.625576580004457],[75.36953703349201,9.694338862275877],[75.35538369087318,9.769797729385157],[75.30803663568054,9.855945333238985],[75.30689797423737,9.864390239105175],[75.33026748030076,9.878717647730895],[75.3446794217153,9.873438420450718],[75.35847521052402,9.877351184753163],[75.36633584250575,9.87139193440657],[75.38015771082607,9.875496214284208],[75.3877997346059,9.869343586961651],[75.40089405208384,9.872172696315275],[75.40845151156863,9.865895740689485],[75.42108803486626,9.868921440687403],[75.4274425940314,9.863680832457707],[75.43747601156917,9.86574202959144],[75.44602136035158,9.861014507423802],[75.45612280720252,9.862897717088234],[75.46506267260325,9.857900993541193],[75.47335181950685,9.858691228273319],[75.48085364348015,9.854657746712512],[75.52550291945995,9.846363196997162],[75.5320897409158,9.847500444008165],[75.58802814356108,9.832227851247211],[75.61066095085718,9.834005090544368],[75.64293929484703,9.823443337532554],[75.66513536562839,9.824742338274218],[75.68074549654285,9.81564624465997],[75.71282688195333,9.808463459348719],[75.71626877217288,9.810663335091506],[75.72504244499204,9.832314838906305],[75.74193295585488,9.853994256722327],[75.74409227922051,9.89180812022255],[75.74817540448761,9.895548575872779],[75.75997752526048,9.89692097866319],[75.77501792909301,9.909185941972309],[75.77388567260778,9.919388245055245],[75.77959236920651,9.92230920746776],[75.77940224092805,9.93183038243459],[75.78637844169351,9.933786051984054]]]},"properties":{"kind":"release_corridor","age_prior_h":{"min":3,"max":72,"label":"weak prior","spreading_min_h":0.6}}},{"type":"Feature","geometry":{"type":"Polygon","coordinates":[[[75.60813340276077,8.728310944456682],[74.97508221186375,8.901043643947327],[74.90050417070861,8.93049859424631],[74.88562732892449,8.943614978139118],[74.87706698379972,8.961442290630309],[74.87610451516815,8.980723431103526],[74.88284751791907,8.99930295042882],[74.8967154473487,9.014076841787753],[74.91491386062577,9.022068107423904],[75.0740846075373,9.0338220843654],[75.14830301207417,9.018742668632541],[75.27678055472752,9.007578018011099],[75.50500438203176,9.06470304369575],[75.55837993985567,9.110843259166186],[75.60099800026983,9.156070456282993],[75.56557437813196,9.295980007837839],[75.52318429780048,9.4105452546042],[75.48424604680385,9.47754450791432],[75.4444662204222,9.512281635161958],[75.40614701240064,9.561866933841403],[75.37745894900615,9.58772572357305],[75.32826688944935,9.675166432059472],[75.31192608841125,9.754493185246565],[75.26355943009784,9.84545188416155],[75.26171288251655,9.870246711423507],[75.27078004580318,9.892745451346768],[75.28477908143142,9.905736136110578],[75.31355853647199,9.920944339224505],[75.3608514373692,9.92255456216594],[75.4625171754088,9.907668900524031],[75.5956974044093,9.878267791961537],[75.67273819494518,9.869327121167021],[75.6907293488069,9.862475045983167],[75.704556878173,9.914298335561549],[75.71545173270749,9.927687013815799],[75.73238442062177,9.937958892116724],[75.75344932692836,9.986572225897884],[75.7725762859977,10.006206085137125],[75.79724547746856,10.01505138371165],[75.89340921378675,10.023886409545593],[75.92228009364071,10.019896523954934],[75.9387777589781,10.011241444110308],[75.95216589231583,9.994967383954098],[76.06849149812906,9.764690675912203],[76.10196897935667,9.657450775457425],[76.11311163509193,9.527271262395827],[76.29784265062322,9.052248801793649],[76.34416510414087,8.993233088728731],[76.39567268396387,8.915658041803141],[76.42482755640532,8.846272356079634],[76.43708782742286,8.754454708462259],[76.41291974689784,8.697949821315783],[76.37049377580423,8.649011831530494],[76.34872890103068,8.63584877740671],[76.31802632994803,8.63149163350742],[76.19891760609192,8.63429868823133],[76.15337136340912,8.645859112105608],[75.84115714274799,8.697725505793263],[75.60813340276077,8.728310944456682]]]},"properties":{"kind":"expanded_corridor_for_veto","margin_km":5.0}}],"properties":{"physics":{"formula":"V_oil = V_current + V_tide + V_Stokes + alpha * V_wind10","current_source":"CMEMS SMOC (uo+utide, vo+vtide)","stokes_source":"CMEMS SMOC (vsdx, vsdy)","wind_source":"ERA5 10 m (u10, v10)","alpha":0.02,"alpha_range":[0.01,0.03],"current_scale_sd":0.15,"wind_rotation_sd_deg":10.0,"current_error_sd_ms":0.1,"diffusion_m2s":1.0,"time_step_s":900,"backward_members":10,"backward_particles":500,"forward_members":5,"max_age_h":72}}}