{"type":"FeatureCollection","features":[{"type":"Feature","geometry":{"type":"Polygon","coordinates":[[[74.82758762688634,9.837365317112669],[74.81149321581817,9.889092631535613],[74.82192951024692,9.899580790469084],[74.83164579001354,9.904444825890538],[74.8972120116422,9.804922665996378],[74.96250218673644,9.752980358666948],[74.99965322244135,9.728519958105512],[75.09608859885547,9.685223972569853],[75.16851546441437,9.661843694631317],[75.17785242919747,9.652453324996134],[75.17797737307215,9.647833066506532],[75.17350296137997,9.6455439968095],[75.069628754837,9.656842174900758],[75.02034757367903,9.665353485146522],[74.94210858540818,9.70044579829597],[74.90161676948505,9.725816714200276],[74.82758762688634,9.837365317112669]]]},"properties":{"kind":"forecast_envelope","hours":24,"active_fraction":1.0}},{"type":"Feature","geometry":{"type":"Polygon","coordinates":[[[74.51313099597411,9.766523715237973],[74.52792427308687,9.79031948021592],[74.53639553159113,9.792661105079823],[74.5401797653064,9.790578129780213],[74.59134892951914,9.660560443382531],[74.6618506549354,9.616609349199168],[74.69671402806726,9.606747369512615],[74.78588538634865,9.600430594244392],[74.96663203640583,9.603606316281581],[74.97033800391296,9.601493325970845],[74.97064981210595,9.597263333367813],[74.95725300471757,9.588079268550098],[74.82349986028852,9.550940279680749],[74.72648311345068,9.539715913658636],[74.67065248924906,9.5563144889516],[74.64135266646996,9.57482299629113],[74.58314685198522,9.622087256766719],[74.54356045796729,9.672488476322275],[74.51313099597411,9.766523715237973]]]},"properties":{"kind":"forecast_envelope","hours":48,"active_fraction":1.0}},{"type":"Feature","geometry":{"type":"Polygon","coordinates":[[[74.32690989512902,9.560703333157369],[74.33516293722509,9.578113435976698],[74.33927546216078,9.579127009760324],[74.34494802108611,9.575341527219582],[74.35160900957494,9.54856523001948],[74.45167999464901,9.421312928842916],[74.5797978920952,9.386357981007688],[74.73364225077653,9.46117877041275],[74.81982733913492,9.517486589911782],[74.83343156812987,9.52977259605909],[74.83802766459989,9.529450590724732],[74.83999125703558,9.525314455445052],[74.8368564984679,9.511039639390582],[74.75866111056706,9.40618865144021],[74.7233742376911,9.381239770716578],[74.65527213377894,9.348488778964624],[74.62045601962483,9.336152700572345],[74.59652186723456,9.334216244579999],[74.55414421013441,9.337888965437187],[74.52068388723663,9.347611649518742],[74.45854629491254,9.377180460866661],[74.4177758499122,9.410111297196442],[74.38755003629277,9.43672089299869],[74.3294566272138,9.536038042372178],[74.32690989512902,9.560703333157369]]]},"properties":{"kind":"forecast_envelope","hours":72,"active_fraction":1.0}}],"properties":{"model":"OpenDrift OpenOil","oil_type":"GENERIC INTERMEDIATE FUEL OIL 180","hours":72,"coastal_impact":false,"stranded_elements":0,"elements":1500,"mass_budget_fraction":{"mass_oil":[1.0,0.9891999959945679,0.9832000136375427,0.9778000116348267,0.9736999869346619,0.9707000255584717,0.9681000113487244,0.9656000137329102,0.9627000093460083,0.958899974822998,0.954200029373169,0.9488000273704529,0.9420999884605408,0.9340000152587891,0.9254000186920166,0.9180999994277954,0.9125000238418579,0.9085999727249146,0.9057999849319458,0.9034000039100647,0.901199996471405,0.8992999792098999,0.8974000215530396,0.8942999839782715,0.8903999924659729,0.8903999924659729,0.8903999924659729,0.8903999924659729,0.8903999924659729,0.8903999924659729,0.8903999924659729,0.8903999924659729,0.8903999924659729,0.8903999924659729,0.8903999924659729,0.8903999924659729,0.8903999924659729,0.8903999924659729,0.8903999924659729,0.8903999924659729,0.8903999924659729,0.8903999924659729,0.8903999924659729,0.8903999924659729,0.8903999924659729,0.8903999924659729,0.8903999924659729,0.8903999924659729,0.8903999924659729,0.8903999924659729,0.8903999924659729,0.8903999924659729,0.8903999924659729,0.8903999924659729,0.8903999924659729,0.8903999924659729,0.8903999924659729,0.8903999924659729,0.8903999924659729,0.8903999924659729,0.8903999924659729,0.8903999924659729,0.8903999924659729,0.8903999924659729,0.8903999924659729,0.8903999924659729,0.8903999924659729,0.8903999924659729,0.8903999924659729,0.8903999924659729,0.8903999924659729,0.8903999924659729],"mass_evaporated":[0.0,0.01080000028014183,0.01679999940097332,0.022199999541044235,0.026399999856948853,0.02930000051856041,0.03189999982714653,0.03440000116825104,0.03739999979734421,0.041099999099969864,0.04580000042915344,0.05119999870657921,0.05790000036358833,0.0658000037074089,0.0737999975681305,0.08100000023841858,0.08659999817609787,0.09049999713897705,0.093299999833107,0.09570000320672989,0.09790000319480896,0.0997999981045723,0.10170000046491623,0.10480000078678131,0.10869999974966049,0.10869999974966049,0.10869999974966049,0.10869999974966049,0.10869999974966049,0.10869999974966049,0.10869999974966049,0.10869999974966049,0.10869999974966049,0.10869999974966049,0.10869999974966049,0.10869999974966049,0.10869999974966049,0.10869999974966049,0.10869999974966049,0.10869999974966049,0.10869999974966049,0.10869999974966049,0.10869999974966049,0.10869999974966049,0.10869999974966049,0.10869999974966049,0.10869999974966049,0.10869999974966049,0.10869999974966049,0.10869999974966049,0.10869999974966049,0.10869999974966049,0.10869999974966049,0.10869999974966049,0.10869999974966049,0.10869999974966049,0.10869999974966049,0.10869999974966049,0.10869999974966049,0.10869999974966049,0.10869999974966049,0.10869999974966049,0.10869999974966049,0.10869999974966049,0.10869999974966049,0.10869999974966049,0.10869999974966049,0.10869999974966049,0.10869999974966049,0.10869999974966049,0.10869999974966049,0.10869999974966049],"mass_dispersed":[0.0,0.0,0.0,0.0,0.0,0.0,0.0,0.0,0.0,0.0,0.0,0.0,0.0,0.00019999999494757503,0.000699999975040555,0.0008999999845400453,0.0008999999845400453,0.0008999999845400453,0.0008999999845400453,0.0008999999845400453,0.0008999999845400453,0.0008999999845400453,0.0008999999845400453,0.0008999999845400453,0.0008999999845400453,0.0008999999845400453,0.0008999999845400453,0.0008999999845400453,0.0008999999845400453,0.0008999999845400453,0.0008999999845400453,0.0008999999845400453,0.0008999999845400453,0.0008999999845400453,0.0008999999845400453,0.0008999999845400453,0.0008999999845400453,0.0008999999845400453,0.0008999999845400453,0.0008999999845400453,0.0008999999845400453,0.0008999999845400453,0.0008999999845400453,0.0008999999845400453,0.0008999999845400453,0.0008999999845400453,0.0008999999845400453,0.0008999999845400453,0.0008999999845400453,0.0008999999845400453,0.0008999999845400453,0.0008999999845400453,0.0008999999845400453,0.0008999999845400453,0.0008999999845400453,0.0008999999845400453,0.0008999999845400453,0.0008999999845400453,0.0008999999845400453,0.0008999999845400453,0.0008999999845400453,0.0008999999845400453,0.0008999999845400453,0.0008999999845400453,0.0008999999845400453,0.0008999999845400453,0.0008999999845400453,0.0008999999845400453,0.0008999999845400453,0.0008999999845400453,0.0008999999845400453,0.0008999999845400453]}}}