{"type":"FeatureCollection","features":[{"type":"Feature","geometry":{"type":"Point","coordinates":[75.218,10.82683]},"properties":{"peak_db":-3.0,"area_px":2,"approx_length_m":59,"platform":false}},{"type":"Feature","geometry":{"type":"Point","coordinates":[75.26434,10.80285]},"properties":{"peak_db":-4.0,"area_px":1,"approx_length_m":42,"platform":false}},{"type":"Feature","geometry":{"type":"Point","coordinates":[75.2462,10.80448]},"properties":{"peak_db":-7.3,"area_px":1,"approx_length_m":42,"platform":false}},{"type":"Feature","geometry":{"type":"Point","coordinates":[75.73896,10.70439]},"properties":{"peak_db":-6.9,"area_px":1,"approx_length_m":42,"platform":false}},{"type":"Feature","geometry":{"type":"Point","coordinates":[75.3793,10.7668]},"properties":{"peak_db":-7.6,"area_px":1,"approx_length_m":42,"platform":false}},{"type":"Feature","geometry":{"type":"Point","coordinates":[75.29229,10.77788]},"properties":{"peak_db":-6.4,"area_px":3,"approx_length_m":73,"platform":false}},{"type":"Feature","geometry":{"type":"Point","coordinates":[75.76421,10.68144]},"properties":{"peak_db":-5.7,"area_px":2,"approx_length_m":59,"platform":false}},{"type":"Feature","geometry":{"type":"Point","coordinates":[73.97105,11.00842]},"properties":{"peak_db":8.5,"area_px":20,"approx_length_m":188,"platform":false}},{"type":"Feature","geometry":{"type":"Point","coordinates":[75.3794,10.73003]},"properties":{"peak_db":-0.8,"area_px":2,"approx_length_m":59,"platform":false}},{"type":"Feature","geometry":{"type":"Point","coordinates":[75.76594,10.63374]},"properties":{"peak_db":-4.5,"area_px":2,"approx_length_m":59,"platform":false}},{"type":"Feature","geometry":{"type":"Point","coordinates":[75.42351,10.69519]},"properties":{"peak_db":-6.5,"area_px":1,"approx_length_m":42,"platform":false}},{"type":"Feature","geometry":{"type":"Point","coordinates":[75.84768,10.59578]},"properties":{"peak_db":-4.0,"area_px":1,"approx_length_m":42,"platform":false}},{"type":"Feature","geometry":{"type":"Point","coordinates":[75.80186,10.57818]},"properties":{"peak_db":-5.0,"area_px":1,"approx_length_m":42,"platform":false}},{"type":"Feature","geometry":{"type":"Point","coordinates":[75.80279,10.57179]},"properties":{"peak_db":-4.0,"area_px":1,"approx_length_m":42,"platform":false}},{"type":"Feature","geometry":{"type":"Point","coordinates":[75.96601,10.5348]},"properties":{"peak_db":-5.4,"area_px":1,"approx_length_m":42,"platform":false}},{"type":"Feature","geometry":{"type":"Point","coordinates":[75.82887,10.54274]},"properties":{"peak_db":1.9,"area_px":4,"approx_length_m":84,"platform":false}},{"type":"Feature","geometry":{"type":"Point","coordinates":[74.0752,10.88585]},"properties":{"peak_db":14.4,"area_px":28,"approx_length_m":222,"platform":false}},{"type":"Feature","geometry":{"type":"Point","coordinates":[75.81365,10.54142]},"properties":{"peak_db":-6.2,"area_px":1,"approx_length_m":42,"platform":false}},{"type":"Feature","geometry":{"type":"Point","coordinates":[74.8404,10.71965]},"properties":{"peak_db":14.1,"area_px":17,"approx_length_m":173,"platform":false}},{"type":"Feature","geometry":{"type":"Point","coordinates":[75.59411,10.56733]},"properties":{"peak_db":-7.2,"area_px":1,"approx_length_m":42,"platform":false}},{"type":"Feature","geometry":{"type":"Point","coordinates":[74.67306,10.72772]},"properties":{"peak_db":-2.0,"area_px":1,"approx_length_m":42,"platform":false}},{"type":"Feature","geometry":{"type":"Point","coordinates":[74.09737,10.83763]},"properties":{"peak_db":13.3,"area_px":24,"approx_length_m":206,"platform":false}},{"type":"Feature","geometry":{"type":"Point","coordinates":[74.0989,10.8363]},"properties":{"peak_db":1.4,"area_px":2,"approx_length_m":59,"platform":false}},{"type":"Feature","geometry":{"type":"Point","coordinates":[75.84229,10.49]},"properties":{"peak_db":-5.4,"area_px":1,"approx_length_m":42,"platform":false}},{"type":"Feature","geometry":{"type":"Point","coordinates":[75.24956,10.54305]},"properties":{"peak_db":4.3,"area_px":4,"approx_length_m":84,"platform":false}},{"type":"Feature","geometry":{"type":"Point","coordinates":[75.22555,10.54487]},"properties":{"peak_db":-5.7,"area_px":2,"approx_length_m":59,"platform":false}},{"type":"Feature","geometry":{"type":"Point","coordinates":[76.03111,10.35055]},"properties":{"peak_db":-3.2,"area_px":3,"approx_length_m":73,"platform":false}},{"type":"Feature","geometry":{"type":"Point","coordinates":[75.91577,10.33957]},"properties":{"peak_db":-7.5,"area_px":1,"approx_length_m":42,"platform":false}},{"type":"Feature","geometry":{"type":"Point","coordinates":[74.57112,10.56795]},"properties":{"peak_db":-5.1,"area_px":2,"approx_length_m":59,"platform":false}},{"type":"Feature","geometry":{"type":"Point","coordinates":[75.78595,10.32281]},"properties":{"peak_db":6.1,"area_px":8,"approx_length_m":119,"platform":false}},{"type":"Feature","geometry":{"type":"Point","coordinates":[75.96562,10.28693]},"properties":{"peak_db":-7.3,"area_px":1,"approx_length_m":42,"platform":false}},{"type":"Feature","geometry":{"type":"Point","coordinates":[75.93653,10.26628]},"properties":{"peak_db":-7.6,"area_px":1,"approx_length_m":42,"platform":false}},{"type":"Feature","geometry":{"type":"Point","coordinates":[75.84602,10.2814]},"properties":{"peak_db":-7.3,"area_px":1,"approx_length_m":42,"platform":false}},{"type":"Feature","geometry":{"type":"Point","coordinates":[75.95006,10.25828]},"properties":{"peak_db":-3.6,"area_px":3,"approx_length_m":73,"platform":false}},{"type":"Feature","geometry":{"type":"Point","coordinates":[75.95426,10.24789]},"properties":{"peak_db":-2.1,"area_px":2,"approx_length_m":59,"platform":false}},{"type":"Feature","geometry":{"type":"Point","coordinates":[76.00402,10.23094]},"properties":{"peak_db":-3.7,"area_px":2,"approx_length_m":59,"platform":false}},{"type":"Feature","geometry":{"type":"Point","coordinates":[75.11299,10.38358]},"properties":{"peak_db":6.0,"area_px":18,"approx_length_m":178,"platform":false}},{"type":"Feature","geometry":{"type":"Point","coordinates":[76.00724,10.19149]},"properties":{"peak_db":-5.7,"area_px":2,"approx_length_m":59,"platform":false}},{"type":"Feature","geometry":{"type":"Point","coordinates":[74.90897,10.35983]},"properties":{"peak_db":-6.4,"area_px":1,"approx_length_m":42,"platform":false}},{"type":"Feature","geometry":{"type":"Point","coordinates":[74.0261,10.48991]},"properties":{"peak_db":-4.2,"area_px":2,"approx_length_m":59,"platform":false}},{"type":"Feature","geometry":{"type":"Point","coordinates":[75.97295,10.09783]},"properties":{"peak_db":-6.5,"area_px":1,"approx_length_m":42,"platform":false}},{"type":"Feature","geometry":{"type":"Point","coordinates":[73.91175,10.45144]},"properties":{"peak_db":-7.4,"area_px":1,"approx_length_m":42,"platform":false}},{"type":"Feature","geometry":{"type":"Point","coordinates":[73.90062,10.44042]},"properties":{"peak_db":-3.0,"area_px":1,"approx_length_m":42,"platform":false}},{"type":"Feature","geometry":{"type":"Point","coordinates":[75.71652,10.06022]},"properties":{"peak_db":1.5,"area_px":3,"approx_length_m":73,"platform":false}},{"type":"Feature","geometry":{"type":"Point","coordinates":[75.96584,10.0087]},"properties":{"peak_db":-8.0,"area_px":1,"approx_length_m":42,"platform":false}},{"type":"Feature","geometry":{"type":"Point","coordinates":[74.68607,10.23423]},"properties":{"peak_db":11.2,"area_px":20,"approx_length_m":188,"platform":false}},{"type":"Feature","geometry":{"type":"Point","coordinates":[75.77346,10.00056]},"properties":{"peak_db":-3.3,"area_px":2,"approx_length_m":59,"platform":false}},{"type":"Feature","geometry":{"type":"Point","coordinates":[75.97016,9.94917]},"properties":{"peak_db":7.2,"area_px":8,"approx_length_m":119,"platform":false}},{"type":"Feature","geometry":{"type":"Point","coordinates":[74.40238,10.24871]},"properties":{"peak_db":-7.7,"area_px":1,"approx_length_m":42,"platform":false}},{"type":"Feature","geometry":{"type":"Point","coordinates":[75.28758,10.06924]},"properties":{"peak_db":8.2,"area_px":2,"approx_length_m":59,"platform":false}},{"type":"Feature","geometry":{"type":"Point","coordinates":[75.28788,10.06862]},"properties":{"peak_db":4.5,"area_px":1,"approx_length_m":42,"platform":false}},{"type":"Feature","geometry":{"type":"Point","coordinates":[75.28846,10.06746]},"properties":{"peak_db":20.1,"area_px":18,"approx_length_m":178,"platform":false}},{"type":"Feature","geometry":{"type":"Point","coordinates":[74.10914,10.29007]},"properties":{"peak_db":-6.1,"area_px":1,"approx_length_m":42,"platform":false}},{"type":"Feature","geometry":{"type":"Point","coordinates":[75.71375,9.95153]},"properties":{"peak_db":-7.5,"area_px":1,"approx_length_m":42,"platform":false}},{"type":"Feature","geometry":{"type":"Point","coordinates":[74.01839,10.27532]},"properties":{"peak_db":6.0,"area_px":20,"approx_length_m":188,"platform":false}},{"type":"Feature","geometry":{"type":"Point","coordinates":[74.39254,10.1992]},"properties":{"peak_db":19.8,"area_px":26,"approx_length_m":214,"platform":false}},{"type":"Feature","geometry":{"type":"Point","coordinates":[75.41589,9.98409]},"properties":{"peak_db":18.9,"area_px":25,"approx_length_m":210,"platform":false}},{"type":"Feature","geometry":{"type":"Point","coordinates":[74.74229,10.09725]},"properties":{"peak_db":5.0,"area_px":19,"approx_length_m":183,"platform":false}},{"type":"Feature","geometry":{"type":"Point","coordinates":[74.51903,10.11105]},"properties":{"peak_db":15.3,"area_px":17,"approx_length_m":173,"platform":false}},{"type":"Feature","geometry":{"type":"Point","coordinates":[75.68898,9.87136]},"properties":{"peak_db":7.6,"area_px":20,"approx_length_m":188,"platform":false}},{"type":"Feature","geometry":{"type":"Point","coordinates":[75.9547,9.80891]},"properties":{"peak_db":-6.8,"area_px":1,"approx_length_m":42,"platform":false}},{"type":"Feature","geometry":{"type":"Point","coordinates":[75.95403,9.7907]},"properties":{"peak_db":-7.9,"area_px":1,"approx_length_m":42,"platform":false}},{"type":"Feature","geometry":{"type":"Point","coordinates":[74.59817,10.04938]},"properties":{"peak_db":9.9,"area_px":21,"approx_length_m":192,"platform":false}},{"type":"Feature","geometry":{"type":"Point","coordinates":[74.59925,10.04796]},"properties":{"peak_db":5.4,"area_px":8,"approx_length_m":119,"platform":false}},{"type":"Feature","geometry":{"type":"Point","coordinates":[75.43396,9.87823]},"properties":{"peak_db":6.2,"area_px":15,"approx_length_m":163,"platform":false}},{"type":"Feature","geometry":{"type":"Point","coordinates":[75.10158,9.94446]},"properties":{"peak_db":10.2,"area_px":12,"approx_length_m":145,"platform":false}},{"type":"Feature","geometry":{"type":"Point","coordinates":[75.43388,9.87672]},"properties":{"peak_db":-2.1,"area_px":1,"approx_length_m":42,"platform":false}},{"type":"Feature","geometry":{"type":"Point","coordinates":[75.04029,9.93457]},"properties":{"peak_db":13.8,"area_px":14,"approx_length_m":157,"platform":false}},{"type":"Feature","geometry":{"type":"Point","coordinates":[75.22902,9.87781]},"properties":{"peak_db":-7.7,"area_px":1,"approx_length_m":42,"platform":false}},{"type":"Feature","geometry":{"type":"Point","coordinates":[75.39983,9.81506]},"properties":{"peak_db":3.9,"area_px":1,"approx_length_m":42,"platform":false}},{"type":"Feature","geometry":{"type":"Point","coordinates":[75.40046,9.81379]},"properties":{"peak_db":14.4,"area_px":15,"approx_length_m":163,"platform":false}},{"type":"Feature","geometry":{"type":"Point","coordinates":[75.83654,9.72531]},"properties":{"peak_db":-6.4,"area_px":1,"approx_length_m":42,"platform":false}},{"type":"Feature","geometry":{"type":"Point","coordinates":[74.71486,9.9186]},"properties":{"peak_db":-6.4,"area_px":4,"approx_length_m":84,"platform":false}},{"type":"Feature","geometry":{"type":"Point","coordinates":[74.70652,9.87744]},"properties":{"peak_db":-0.9,"area_px":3,"approx_length_m":73,"platform":false}},{"type":"Feature","geometry":{"type":"Point","coordinates":[75.38167,9.7352]},"properties":{"peak_db":7.5,"area_px":16,"approx_length_m":168,"platform":false}},{"type":"Feature","geometry":{"type":"Point","coordinates":[75.44504,9.71353]},"properties":{"peak_db":14.3,"area_px":17,"approx_length_m":173,"platform":false}},{"type":"Feature","geometry":{"type":"Point","coordinates":[74.6982,9.83644]},"properties":{"peak_db":23.1,"area_px":24,"approx_length_m":206,"platform":false}},{"type":"Feature","geometry":{"type":"Point","coordinates":[74.6903,9.79499]},"properties":{"peak_db":2.9,"area_px":6,"approx_length_m":103,"platform":false}},{"type":"Feature","geometry":{"type":"Point","coordinates":[75.51213,9.60322]},"properties":{"peak_db":7.7,"area_px":12,"approx_length_m":145,"platform":false}},{"type":"Feature","geometry":{"type":"Point","coordinates":[74.98528,9.70741]},"properties":{"peak_db":10.2,"area_px":17,"approx_length_m":173,"platform":false}},{"type":"Feature","geometry":{"type":"Point","coordinates":[74.68018,9.75436]},"properties":{"peak_db":-4.8,"area_px":2,"approx_length_m":59,"platform":false}},{"type":"Feature","geometry":{"type":"Point","coordinates":[74.50059,9.73258]},"properties":{"peak_db":14.7,"area_px":18,"approx_length_m":178,"platform":false}},{"type":"Feature","geometry":{"type":"Point","coordinates":[75.21131,9.58348]},"properties":{"peak_db":-7.3,"area_px":1,"approx_length_m":42,"platform":false}}],"properties":{"method":"two-window CFAR, 30 m, 9.0 dB over local background","validated":false}}