{"type":"FeatureCollection","features":[{"type":"Feature","geometry":{"type":"MultiPolygon","coordinates":[[[[75.442429,9.575958],[75.443802,9.575958],[75.443802,9.575272],[75.444489,9.575272],[75.444489,9.573898],[75.445175,9.573898],[75.445175,9.573212],[75.445862,9.573212],[75.445862,9.572525],[75.446548,9.572525],[75.446548,9.571838],[75.447235,9.571838],[75.447235,9.570465],[75.446548,9.570465],[75.446548,9.571152],[75.445175,9.571152],[75.445175,9.571838],[75.443802,9.571838],[75.443802,9.573212],[75.443115,9.573212],[75.443115,9.575272],[75.442429,9.575272],[75.442429,9.575958]]],[[[75.420456,9.621277],[75.421829,9.621277],[75.421829,9.62059],[75.422516,9.62059],[75.422516,9.619904],[75.424576,9.619904],[75.424576,9.617844],[75.425262,9.617844],[75.425262,9.617157],[75.425949,9.617157],[75.425949,9.61647],[75.426636,9.61647],[75.426636,9.615097],[75.425949,9.615097],[75.425949,9.61441],[75.422516,9.61441],[75.422516,9.615097],[75.421143,9.615097],[75.421143,9.61647],[75.420456,9.61647],[75.420456,9.615784],[75.419769,9.615784],[75.419769,9.617157],[75.420456,9.617157],[75.420456,9.621277]]],[[[75.325012,9.784698],[75.325699,9.784698],[75.325699,9.782639],[75.326385,9.782639],[75.326385,9.780579],[75.327072,9.780579],[75.327072,9.778519],[75.327759,9.778519],[75.327759,9.777832],[75.329819,9.777832],[75.329819,9.782639],[75.330505,9.782639],[75.330505,9.783325],[75.331192,9.783325],[75.331192,9.784012],[75.331879,9.784012],[75.331879,9.785385],[75.332565,9.785385],[75.332565,9.784012],[75.333252,9.784012],[75.333252,9.781265],[75.332565,9.781265],[75.332565,9.780579],[75.333252,9.780579],[75.333252,9.779205],[75.334625,9.779205],[75.334625,9.773712],[75.335312,9.773712],[75.335312,9.768906],[75.335999,9.768906],[75.335999,9.765472],[75.336685,9.765472],[75.336685,9.764099],[75.337372,9.764099],[75.337372,9.760666],[75.338058,9.760666],[75.338058,9.758606],[75.338745,9.758606],[75.338745,9.757919],[75.339432,9.757919],[75.339432,9.757233],[75.340118,9.757233],[75.340118,9.755859],[75.340805,9.755859],[75.340805,9.753799],[75.341492,9.753799],[75.341492,9.752426],[75.340805,9.752426],[75.340805,9.75174],[75.341492,9.75174],[75.341492,9.74968],[75.342178,9.74968],[75.342178,9.748306],[75.342865,9.748306],[75.342865,9.748993],[75.344925,9.748993],[75.344925,9.74762],[75.345612,9.74762],[75.345612,9.746933],[75.346298,9.746933],[75.346298,9.74762],[75.346985,9.74762],[75.346985,9.744186],[75.347672,9.744186],[75.347672,9.7435],[75.349731,9.7435],[75.349731,9.742813],[75.350418,9.742813],[75.350418,9.74144],[75.351105,9.74144],[75.351105,9.740753],[75.352478,9.740753],[75.352478,9.740067],[75.351791,9.740067],[75.351791,9.73938],[75.351105,9.73938],[75.351105,9.738693],[75.351791,9.738693],[75.351791,9.73526],[75.352478,9.73526],[75.352478,9.733887],[75.353165,9.733887],[75.353165,9.7332],[75.353851,9.7332],[75.353851,9.732513],[75.354538,9.732513],[75.354538,9.7332],[75.355911,9.7332],[75.355911,9.733887],[75.356598,9.733887],[75.356598,9.736633],[75.357285,9.736633],[75.357285,9.73732],[75.359344,9.73732],[75.359344,9.738007],[75.360031,9.738007],[75.360031,9.736633],[75.359344,9.736633],[75.359344,9.735947],[75.360031,9.735947],[75.360031,9.732513],[75.359344,9.732513],[75.359344,9.731827],[75.360031,9.731827],[75.360031,9.729767],[75.359344,9.729767],[75.359344,9.727707],[75.360031,9.727707],[75.360031,9.728394],[75.361404,9.728394],[75.361404,9.727707],[75.362778,9.727707],[75.362778,9.725647],[75.363464,9.725647],[75.363464,9.723587],[75.364151,9.723587],[75.364151,9.7229],[75.364838,9.7229],[75.364838,9.722214],[75.365524,9.722214],[75.365524,9.721527],[75.367584,9.721527],[75.367584,9.719467],[75.368958,9.719467],[75.368958,9.72084],[75.368271,9.72084],[75.368271,9.721527],[75.368958,9.721527],[75.368958,9.7229],[75.368271,9.7229],[75.368271,9.724274],[75.368958,9.724274],[75.368958,9.726334],[75.368271,9.726334],[75.368271,9.728394],[75.368958,9.728394],[75.368958,9.727707],[75.369644,9.727707],[75.369644,9.72702],[75.370331,9.72702],[75.370331,9.722214],[75.371017,9.722214],[75.371017,9.721527],[75.373764,9.721527],[75.373764,9.720154],[75.373077,9.720154],[75.373077,9.719467],[75.373764,9.719467],[75.373764,9.718781],[75.373077,9.718781],[75.373077,9.714661],[75.374451,9.714661],[75.374451,9.713974],[75.373764,9.713974],[75.373764,9.713287],[75.374451,9.713287],[75.374451,9.708481],[75.375137,9.708481],[75.375137,9.706421],[75.375824,9.706421],[75.375824,9.705734],[75.375137,9.705734],[75.375137,9.704361],[75.375824,9.704361],[75.375824,9.702301],[75.375137,9.702301],[75.375137,9.701614],[75.374451,9.701614],[75.374451,9.699554],[75.375137,9.699554],[75.375137,9.696121],[75.375824,9.696121],[75.375824,9.694748],[75.374451,9.694748],[75.374451,9.693375],[75.375137,9.693375],[75.375137,9.692001],[75.375824,9.692001],[75.375824,9.691315],[75.376511,9.691315],[75.376511,9.689255],[75.377197,9.689255],[75.377197,9.688568],[75.379257,9.688568],[75.379257,9.686508],[75.379944,9.686508],[75.379944,9.685822],[75.382004,9.685822],[75.382004,9.685135],[75.383377,9.685135],[75.383377,9.681702],[75.384064,9.681702],[75.384064,9.676208],[75.38475,9.676208],[75.38475,9.674835],[75.385437,9.674835],[75.385437,9.674149],[75.386124,9.674149],[75.386124,9.673462],[75.38681,9.673462],[75.38681,9.672775],[75.387497,9.672775],[75.387497,9.672089],[75.388184,9.672089],[75.388184,9.671402],[75.390244,9.671402],[75.390244,9.672089],[75.39093,9.672089],[75.39093,9.669342],[75.391617,9.669342],[75.391617,9.668655],[75.392303,9.668655],[75.392303,9.667282],[75.393677,9.667282],[75.393677,9.666595],[75.39299,9.666595],[75.39299,9.665222],[75.394363,9.665222],[75.394363,9.663849],[75.396423,9.663849],[75.396423,9.663162],[75.39505,9.663162],[75.39505,9.657669],[75.395737,9.657669],[75.395737,9.655609],[75.396423,9.655609],[75.396423,9.654922],[75.39711,9.654922],[75.39711,9.654236],[75.397797,9.654236],[75.397797,9.660416],[75.398483,9.660416],[75.398483,9.659729],[75.39917,9.659729],[75.39917,9.653549],[75.398483,9.653549],[75.398483,9.649429],[75.397797,9.649429],[75.397797,9.647369],[75.39917,9.647369],[75.39917,9.645996],[75.398483,9.645996],[75.398483,9.645309],[75.39917,9.645309],[75.39917,9.64325],[75.400543,9.64325],[75.400543,9.641876],[75.401917,9.641876],[75.401917,9.640503],[75.40123,9.640503],[75.40123,9.639816],[75.402603,9.639816],[75.402603,9.63913],[75.40329,9.63913],[75.40329,9.638443],[75.402603,9.638443],[75.402603,9.637756],[75.401917,9.637756],[75.401917,9.63707],[75.40123,9.63707],[75.40123,9.636383],[75.401917,9.636383],[75.401917,9.63501],[75.402603,9.63501],[75.402603,9.636383],[75.40329,9.636383],[75.40329,9.63501],[75.403976,9.63501],[75.403976,9.635696],[75.404663,9.635696],[75.404663,9.63501],[75.406036,9.63501],[75.406036,9.634323],[75.40741,9.634323],[75.40741,9.63295],[75.406723,9.63295],[75.406723,9.632263],[75.40741,9.632263],[75.40741,9.62883],[75.406723,9.62883],[75.406723,9.628143],[75.40741,9.628143],[75.40741,9.627457],[75.408783,9.627457],[75.408783,9.628143],[75.40947,9.628143],[75.40947,9.625397],[75.408783,9.625397],[75.408783,9.624023],[75.406723,9.624023],[75.406723,9.621964],[75.406036,9.621964],[75.406036,9.621277],[75.40535,9.621277],[75.40535,9.62059],[75.404663,9.62059],[75.404663,9.61853],[75.40535,9.61853],[75.40535,9.615784],[75.404663,9.615784],[75.404663,9.61647],[75.40329,9.61647],[75.40329,9.617157],[75.402603,9.617157],[75.402603,9.617844],[75.401917,9.617844],[75.401917,9.61853],[75.40123,9.61853],[75.40123,9.619904],[75.400543,9.619904],[75.400543,9.62059],[75.399857,9.62059],[75.399857,9.621277],[75.398483,9.621277],[75.398483,9.623337],[75.397797,9.623337],[75.397797,9.624023],[75.39711,9.624023],[75.39711,9.625397],[75.396423,9.625397],[75.396423,9.62677],[75.395737,9.62677],[75.395737,9.62883],[75.39505,9.62883],[75.39505,9.630203],[75.39299,9.630203],[75.39299,9.63089],[75.392303,9.63089],[75.392303,9.633636],[75.390244,9.633636],[75.390244,9.634323],[75.389557,9.634323],[75.389557,9.637756],[75.38887,9.637756],[75.38887,9.638443],[75.388184,9.638443],[75.388184,9.63913],[75.387497,9.63913],[75.387497,9.64119],[75.38681,9.64119],[75.38681,9.641876],[75.385437,9.641876],[75.385437,9.645309],[75.384064,9.645309],[75.384064,9.645996],[75.383377,9.645996],[75.383377,9.646683],[75.38269,9.646683],[75.38269,9.647369],[75.382004,9.647369],[75.382004,9.648743],[75.381317,9.648743],[75.381317,9.649429],[75.38063,9.649429],[75.38063,9.650116],[75.379944,9.650116],[75.379944,9.652863],[75.378571,9.652863],[75.378571,9.653549],[75.377884,9.653549],[75.377884,9.654236],[75.377197,9.654236],[75.377197,9.654922],[75.376511,9.654922],[75.376511,9.656296],[75.375824,9.656296],[75.375824,9.656982],[75.375137,9.656982],[75.375137,9.659729],[75.374451,9.659729],[75.374451,9.660416],[75.373764,9.660416],[75.373764,9.661789],[75.373077,9.661789],[75.373077,9.663162],[75.373764,9.663162],[75.373764,9.664536],[75.373077,9.664536],[75.373077,9.665222],[75.371704,9.665222],[75.371704,9.665909],[75.371017,9.665909],[75.371017,9.667282],[75.370331,9.667282],[75.370331,9.668655],[75.369644,9.668655],[75.369644,9.672089],[75.368958,9.672089],[75.368958,9.672775],[75.368271,9.672775],[75.368271,9.674835],[75.367584,9.674835],[75.367584,9.678955],[75.366898,9.678955],[75.366898,9.680328],[75.366211,9.680328],[75.366211,9.681015],[75.366898,9.681015],[75.366898,9.682388],[75.366211,9.682388],[75.366211,9.683762],[75.365524,9.683762],[75.365524,9.684448],[75.364838,9.684448],[75.364838,9.688568],[75.364151,9.688568],[75.364151,9.689941],[75.364838,9.689941],[75.364838,9.690628],[75.364151,9.690628],[75.364151,9.692001],[75.363464,9.692001],[75.363464,9.692688],[75.364151,9.692688],[75.364151,9.693375],[75.363464,9.693375],[75.363464,9.694748],[75.362778,9.694748],[75.362778,9.695435],[75.362091,9.695435],[75.362091,9.696121],[75.361404,9.696121],[75.361404,9.697495],[75.359344,9.697495],[75.359344,9.698868],[75.358658,9.698868],[75.358658,9.701614],[75.357285,9.701614],[75.357285,9.702301],[75.356598,9.702301],[75.356598,9.705048],[75.355911,9.705048],[75.355911,9.706421],[75.355225,9.706421],[75.355225,9.707108],[75.353851,9.707108],[75.353851,9.708481],[75.354538,9.708481],[75.354538,9.709167],[75.353851,9.709167],[75.353851,9.711227],[75.353165,9.711227],[75.353165,9.711914],[75.353851,9.711914],[75.353851,9.715347],[75.353165,9.715347],[75.353165,9.717407],[75.352478,9.717407],[75.352478,9.718094],[75.351105,9.718094],[75.351105,9.718781],[75.350418,9.718781],[75.350418,9.719467],[75.349045,9.719467],[75.349045,9.720154],[75.347672,9.720154],[75.347672,9.72084],[75.346985,9.72084],[75.346985,9.721527],[75.346298,9.721527],[75.346298,9.722214],[75.344238,9.722214],[75.344238,9.7229],[75.343552,9.7229],[75.343552,9.724274],[75.342865,9.724274],[75.342865,9.725647],[75.342178,9.725647],[75.342178,9.727707],[75.341492,9.727707],[75.341492,9.729767],[75.340805,9.729767],[75.340805,9.732513],[75.340118,9.732513],[75.340118,9.73526],[75.338745,9.73526],[75.338745,9.735947],[75.338058,9.735947],[75.338058,9.738007],[75.337372,9.738007],[75.337372,9.740753],[75.336685,9.740753],[75.336685,9.742813],[75.335999,9.742813],[75.335999,9.744186],[75.335312,9.744186],[75.335312,9.74556],[75.335999,9.74556],[75.335999,9.746246],[75.335312,9.746246],[75.335312,9.748306],[75.334625,9.748306],[75.334625,9.752426],[75.333939,9.752426],[75.333939,9.753113],[75.333252,9.753113],[75.333252,9.755173],[75.332565,9.755173],[75.332565,9.757919],[75.331879,9.757919],[75.331879,9.759293],[75.331192,9.759293],[75.331192,9.763412],[75.330505,9.763412],[75.330505,9.766159],[75.329819,9.766159],[75.329819,9.769592],[75.329132,9.769592],[75.329132,9.773712],[75.328445,9.773712],[75.328445,9.775772],[75.329132,9.775772],[75.329132,9.776459],[75.328445,9.776459],[75.328445,9.777145],[75.327072,9.777145],[75.327072,9.777832],[75.326385,9.777832],[75.326385,9.779892],[75.325699,9.779892],[75.325699,9.781952],[75.325012,9.781952],[75.325012,9.784698]],[[75.387497,9.672089],[75.386124,9.672089],[75.386124,9.672775],[75.385437,9.672775],[75.385437,9.671402],[75.387497,9.671402],[75.387497,9.672089]],[[75.401917,9.637756],[75.401917,9.638443],[75.40123,9.638443],[75.40123,9.637756],[75.401917,9.637756]],[[75.352478,9.730453],[75.352478,9.729767],[75.353165,9.729767],[75.353165,9.730453],[75.352478,9.730453]],[[75.333252,9.769592],[75.333252,9.768906],[75.333939,9.768906],[75.333939,9.769592],[75.333252,9.769592]],[[75.331879,9.776459],[75.331879,9.774399],[75.331192,9.774399],[75.331192,9.773026],[75.331879,9.773026],[75.331879,9.771652],[75.331192,9.771652],[75.331192,9.770966],[75.331879,9.770966],[75.331879,9.770279],[75.333252,9.770279],[75.333252,9.773712],[75.332565,9.773712],[75.332565,9.775772],[75.333252,9.775772],[75.333252,9.776459],[75.331879,9.776459]],[[75.331879,9.769592],[75.331879,9.768906],[75.332565,9.768906],[75.332565,9.769592],[75.331879,9.769592]]],[[[75.311966,9.813538],[75.312653,9.813538],[75.312653,9.810791],[75.313339,9.810791],[75.313339,9.809418],[75.311966,9.809418],[75.311966,9.808731],[75.312653,9.808731],[75.312653,9.808044],[75.313339,9.808044],[75.313339,9.806671],[75.314026,9.806671],[75.314026,9.805298],[75.314713,9.805298],[75.314713,9.805984],[75.316086,9.805984],[75.316086,9.806671],[75.316772,9.806671],[75.316772,9.808044],[75.316086,9.808044],[75.316086,9.809418],[75.317459,9.809418],[75.317459,9.810104],[75.318832,9.810104],[75.318832,9.811478],[75.319519,9.811478],[75.319519,9.812164],[75.321579,9.812164],[75.321579,9.810791],[75.322266,9.810791],[75.322266,9.806671],[75.321579,9.806671],[75.321579,9.805298],[75.320892,9.805298],[75.320892,9.804611],[75.321579,9.804611],[75.321579,9.801865],[75.320892,9.801865],[75.320892,9.798431],[75.320206,9.798431],[75.320206,9.797745],[75.320892,9.797745],[75.320892,9.797058],[75.321579,9.797058],[75.321579,9.797745],[75.322266,9.797745],[75.322266,9.798431],[75.322952,9.798431],[75.322952,9.794312],[75.322266,9.794312],[75.322266,9.792938],[75.322952,9.792938],[75.322952,9.790192],[75.323639,9.790192],[75.323639,9.788818],[75.324326,9.788818],[75.324326,9.785385],[75.323639,9.785385],[75.323639,9.786072],[75.322952,9.786072],[75.322952,9.788818],[75.322266,9.788818],[75.322266,9.789505],[75.321579,9.789505],[75.321579,9.792252],[75.320892,9.792252],[75.320892,9.793625],[75.320206,9.793625],[75.320206,9.794998],[75.319519,9.794998],[75.319519,9.796371],[75.318832,9.796371],[75.318832,9.797745],[75.318146,9.797745],[75.318146,9.798431],[75.317459,9.798431],[75.317459,9.799805],[75.316772,9.799805],[75.316772,9.800491],[75.316086,9.800491],[75.316086,9.801178],[75.315399,9.801178],[75.315399,9.801865],[75.314026,9.801865],[75.314026,9.803238],[75.312653,9.803238],[75.312653,9.803925],[75.310593,9.803925],[75.310593,9.805298],[75.309906,9.805298],[75.309906,9.805984],[75.308533,9.805984],[75.308533,9.808044],[75.307846,9.808044],[75.307846,9.809418],[75.307159,9.809418],[75.307159,9.811478],[75.306473,9.811478],[75.306473,9.812164],[75.307846,9.812164],[75.307846,9.810791],[75.308533,9.810791],[75.308533,9.809418],[75.309219,9.809418],[75.309219,9.808731],[75.310593,9.808731],[75.310593,9.810104],[75.311279,9.810104],[75.311279,9.810791],[75.311966,9.810791],[75.311966,9.813538]]],[[[75.324326,9.785385],[75.325012,9.785385],[75.325012,9.784698],[75.324326,9.784698],[75.324326,9.785385]]],[[[75.40535,9.615784],[75.406036,9.615784],[75.406036,9.61647],[75.406723,9.61647],[75.406723,9.615784],[75.408096,9.615784],[75.408096,9.61441],[75.408783,9.61441],[75.408783,9.613724],[75.40741,9.613724],[75.40741,9.615097],[75.40535,9.615097],[75.40535,9.615784]]],[[[75.40741,9.613037],[75.408783,9.613037],[75.408783,9.61235],[75.40741,9.61235],[75.40741,9.613037]]],[[[75.353165,9.687881],[75.354538,9.687881],[75.354538,9.686508],[75.353851,9.686508],[75.353851,9.685135],[75.354538,9.685135],[75.354538,9.684448],[75.353851,9.684448],[75.353851,9.679642],[75.355225,9.679642],[75.355225,9.678955],[75.356598,9.678955],[75.356598,9.680328],[75.357285,9.680328],[75.357285,9.677582],[75.357971,9.677582],[75.357971,9.674835],[75.358658,9.674835],[75.358658,9.674149],[75.359344,9.674149],[75.359344,9.674835],[75.361404,9.674835],[75.361404,9.672089],[75.362091,9.672089],[75.362091,9.669342],[75.362778,9.669342],[75.362778,9.668655],[75.363464,9.668655],[75.363464,9.667282],[75.364151,9.667282],[75.364151,9.666595],[75.364838,9.666595],[75.364838,9.664536],[75.365524,9.664536],[75.365524,9.663849],[75.364838,9.663849],[75.364838,9.663162],[75.365524,9.663162],[75.365524,9.662476],[75.366211,9.662476],[75.366211,9.658356],[75.367584,9.658356],[75.367584,9.656982],[75.368271,9.656982],[75.368271,9.656296],[75.368958,9.656296],[75.368958,9.654922],[75.369644,9.654922],[75.369644,9.654236],[75.370331,9.654236],[75.370331,9.650803],[75.371017,9.650803],[75.371017,9.650116],[75.371704,9.650116],[75.371704,9.649429],[75.373764,9.649429],[75.373764,9.648743],[75.375137,9.648743],[75.375137,9.645309],[75.375824,9.645309],[75.375824,9.64325],[75.376511,9.64325],[75.376511,9.642563],[75.379257,9.642563],[75.379257,9.641876],[75.379944,9.641876],[75.379944,9.639816],[75.38063,9.639816],[75.38063,9.638443],[75.381317,9.638443],[75.381317,9.636383],[75.384064,9.636383],[75.384064,9.63501],[75.385437,9.63501],[75.385437,9.632263],[75.386124,9.632263],[75.386124,9.631577],[75.38475,9.631577],[75.38475,9.632263],[75.384064,9.632263],[75.384064,9.63295],[75.381317,9.63295],[75.381317,9.634323],[75.38063,9.634323],[75.38063,9.63501],[75.379944,9.63501],[75.379944,9.635696],[75.379257,9.635696],[75.379257,9.63707],[75.377884,9.63707],[75.377884,9.638443],[75.377197,9.638443],[75.377197,9.63913],[75.375824,9.63913],[75.375824,9.639816],[75.375137,9.639816],[75.375137,9.640503],[75.374451,9.640503],[75.374451,9.642563],[75.373077,9.642563],[75.373077,9.64325],[75.372391,9.64325],[75.372391,9.643936],[75.371704,9.643936],[75.371704,9.644623],[75.371017,9.644623],[75.371017,9.645996],[75.370331,9.645996],[75.370331,9.646683],[75.368958,9.646683],[75.368958,9.647369],[75.368271,9.647369],[75.368271,9.649429],[75.367584,9.649429],[75.367584,9.650116],[75.366898,9.650116],[75.366898,9.650803],[75.366211,9.650803],[75.366211,9.652176],[75.365524,9.652176],[75.365524,9.652863],[75.366211,9.652863],[75.366211,9.653549],[75.365524,9.653549],[75.365524,9.654922],[75.364838,9.654922],[75.364838,9.657669],[75.364151,9.657669],[75.364151,9.658356],[75.363464,9.658356],[75.363464,9.659042],[75.362778,9.659042],[75.362778,9.659729],[75.362091,9.659729],[75.362091,9.661102],[75.361404,9.661102],[75.361404,9.661789],[75.360031,9.661789],[75.360031,9.662476],[75.359344,9.662476],[75.359344,9.664536],[75.358658,9.664536],[75.358658,9.666595],[75.357971,9.666595],[75.357971,9.667282],[75.357285,9.667282],[75.357285,9.668655],[75.356598,9.668655],[75.356598,9.669342],[75.355911,9.669342],[75.355911,9.671402],[75.355225,9.671402],[75.355225,9.676208],[75.354538,9.676208],[75.354538,9.676895],[75.353851,9.676895],[75.353851,9.677582],[75.353165,9.677582],[75.353165,9.678955],[75.352478,9.678955],[75.352478,9.679642],[75.351791,9.679642],[75.351791,9.681702],[75.351105,9.681702],[75.351105,9.683762],[75.351791,9.683762],[75.351791,9.686508],[75.353165,9.686508],[75.353165,9.687881]],[[75.379944,9.639816],[75.378571,9.639816],[75.378571,9.63913],[75.379257,9.63913],[75.379257,9.638443],[75.379944,9.638443],[75.379944,9.639816]],[[75.363464,9.663849],[75.363464,9.663162],[75.364151,9.663162],[75.364151,9.663849],[75.363464,9.663849]],[[75.360031,9.673462],[75.360031,9.672775],[75.360718,9.672775],[75.360718,9.673462],[75.360031,9.673462]]],[[[75.38063,9.639816],[75.38063,9.64119],[75.381317,9.64119],[75.381317,9.639816],[75.38063,9.639816]]],[[[75.378571,9.690628],[75.379257,9.690628],[75.379257,9.689255],[75.378571,9.689255],[75.378571,9.690628]]],[[[75.379257,9.690628],[75.379257,9.691315],[75.379944,9.691315],[75.379944,9.690628],[75.379257,9.690628]]],[[[75.377884,9.709854],[75.378571,9.709854],[75.378571,9.707794],[75.377884,9.707794],[75.377884,9.709854]]],[[[75.376511,9.694061],[75.377197,9.694061],[75.377197,9.693375],[75.376511,9.693375],[75.376511,9.694061]]],[[[75.375137,9.700928],[75.375824,9.700928],[75.375824,9.700241],[75.375137,9.700241],[75.375137,9.700928]]],[[[75.366211,9.7229],[75.366898,9.7229],[75.366898,9.722214],[75.366211,9.722214],[75.366211,9.7229]]],[[[75.366898,9.7229],[75.366898,9.723587],[75.367584,9.723587],[75.367584,9.7229],[75.366898,9.7229]]],[[[75.353165,9.73526],[75.353851,9.73526],[75.353851,9.734573],[75.353165,9.734573],[75.353165,9.73526]]],[[[75.351105,9.742813],[75.351791,9.742813],[75.351791,9.742126],[75.351105,9.742126],[75.351105,9.742813]]],[[[75.349045,9.688568],[75.350418,9.688568],[75.350418,9.687881],[75.349731,9.687881],[75.349731,9.687195],[75.350418,9.687195],[75.350418,9.685822],[75.349731,9.685822],[75.349731,9.686508],[75.349045,9.686508],[75.349045,9.688568]]],[[[75.322952,9.731827],[75.323639,9.731827],[75.323639,9.72702],[75.324326,9.72702],[75.324326,9.726334],[75.325012,9.726334],[75.325012,9.723587],[75.325699,9.723587],[75.325699,9.721527],[75.326385,9.721527],[75.326385,9.72084],[75.325699,9.72084],[75.325699,9.720154],[75.325012,9.720154],[75.325012,9.7229],[75.324326,9.7229],[75.324326,9.723587],[75.323639,9.723587],[75.323639,9.726334],[75.322952,9.726334],[75.322952,9.731827]]],[[[75.325699,9.720154],[75.326385,9.720154],[75.326385,9.719467],[75.328445,9.719467],[75.328445,9.716721],[75.329132,9.716721],[75.329132,9.715347],[75.329819,9.715347],[75.329819,9.712601],[75.330505,9.712601],[75.330505,9.711227],[75.331192,9.711227],[75.331192,9.710541],[75.331879,9.710541],[75.331879,9.708481],[75.332565,9.708481],[75.332565,9.707794],[75.333939,9.707794],[75.333939,9.708481],[75.334625,9.708481],[75.334625,9.706421],[75.333939,9.706421],[75.333939,9.705734],[75.334625,9.705734],[75.334625,9.703674],[75.335312,9.703674],[75.335312,9.702301],[75.335999,9.702301],[75.335999,9.701614],[75.336685,9.701614],[75.336685,9.700928],[75.338058,9.700928],[75.338058,9.700241],[75.338745,9.700241],[75.338745,9.700928],[75.339432,9.700928],[75.339432,9.698868],[75.340118,9.698868],[75.340118,9.698181],[75.340805,9.698181],[75.340805,9.697495],[75.341492,9.697495],[75.341492,9.696808],[75.342865,9.696808],[75.342865,9.696121],[75.343552,9.696121],[75.343552,9.694061],[75.344238,9.694061],[75.344238,9.692688],[75.344925,9.692688],[75.344925,9.692001],[75.346298,9.692001],[75.346298,9.691315],[75.346985,9.691315],[75.346985,9.689255],[75.346298,9.689255],[75.346298,9.690628],[75.345612,9.690628],[75.345612,9.691315],[75.344238,9.691315],[75.344238,9.692001],[75.343552,9.692001],[75.343552,9.693375],[75.342865,9.693375],[75.342865,9.694061],[75.342178,9.694061],[75.342178,9.694748],[75.340805,9.694748],[75.340805,9.696121],[75.340118,9.696121],[75.340118,9.697495],[75.338058,9.697495],[75.338058,9.698181],[75.337372,9.698181],[75.337372,9.700241],[75.335999,9.700241],[75.335999,9.700928],[75.335312,9.700928],[75.335312,9.701614],[75.333939,9.701614],[75.333939,9.702988],[75.333252,9.702988],[75.333252,9.703674],[75.332565,9.703674],[75.332565,9.705048],[75.331879,9.705048],[75.331879,9.707108],[75.331192,9.707108],[75.331192,9.708481],[75.330505,9.708481],[75.330505,9.709167],[75.329819,9.709167],[75.329819,9.711914],[75.329132,9.711914],[75.329132,9.713287],[75.328445,9.713287],[75.328445,9.713974],[75.327759,9.713974],[75.327759,9.714661],[75.327072,9.714661],[75.327072,9.715347],[75.326385,9.715347],[75.326385,9.718781],[75.325699,9.718781],[75.325699,9.720154]]],[[[75.346985,9.689255],[75.347672,9.689255],[75.347672,9.688568],[75.346985,9.688568],[75.346985,9.689255]]],[[[75.347672,9.688568],[75.348358,9.688568],[75.348358,9.687881],[75.347672,9.687881],[75.347672,9.688568]]],[[[75.339432,9.700928],[75.339432,9.702301],[75.340118,9.702301],[75.340118,9.700928],[75.339432,9.700928]]],[[[75.334625,9.708481],[75.334625,9.709167],[75.335312,9.709167],[75.335312,9.708481],[75.334625,9.708481]]],[[[75.343552,9.703674],[75.345612,9.703674],[75.345612,9.702301],[75.344925,9.702301],[75.344925,9.700928],[75.345612,9.700928],[75.345612,9.699554],[75.346298,9.699554],[75.346298,9.698868],[75.346985,9.698868],[75.346985,9.697495],[75.347672,9.697495],[75.347672,9.696121],[75.346985,9.696121],[75.346985,9.694748],[75.346298,9.694748],[75.346298,9.697495],[75.345612,9.697495],[75.345612,9.698868],[75.344925,9.698868],[75.344925,9.698181],[75.343552,9.698181],[75.343552,9.701614],[75.344238,9.701614],[75.344238,9.702301],[75.343552,9.702301],[75.343552,9.703674]]],[[[75.346985,9.694748],[75.347672,9.694748],[75.347672,9.693375],[75.346985,9.693375],[75.346985,9.694748]]],[[[75.347672,9.696121],[75.348358,9.696121],[75.348358,9.695435],[75.347672,9.695435],[75.347672,9.696121]]],[[[75.344925,9.706421],[75.346298,9.706421],[75.346298,9.704361],[75.345612,9.704361],[75.345612,9.705048],[75.344925,9.705048],[75.344925,9.706421]]],[[[75.344238,9.708481],[75.344925,9.708481],[75.344925,9.707108],[75.343552,9.707108],[75.343552,9.707794],[75.344238,9.707794],[75.344238,9.708481]]],[[[75.344925,9.708481],[75.344925,9.709167],[75.345612,9.709167],[75.345612,9.708481],[75.344925,9.708481]]],[[[75.322266,9.799805],[75.322952,9.799805],[75.322952,9.799118],[75.322266,9.799118],[75.322266,9.799805]]],[[[75.312653,9.797058],[75.313339,9.797058],[75.313339,9.790878],[75.312653,9.790878],[75.312653,9.788818],[75.313339,9.788818],[75.313339,9.788132],[75.312653,9.788132],[75.312653,9.787445],[75.313339,9.787445],[75.313339,9.784698],[75.312653,9.784698],[75.312653,9.785385],[75.311966,9.785385],[75.311966,9.787445],[75.311279,9.787445],[75.311279,9.789505],[75.310593,9.789505],[75.310593,9.790192],[75.309906,9.790192],[75.309906,9.790878],[75.310593,9.790878],[75.310593,9.792252],[75.311279,9.792252],[75.311279,9.792938],[75.311966,9.792938],[75.311966,9.795685],[75.312653,9.795685],[75.312653,9.797058]]],[[[75.30304,9.820404],[75.304413,9.820404],[75.304413,9.817657],[75.303726,9.817657],[75.303726,9.819717],[75.30304,9.819717],[75.30304,9.820404]]],[[[75.29068,9.834824],[75.291367,9.834824],[75.291367,9.83345],[75.292053,9.83345],[75.292053,9.832764],[75.2948,9.832764],[75.2948,9.832077],[75.294113,9.832077],[75.294113,9.83139],[75.296173,9.83139],[75.296173,9.830704],[75.297546,9.830704],[75.297546,9.82933],[75.298233,9.82933],[75.298233,9.830017],[75.299606,9.830017],[75.299606,9.82933],[75.29892,9.82933],[75.29892,9.828644],[75.299606,9.828644],[75.299606,9.827957],[75.30098,9.827957],[75.30098,9.824524],[75.301666,9.824524],[75.301666,9.823151],[75.302353,9.823151],[75.302353,9.822464],[75.300293,9.822464],[75.300293,9.823151],[75.298233,9.823151],[75.298233,9.824524],[75.297546,9.824524],[75.297546,9.825897],[75.295486,9.825897],[75.295486,9.826584],[75.2948,9.826584],[75.2948,9.827957],[75.293427,9.827957],[75.293427,9.82933],[75.29274,9.82933],[75.29274,9.830704],[75.292053,9.830704],[75.292053,9.83139],[75.29068,9.83139],[75.29068,9.834824]]],[[[75.295486,9.832764],[75.296173,9.832764],[75.296173,9.832077],[75.295486,9.832077],[75.295486,9.832764]]],[[[75.283127,9.842377],[75.285873,9.842377],[75.285873,9.840317],[75.28656,9.840317],[75.28656,9.838257],[75.285873,9.838257],[75.285873,9.838943],[75.285187,9.838943],[75.285187,9.83963],[75.2845,9.83963],[75.2845,9.84169],[75.283127,9.84169],[75.283127,9.842377]]],[[[75.283127,9.863663],[75.283813,9.863663],[75.283813,9.862976],[75.283127,9.862976],[75.283127,9.863663]]],[[[75.283813,9.862976],[75.2845,9.862976],[75.2845,9.862289],[75.283813,9.862289],[75.283813,9.862976]]],[[[75.279007,9.849243],[75.28038,9.849243],[75.28038,9.848557],[75.279694,9.848557],[75.279694,9.847183],[75.279007,9.847183],[75.279007,9.849243]]],[[[75.259094,9.882889],[75.259781,9.882889],[75.259781,9.882202],[75.260468,9.882202],[75.260468,9.880829],[75.259781,9.880829],[75.259781,9.879456],[75.259094,9.879456],[75.259094,9.880142],[75.258408,9.880142],[75.258408,9.881516],[75.257721,9.881516],[75.257721,9.882202],[75.259094,9.882202],[75.259094,9.882889]]],[[[75.259781,9.879456],[75.260468,9.879456],[75.260468,9.878769],[75.259781,9.878769],[75.259781,9.879456]]],[[[75.260468,9.878769],[75.263214,9.878769],[75.263214,9.879456],[75.263901,9.879456],[75.263901,9.881516],[75.265274,9.881516],[75.265274,9.882202],[75.265961,9.882202],[75.265961,9.883575],[75.267334,9.883575],[75.267334,9.882202],[75.269394,9.882202],[75.269394,9.880829],[75.268707,9.880829],[75.268707,9.879456],[75.270081,9.879456],[75.270081,9.878769],[75.273514,9.878769],[75.273514,9.878082],[75.274887,9.878082],[75.274887,9.876709],[75.2742,9.876709],[75.2742,9.876022],[75.274887,9.876022],[75.274887,9.874649],[75.275574,9.874649],[75.275574,9.873276],[75.276947,9.873276],[75.276947,9.872589],[75.27832,9.872589],[75.27832,9.869843],[75.279007,9.869843],[75.279007,9.868469],[75.279694,9.868469],[75.279694,9.867096],[75.27832,9.867096],[75.27832,9.867783],[75.277634,9.867783],[75.277634,9.868469],[75.276947,9.868469],[75.276947,9.869156],[75.274887,9.869156],[75.274887,9.869843],[75.2742,9.869843],[75.2742,9.870529],[75.272141,9.870529],[75.272141,9.871902],[75.270767,9.871902],[75.270767,9.872589],[75.270081,9.872589],[75.270081,9.873276],[75.268021,9.873276],[75.268021,9.873962],[75.267334,9.873962],[75.267334,9.874649],[75.264587,9.874649],[75.264587,9.875336],[75.263901,9.875336],[75.263901,9.876709],[75.263214,9.876709],[75.263214,9.877396],[75.261154,9.877396],[75.261154,9.878082],[75.260468,9.878082],[75.260468,9.878769]]],[[[75.269394,9.882202],[75.269394,9.882889],[75.270767,9.882889],[75.270767,9.883575],[75.272141,9.883575],[75.272141,9.882889],[75.271454,9.882889],[75.271454,9.882202],[75.269394,9.882202]]],[[[75.275574,9.878769],[75.27626,9.878769],[75.27626,9.878082],[75.275574,9.878082],[75.275574,9.878769]]],[[[75.263214,9.882889],[75.264587,9.882889],[75.264587,9.882202],[75.263214,9.882202],[75.263214,9.882889]]],[[[75.257034,9.883575],[75.257721,9.883575],[75.257721,9.882889],[75.257034,9.882889],[75.257034,9.883575]]],[[[75.254974,9.885635],[75.255661,9.885635],[75.255661,9.884949],[75.254974,9.884949],[75.254974,9.885635]]],[[[75.208282,9.921341],[75.208969,9.921341],[75.208969,9.920654],[75.211716,9.920654],[75.211716,9.919968],[75.213089,9.919968],[75.213089,9.919281],[75.217209,9.919281],[75.217209,9.917908],[75.218582,9.917908],[75.218582,9.917221],[75.219269,9.917221],[75.219269,9.917908],[75.219955,9.917908],[75.219955,9.918594],[75.220642,9.918594],[75.220642,9.917221],[75.221329,9.917221],[75.221329,9.914474],[75.222015,9.914474],[75.222015,9.913101],[75.222702,9.913101],[75.222702,9.911041],[75.223389,9.911041],[75.223389,9.910355],[75.224075,9.910355],[75.224075,9.909668],[75.224762,9.909668],[75.224762,9.908981],[75.226135,9.908981],[75.226135,9.908295],[75.226822,9.908295],[75.226822,9.907608],[75.227509,9.907608],[75.227509,9.906921],[75.228195,9.906921],[75.228195,9.906235],[75.230255,9.906235],[75.230255,9.905548],[75.230942,9.905548],[75.230942,9.904861],[75.231628,9.904861],[75.231628,9.904175],[75.232315,9.904175],[75.232315,9.903488],[75.233688,9.903488],[75.233688,9.902802],[75.234375,9.902802],[75.234375,9.902115],[75.235062,9.902115],[75.235062,9.901428],[75.235748,9.901428],[75.235748,9.900742],[75.236435,9.900742],[75.236435,9.899368],[75.237808,9.899368],[75.237808,9.898682],[75.239868,9.898682],[75.239868,9.897995],[75.240555,9.897995],[75.240555,9.897308],[75.241928,9.897308],[75.241928,9.895935],[75.243301,9.895935],[75.243301,9.895248],[75.243988,9.895248],[75.243988,9.894562],[75.244675,9.894562],[75.244675,9.893875],[75.246048,9.893875],[75.246048,9.892502],[75.247421,9.892502],[75.247421,9.891815],[75.248795,9.891815],[75.248795,9.890442],[75.249481,9.890442],[75.249481,9.889069],[75.250168,9.889069],[75.250168,9.888382],[75.250854,9.888382],[75.250854,9.887695],[75.252228,9.887695],[75.252228,9.887009],[75.250168,9.887009],[75.250168,9.887695],[75.249481,9.887695],[75.249481,9.888382],[75.248795,9.888382],[75.248795,9.889069],[75.247421,9.889069],[75.247421,9.889755],[75.246735,9.889755],[75.246735,9.890442],[75.246048,9.890442],[75.246048,9.891129],[75.244675,9.891129],[75.244675,9.891815],[75.243988,9.891815],[75.243988,9.892502],[75.243301,9.892502],[75.243301,9.893875],[75.241928,9.893875],[75.241928,9.894562],[75.241241,9.894562],[75.241241,9.895248],[75.240555,9.895248],[75.240555,9.895935],[75.239868,9.895935],[75.239868,9.896622],[75.238495,9.896622],[75.238495,9.897308],[75.237122,9.897308],[75.237122,9.897995],[75.236435,9.897995],[75.236435,9.898682],[75.235062,9.898682],[75.235062,9.899368],[75.234375,9.899368],[75.234375,9.900055],[75.233688,9.900055],[75.233688,9.900742],[75.233002,9.900742],[75.233002,9.901428],[75.232315,9.901428],[75.232315,9.902115],[75.230942,9.902115],[75.230942,9.902802],[75.230255,9.902802],[75.230255,9.903488],[75.228882,9.903488],[75.228882,9.904175],[75.228195,9.904175],[75.228195,9.904861],[75.226822,9.904861],[75.226822,9.905548],[75.226135,9.905548],[75.226135,9.906235],[75.225449,9.906235],[75.225449,9.906921],[75.223389,9.906921],[75.223389,9.907608],[75.222702,9.907608],[75.222702,9.908295],[75.222015,9.908295],[75.222015,9.908981],[75.220642,9.908981],[75.220642,9.909668],[75.219955,9.909668],[75.219955,9.911041],[75.219269,9.911041],[75.219269,9.912415],[75.218582,9.912415],[75.218582,9.913101],[75.216522,9.913101],[75.216522,9.913788],[75.215836,9.913788],[75.215836,9.914474],[75.215149,9.914474],[75.215149,9.915161],[75.213776,9.915161],[75.213776,9.915848],[75.212402,9.915848],[75.212402,9.916534],[75.211716,9.916534],[75.211716,9.917221],[75.209656,9.917221],[75.209656,9.917908],[75.208969,9.917908],[75.208969,9.918594],[75.208282,9.918594],[75.208282,9.919281],[75.206909,9.919281],[75.206909,9.919968],[75.205536,9.919968],[75.205536,9.920654],[75.208282,9.920654],[75.208282,9.921341]]],[[[75.252228,9.887009],[75.252914,9.887009],[75.252914,9.886322],[75.252228,9.886322],[75.252228,9.887009]]],[[[75.252914,9.886322],[75.253601,9.886322],[75.253601,9.885635],[75.252914,9.885635],[75.252914,9.886322]]],[[[75.219269,9.919968],[75.219955,9.919968],[75.219955,9.919281],[75.219269,9.919281],[75.219269,9.919968]]],[[[75.191803,9.931641],[75.193863,9.931641],[75.193863,9.930267],[75.195236,9.930267],[75.195236,9.928894],[75.19455,9.928894],[75.19455,9.929581],[75.19249,9.929581],[75.19249,9.930954],[75.191803,9.930954],[75.191803,9.931641]]],[[[75.18837,9.934387],[75.189056,9.934387],[75.189056,9.933701],[75.19043,9.933701],[75.19043,9.933014],[75.191116,9.933014],[75.191116,9.932327],[75.189743,9.932327],[75.189743,9.933014],[75.18837,9.933014],[75.18837,9.934387]]]]},"properties":{"area_km2":39.613,"perimeter_km":191.93,"length_km":49.2,"mean_width_km":0.805,"elongation":61.1,"compactness":0.0135,"components":9,"orientation_deg":148.0,"centroid":[75.35511,9.71387],"taper":"undetermined","end_width_ratio":0.69,"edge_truncated":false,"wind_speed_ms":2.4,"wind_reliability":0.79,"age_prior_h":{"min":3,"max":72,"label":"weak prior","spreading_min_h":0.6},"shape_indicator":"mixed shape: no source-type indication","cerulean_slick_id":3465280,"cerulean_machine_confidence":0.986,"cerulean_class":5,"s1_scene_id":"S1A_IW_GRDH_1SDV_20240208T004926_20240208T004949_052460_065827_D94A","source":"SkyTruth Cerulean slick polygon"}}]}