{"type":"FeatureCollection","features":[{"type":"Feature","geometry":{"type":"Polygon","coordinates":[[[73.44280279402135,15.462868276627669],[73.44612999565685,15.470195359657273],[73.4537151022418,15.472916707067562],[73.6027605672254,15.449635283662806],[73.71449997806529,15.423991582527513],[73.73089105077588,15.417190094578073],[73.72996311661923,15.40368598332619],[73.72563917432869,15.392886761408684],[73.71648596153867,15.390878789143688],[73.66891767401258,15.402361894246264],[73.65825727740315,15.400685105090359],[73.63419888580299,15.409940497069503],[73.58446918676398,15.413384900801763],[73.53100752161917,15.42300971781184],[73.46719969421,15.439128848404623],[73.44576452799379,15.453209058939589],[73.44280279402135,15.462868276627669]]]},"properties":{"kind":"age","age_h":1,"in_age_prior":false}},{"type":"Feature","geometry":{"type":"Polygon","coordinates":[[[73.43654769964289,15.471927539464605],[73.44215688265285,15.481865873013069],[73.4735130598097,15.480984031704029],[73.59605023041588,15.461198449173523],[73.71405314802503,15.432726933658884],[73.73071342663576,15.425394476790574],[73.73079229274431,15.411588752372781],[73.72373341464139,15.392155214731028],[73.71323323545505,15.390566308197341],[73.59421977651414,15.416648904635897],[73.5268222676733,15.424783553440859],[73.45810548094684,15.441146080921706],[73.44125735879008,15.453415755016648],[73.43654769964289,15.471927539464605]]]},"properties":{"kind":"age","age_h":2,"in_age_prior":true}},{"type":"Feature","geometry":{"type":"Polygon","coordinates":[[[73.42726032137965,15.48071142392646],[73.43477973554292,15.491324032317848],[73.46889584136791,15.492133101465754],[73.58686716261201,15.475298738938754],[73.72654729137196,15.43705026802242],[73.73215060243612,15.426983893326396],[73.72846138940024,15.407451046997185],[73.72249726190736,15.393356476443529],[73.70894506488224,15.38955414834686],[73.64839894922318,15.4055201578403],[73.62575785047578,15.414958096964689],[73.53089409388221,15.424991988866196],[73.4639364796543,15.43864233261058],[73.45416506619529,15.441568387984663],[73.43508447626328,15.45439891383359],[73.42726032137965,15.48071142392646]]]},"properties":{"kind":"age","age_h":3,"in_age_prior":true}},{"type":"Feature","geometry":{"type":"Polygon","coordinates":[[[73.4041900332969,15.517856102482597],[73.4090160225937,15.522298582345512],[73.53198526041075,15.52098354038913],[73.5844113222985,15.50927620236359],[73.69411548493566,15.477629137534825],[73.72044644613065,15.463840944512691],[73.72680643750124,15.43960241965137],[73.7227021017187,15.419976658530665],[73.71529110834454,15.401468210021818],[73.68954111534624,15.397145271663486],[73.63234353550331,15.417849740925833],[73.55245670555841,15.433858717708391],[73.44470024148394,15.441994023164288],[73.4202655625549,15.456387496309183],[73.40239548982797,15.509996473954748],[73.4041900332969,15.517856102482597]]]},"properties":{"kind":"age","age_h":6,"in_age_prior":true}},{"type":"Feature","geometry":{"type":"Polygon","coordinates":[[[73.37795847341174,15.551149572813271],[73.38601665183535,15.56078825581946],[73.45332274931366,15.56620686384312],[73.50011115129857,15.56833803350746],[73.55600157700069,15.560355001729395],[73.68270272142611,15.514797615731576],[73.72079772983119,15.495501285601936],[73.72418854150733,15.486839988812065],[73.7233521031836,15.462004427418718],[73.71772341024639,15.438700360997064],[73.7024646798468,15.412086038399702],[73.69836545141601,15.410002224870343],[73.65841563977452,15.418860773702287],[73.61291778244295,15.438755664555586],[73.53266725522579,15.451942106101201],[73.42445704654806,15.453325035668897],[73.40465264519725,15.465403538485058],[73.37795847341174,15.551149572813271]]]},"properties":{"kind":"age","age_h":9,"in_age_prior":true}},{"type":"Feature","geometry":{"type":"Polygon","coordinates":[[[73.35156555289682,15.572416259520317],[73.34916857863699,15.585860603633565],[73.35504411592325,15.591202071217301],[73.39815513838057,15.60144552014888],[73.45155215344236,15.608879503443202],[73.51964753324856,15.603448658503837],[73.56141444278971,15.591359797247817],[73.66804181700832,15.549885205056267],[73.70989541581105,15.523574799728049],[73.71557790666705,15.517707546903825],[73.71704889131361,15.509443437775287],[73.7148667113835,15.479806275067586],[73.70897935634244,15.458616196679664],[73.69740440264201,15.431096759717713],[73.68279344252997,15.423576596444793],[73.65079685152621,15.431365734531347],[73.59078269517661,15.45677027933233],[73.50845158285411,15.466519865586239],[73.40920296228819,15.4555177342204],[73.38811440631038,15.469967973560655],[73.39425812792142,15.498543576532326],[73.35156555289682,15.572416259520317]]]},"properties":{"kind":"age","age_h":12,"in_age_prior":true}},{"type":"Feature","geometry":{"type":"Polygon","coordinates":[[[73.29775062940926,15.632687988656144],[73.31156916307374,15.654023169236325],[73.32819898471288,15.664564728583537],[73.38372383923812,15.677564848190071],[73.44020448384248,15.674444005164547],[73.50896520947228,15.662561944933726],[73.57364943484582,15.640936622870354],[73.6871297306447,15.587219180981846],[73.68897720403899,15.531077039243662],[73.68274906338304,15.493908073256323],[73.67449392680045,15.472375245954241],[73.6548760850473,15.442034898139289],[73.51767070775931,15.48639769981632],[73.42802156882334,15.473583594615762],[73.39084953287734,15.457451746081194],[73.37834498110823,15.455503932815045],[73.36090837312958,15.472072620679032],[73.35991113744183,15.476939305967266],[73.36551840811603,15.524681465842688],[73.37864609804483,15.562367310712263],[73.29866583631008,15.623523528995078],[73.29775062940926,15.632687988656144]]]},"properties":{"kind":"age","age_h":18,"in_age_prior":true}},{"type":"Feature","geometry":{"type":"Polygon","coordinates":[[[73.29135083573087,15.705554804514694],[73.31564135758715,15.727223197112101],[73.3578617297448,15.735339701002033],[73.42851103217261,15.729838668756306],[73.50240893029603,15.728651947979992],[73.56691900816706,15.703723928021704],[73.68221555320936,15.646233012073267],[73.69608164590178,15.63163393645479],[73.70225470576476,15.557605876386225],[73.69835463793811,15.534892902165307],[73.68964132170144,15.51519279518565],[73.65899416842302,15.469618213184123],[73.63460119791613,15.460742177594096],[73.5883376508855,15.471146484320586],[73.55613359839123,15.484549133207357],[73.49520751236778,15.497404922601634],[73.44575107926133,15.487771073077468],[73.40767714536493,15.467368199619383],[73.3833328280854,15.449987002121915],[73.37040986881824,15.446441327209497],[73.3515345828002,15.466489984355384],[73.36032976626528,15.533124209505889],[73.36581107236847,15.549569762438377],[73.36785756465419,15.592737483516586],[73.35908900134298,15.685799805587504],[73.29121511136208,15.669406786385057],[73.28320267358035,15.670464136865908],[73.27485789127533,15.679720119026232],[73.29135083573087,15.705554804514694]]]},"properties":{"kind":"age","age_h":24,"in_age_prior":true}},{"type":"Feature","geometry":{"type":"Polygon","coordinates":[[[73.22948578908594,15.811547002803113],[73.26581442236785,15.846578382260233],[73.28520800390544,15.855455120953527],[73.36930279670143,15.851972707499785],[73.49565287117274,15.83816841110687],[73.58447054558775,15.802096629517688],[73.63066262480635,15.779998978295747],[73.65100775450063,15.767768115576326],[73.69192514792837,15.72112651179936],[73.7080953991694,15.685159950492574],[73.72208678814731,15.621793643987742],[73.72104844705218,15.584181685491364],[73.70855629462275,15.548537169371542],[73.57550627962685,15.506240946525155],[73.53198438588147,15.513163192262288],[73.40686881440924,15.489401946826339],[73.38410572260955,15.466326733288502],[73.35481929489022,15.42963508236145],[73.3472550163721,15.422478937323355],[73.34244212073307,15.422289742678217],[73.32138330188327,15.438544322710188],[73.33992909047137,15.645644291623602],[73.35782390967394,15.668064854976619],[73.36756812954559,15.687440587611833],[73.34116269693008,15.794539398023376],[73.2087520821704,15.75880448904806],[73.20298094786189,15.77338480771689],[73.22948578908594,15.811547002803113]]]},"properties":{"kind":"age","age_h":36,"in_age_prior":true}},{"type":"Feature","geometry":{"type":"Polygon","coordinates":[[[73.1413230301799,15.880791231297128],[73.16568600645236,15.90733827848335],[73.20471871780941,15.93657024546099],[73.2394999951796,15.955219000715818],[73.25732353732029,15.958937820660957],[73.45544275365097,15.930657873120662],[73.51962033916584,15.914806693068245],[73.55792439742956,15.900437804567803],[73.61336592042953,15.868389570626224],[73.63323609692114,15.849597647565021],[73.73978154388499,15.613913570596713],[73.74072497852254,15.597891320364676],[73.73727712562282,15.585844229826206],[73.55843752632398,15.53602643300412],[73.50805824612472,15.514658643892203],[73.3601359667009,15.405606520214748],[73.33634534746263,15.358892810980313],[73.32681590766985,15.345955617323904],[73.32134000142388,15.345283829137017],[73.29669584924177,15.364356264030457],[73.30557579954356,15.571953434061918],[73.30950086536406,15.59837024973202],[73.30430374742582,15.66877668504497],[73.33227998104616,15.723583023788661],[73.31760500548262,15.900735510475181],[73.1661715353636,15.828344051956167],[73.13807047607472,15.807905188814601],[73.13367309895506,15.811344879614296],[73.12802971444802,15.845600883416203],[73.1413230301799,15.880791231297128]]]},"properties":{"kind":"age","age_h":48,"in_age_prior":true}},{"type":"Feature","geometry":{"type":"Polygon","coordinates":[[[73.11428014592214,15.966423338797078],[73.12876669224217,15.979067611877095],[73.2007207682174,16.026463517985317],[73.2322884757328,16.040056818114895],[73.34160176600255,16.04133158270085],[73.4318727620963,16.028783176512952],[73.47680178634069,16.017053429058937],[73.5962725879419,15.917102270391338],[73.63504859319252,15.847157251425745],[73.69796996174915,15.720339201776023],[73.76088627524028,15.615915720023594],[73.76987652295055,15.514656846600559],[73.7681182100371,15.507787315723666],[73.76344392559368,15.505689788177296],[73.53486756327439,15.53975869812889],[73.40111193194565,15.349787586535012],[73.39571512793373,15.324521133079305],[73.3560825704206,15.282207496663192],[73.33753434934728,15.277193623003976],[73.33073056221902,15.28769782587605],[73.32677838645746,15.304220599967264],[73.32467398954468,15.477062631273176],[73.31120769839735,15.559647208954075],[73.31346573339775,15.60203806089355],[73.30037358398508,15.684802366004842],[73.31155951873008,15.729639490281214],[73.1105893693202,15.8681298155009],[73.09561582228037,15.909137943020033],[73.1082729388994,15.955040712500901],[73.11428014592214,15.966423338797078]]]},"properties":{"kind":"age","age_h":60,"in_age_prior":true}},{"type":"Feature","geometry":{"type":"Polygon","coordinates":[[[73.04254957380522,16.025234340385833],[73.0574454317505,16.038700285440672],[73.161815548938,16.101913573318022],[73.19487958590626,16.114711696505342],[73.3169463963856,16.124527597754057],[73.44999145191511,16.095173971471393],[73.5962725879419,15.917102270391338],[73.7600949547591,15.617439770157779],[73.82939756944391,15.503331217172994],[73.81083458591513,15.465705335196919],[73.80384741224559,15.464036142356395],[73.76667472020289,15.48581919941349],[73.46375495901201,15.503316221777714],[73.3964952728639,15.328278106093459],[73.40257624011944,15.280052007202338],[73.39921968711126,15.248654457940871],[73.35323754734486,15.194491273803086],[73.3472003414485,15.194073028490218],[73.3292831541823,15.213395337098818],[73.32630553437777,15.226637798060851],[73.3174882887493,15.433569354937298],[73.29480748513879,15.54011657294451],[73.28207713188083,15.671005401208713],[73.28456312849666,15.704604400704062],[73.05062352431064,15.933689877434581],[73.03257052701653,15.97286028768908],[73.03381232710011,16.00687243363379],[73.04254957380522,16.025234340385833]]]},"properties":{"kind":"age","age_h":72,"in_age_prior":true}},{"type":"Feature","geometry":{"type":"Polygon","coordinates":[[[73.31990225481188,15.24530208478339],[73.31543308496093,15.311890057154152],[73.30129205333812,15.34253411025879],[73.28800498031666,15.398692113995248],[73.29559517316464,15.52489596242828],[73.27681846166266,15.675012007481321],[73.26978784386075,15.678558045940063],[73.26849703737783,15.683645176745019],[73.25891153483904,15.691191004757044],[73.25866222128343,15.696731155946562],[73.25305397223357,15.699214990000236],[73.25276696244782,15.704379996660165],[73.24772274235181,15.706629671568534],[73.21140952052122,15.758471715318274],[73.20670941031696,15.76052559727616],[73.20347969904635,15.76848587037515],[73.19722514828234,15.769912071938778],[73.19405231248618,15.778555168018322],[73.18643365627062,15.77912748868889],[73.1829789719007,15.786756444381194],[73.17663477475718,15.787221005219427],[73.17349227876021,15.79306999880121],[73.16721957030015,15.791802111730052],[73.16305671358617,15.796726206951131],[73.15784019618351,15.795665403006746],[73.1541650437902,15.799615367202176],[73.13633546038822,15.803997360057622],[73.12075754011026,15.85048103994897],[73.0537397617681,15.91632654103444],[73.03556601669402,15.955368758598059],[73.03256599088168,15.973275198180717],[73.0339011267615,16.007324985892758],[73.04496286839421,16.02847093515451],[73.0574454317505,16.038700285440672],[73.16217439365437,16.10211007275491],[73.19487958590626,16.114711696505342],[73.31655612029981,16.124545238333834],[73.40022790079922,16.1079514448515],[73.45100852129546,16.094256714752856],[73.59607106130026,15.917431516217293],[73.7600949547591,15.617439770157779],[73.82982182414446,15.501543308252158],[73.80733565705636,15.463709519984363],[73.76667472020289,15.48581919941349],[73.72385259091067,15.4882926588899],[73.72814093327429,15.466787091736963],[73.72613565520253,15.451380416487986],[73.72964190479594,15.445946164660878],[73.72874423173603,15.437275073677947],[73.73215060243612,15.426983893326396],[73.72722179226851,15.397086262245317],[73.72091350292895,15.390492693828902],[73.70851857285466,15.38960745952006],[73.59421977651414,15.416648904635897],[73.52713847098131,15.424724967113944],[73.46702277536431,15.437464046335437],[73.4195189748715,15.372585817939317],[73.39915417862977,15.312243992498244],[73.40258302977689,15.279669709151817],[73.39878363367717,15.247868452045108],[73.35029844874335,15.193201310691606],[73.3292831541823,15.213395337098818],[73.31990225481188,15.24530208478339]]]},"properties":{"kind":"release_corridor","age_prior_h":{"min":2,"max":72,"label":"weak prior","spreading_min_h":1.6}}},{"type":"Feature","geometry":{"type":"Polygon","coordinates":[[[72.98776386690314,15.960199504516886],[72.98812918838456,16.015783765138046],[73.01229789885389,16.060716915749502],[73.13714633309922,16.140274487644373],[73.17650276215257,16.15641186703382],[73.3191142080099,16.16969721812056],[73.4419789565024,16.1448733419538],[73.47432082752533,16.133738755528206],[73.63502930476048,15.942236457837796],[73.80078510474858,15.639496207637272],[73.87046958614891,15.524689477674798],[73.87566768751657,15.50988853180412],[73.87507781868375,15.49016957181526],[73.8510684780658,15.442894229886045],[73.83740300000733,15.428207461170034],[73.81891823693832,15.419854307175807],[73.7969219234201,15.419150294023],[73.77871795390467,15.425911320267302],[73.7673037485366,15.373718661641151],[73.75085591497852,15.355183783340996],[73.727060098091,15.345669282589244],[73.69833123413767,15.345482894831084],[73.58840179639778,15.371447661725156],[73.48731828573253,15.387116635426217],[73.46159754015065,15.351988574322311],[73.44699375443004,15.308716887325158],[73.44852136054665,15.265218241158895],[73.44455923776879,15.238031688458516],[73.436095843092,15.220784800436649],[73.37588785985561,15.15480740886005],[73.35079592898187,15.147982997485503],[73.32185677914514,15.156125637358347],[73.28527614686178,15.19835037392916],[73.2735357820096,15.240834556756102],[73.26945775459959,15.298474759111649],[73.24324860559878,15.383017649803634],[73.24872756549564,15.522279553228325],[73.23239032856101,15.651509889490576],[73.1615054217696,15.740958309096309],[73.15122687309851,15.749363314526086],[73.11650961579623,15.762387732623313],[73.10022877848043,15.775416197533215],[73.079099795768,15.82676819707779],[73.01446248647063,15.892000058105946],[72.99213327451066,15.938988735446966],[72.98776386690314,15.960199504516886]]]},"properties":{"kind":"expanded_corridor_for_veto","margin_km":5.0}}],"properties":{"physics":{"formula":"V_oil = V_current + V_tide + V_Stokes + alpha * V_wind10","current_source":"CMEMS SMOC (uo+utide, vo+vtide)","stokes_source":"CMEMS SMOC (vsdx, vsdy)","wind_source":"ERA5 10 m (u10, v10)","alpha":0.02,"alpha_range":[0.01,0.03],"current_scale_sd":0.15,"wind_rotation_sd_deg":10.0,"current_error_sd_ms":0.1,"diffusion_m2s":1.0,"time_step_s":900,"backward_members":10,"backward_particles":500,"forward_members":5,"max_age_h":72}}}