{"type":"FeatureCollection","features":[{"type":"Feature","geometry":{"type":"Polygon","coordinates":[[[73.5201210799226,15.395848461930507],[73.51076275793933,15.416746050098947],[73.51440377631835,15.421971937742487],[73.5360549882139,15.422142098770074],[73.55648415598051,15.412827599812761],[73.6347123094663,15.397688268327911],[73.73617582385137,15.464354235746994],[73.75378851935538,15.466667280405028],[73.7647633803186,15.447847881932278],[73.76265055083336,15.44326956053489],[73.69389086923978,15.40127284078518],[73.65732227273999,15.368575386266643],[73.6325976059321,15.355325241846897],[73.59857843703968,15.35156388573129],[73.5201210799226,15.395848461930507]]]},"properties":{"kind":"forecast_envelope","hours":24,"active_fraction":0.999}},{"type":"Feature","geometry":{"type":"Polygon","coordinates":[[[73.58661346646863,15.298850281305794],[73.56719172533865,15.321557879595488],[73.57906508197729,15.334114627964532],[73.60907633203013,15.322284376131762],[73.67637060307624,15.322127111725571],[73.7194535741692,15.388585057117986],[73.74609528274038,15.41853754177094],[73.77491883722317,15.437625181742256],[73.78497018213763,15.432286504129376],[73.79857590100762,15.418145448786213],[73.79775404468,15.412884537982613],[73.76122230691067,15.38332578516464],[73.73605847318429,15.350946182513779],[73.71547964899187,15.308840914707432],[73.70070619553314,15.287650215312643],[73.68682824594876,15.27400090213333],[73.6740763434039,15.270525373243723],[73.6308096311944,15.272364399798308],[73.60947764519949,15.281405517838836],[73.58661346646863,15.298850281305794]]]},"properties":{"kind":"forecast_envelope","hours":48,"active_fraction":0.97}},{"type":"Feature","geometry":{"type":"Polygon","coordinates":[[[73.82925906862475,15.201992518671942],[73.84050934085376,15.26306083877299],[73.85702540097459,15.279122718376094],[73.87822433221145,15.275034145888924],[73.88152200595128,15.265226343442446],[73.87650353222352,15.237779985737195],[73.86596627421427,15.20842698018531],[73.86681704125905,15.168476845167826],[73.84186419627213,15.105841602978295],[73.82889481462497,15.095417633659553],[73.80687627734908,15.088344340605726],[73.76543740089726,15.088454644998958],[73.7422826463793,15.112275784507853],[73.73006729603873,15.130187882775363],[73.72769900104316,15.139074365451911],[73.74730451806086,15.157754925878388],[73.77178437912906,15.143020527553244],[73.82095525284481,15.17266748525774],[73.82925906862475,15.201992518671942]]]},"properties":{"kind":"forecast_envelope","hours":72,"active_fraction":0.796}},{"type":"Feature","geometry":{"type":"Point","coordinates":[73.792,15.4126]},"properties":{"kind":"stranded","hours":54}},{"type":"Feature","geometry":{"type":"Point","coordinates":[73.7937,15.4618]},"properties":{"kind":"stranded","hours":40}},{"type":"Feature","geometry":{"type":"Point","coordinates":[73.795,15.3746]},"properties":{"kind":"stranded","hours":58}},{"type":"Feature","geometry":{"type":"Point","coordinates":[73.7894,15.4125]},"properties":{"kind":"stranded","hours":52}},{"type":"Feature","geometry":{"type":"Point","coordinates":[73.8365,15.4056]},"properties":{"kind":"stranded","hours":59}},{"type":"Feature","geometry":{"type":"Point","coordinates":[73.788,15.4019]},"properties":{"kind":"stranded","hours":52}},{"type":"Feature","geometry":{"type":"Point","coordinates":[73.7967,15.3758]},"properties":{"kind":"stranded","hours":59}},{"type":"Feature","geometry":{"type":"Point","coordinates":[73.8116,15.3804]},"properties":{"kind":"stranded","hours":59}},{"type":"Feature","geometry":{"type":"Point","coordinates":[73.8077,15.3768]},"properties":{"kind":"stranded","hours":59}},{"type":"Feature","geometry":{"type":"Point","coordinates":[73.8193,15.4077]},"properties":{"kind":"stranded","hours":57}},{"type":"Feature","geometry":{"type":"Point","coordinates":[73.7918,15.3946]},"properties":{"kind":"stranded","hours":57}},{"type":"Feature","geometry":{"type":"Point","coordinates":[73.8336,15.4043]},"properties":{"kind":"stranded","hours":58}},{"type":"Feature","geometry":{"type":"Point","coordinates":[73.7759,15.3995]},"properties":{"kind":"stranded","hours":54}},{"type":"Feature","geometry":{"type":"Point","coordinates":[73.8371,15.4065]},"properties":{"kind":"stranded","hours":59}},{"type":"Feature","geometry":{"type":"Point","coordinates":[73.818,15.4017]},"properties":{"kind":"stranded","hours":59}},{"type":"Feature","geometry":{"type":"Point","coordinates":[73.7782,15.352]},"properties":{"kind":"stranded","hours":57}},{"type":"Feature","geometry":{"type":"Point","coordinates":[73.7755,15.3986]},"properties":{"kind":"stranded","hours":54}},{"type":"Feature","geometry":{"type":"Point","coordinates":[73.7897,15.4601]},"properties":{"kind":"stranded","hours":39}},{"type":"Feature","geometry":{"type":"Point","coordinates":[73.7917,15.3949]},"properties":{"kind":"stranded","hours":55}},{"type":"Feature","geometry":{"type":"Point","coordinates":[73.8026,15.46]},"properties":{"kind":"stranded","hours":44}},{"type":"Feature","geometry":{"type":"Point","coordinates":[73.791,15.4118]},"properties":{"kind":"stranded","hours":54}},{"type":"Feature","geometry":{"type":"Point","coordinates":[73.7942,15.3921]},"properties":{"kind":"stranded","hours":55}},{"type":"Feature","geometry":{"type":"Point","coordinates":[73.818,15.4032]},"properties":{"kind":"stranded","hours":58}},{"type":"Feature","geometry":{"type":"Point","coordinates":[73.7948,15.4123]},"properties":{"kind":"stranded","hours":54}},{"type":"Feature","geometry":{"type":"Point","coordinates":[73.7762,15.3998]},"properties":{"kind":"stranded","hours":53}},{"type":"Feature","geometry":{"type":"Point","coordinates":[73.775,15.3993]},"properties":{"kind":"stranded","hours":53}},{"type":"Feature","geometry":{"type":"Point","coordinates":[73.7804,15.3524]},"properties":{"kind":"stranded","hours":59}},{"type":"Feature","geometry":{"type":"Point","coordinates":[73.7888,15.4601]},"properties":{"kind":"stranded","hours":41}},{"type":"Feature","geometry":{"type":"Point","coordinates":[73.7964,15.3741]},"properties":{"kind":"stranded","hours":59}},{"type":"Feature","geometry":{"type":"Point","coordinates":[73.7781,15.3508]},"properties":{"kind":"stranded","hours":58}},{"type":"Feature","geometry":{"type":"Point","coordinates":[73.8399,15.4081]},"properties":{"kind":"stranded","hours":59}},{"type":"Feature","geometry":{"type":"Point","coordinates":[73.8462,15.4072]},"properties":{"kind":"stranded","hours":60}},{"type":"Feature","geometry":{"type":"Point","coordinates":[73.7849,15.4112]},"properties":{"kind":"stranded","hours":49}},{"type":"Feature","geometry":{"type":"Point","coordinates":[73.7853,15.4086]},"properties":{"kind":"stranded","hours":53}},{"type":"Feature","geometry":{"type":"Point","coordinates":[73.7656,15.3508]},"properties":{"kind":"stranded","hours":57}},{"type":"Feature","geometry":{"type":"Point","coordinates":[73.7804,15.3519]},"properties":{"kind":"stranded","hours":58}},{"type":"Feature","geometry":{"type":"Point","coordinates":[73.7932,15.3939]},"properties":{"kind":"stranded","hours":57}},{"type":"Feature","geometry":{"type":"Point","coordinates":[73.7767,15.3503]},"properties":{"kind":"stranded","hours":59}},{"type":"Feature","geometry":{"type":"Point","coordinates":[73.7897,15.4008]},"properties":{"kind":"stranded","hours":57}},{"type":"Feature","geometry":{"type":"Point","coordinates":[73.7918,15.3977]},"properties":{"kind":"stranded","hours":56}},{"type":"Feature","geometry":{"type":"Point","coordinates":[73.8022,15.4587]},"properties":{"kind":"stranded","hours":42}},{"type":"Feature","geometry":{"type":"Point","coordinates":[73.7997,15.4583]},"properties":{"kind":"stranded","hours":41}},{"type":"Feature","geometry":{"type":"Point","coordinates":[73.7853,15.4081]},"properties":{"kind":"stranded","hours":53}},{"type":"Feature","geometry":{"type":"Point","coordinates":[73.7838,15.3524]},"properties":{"kind":"stranded","hours":59}},{"type":"Feature","geometry":{"type":"Point","coordinates":[73.7971,15.3731]},"properties":{"kind":"stranded","hours":59}},{"type":"Feature","geometry":{"type":"Point","coordinates":[73.8682,15.4006]},"properties":{"kind":"stranded","hours":62}},{"type":"Feature","geometry":{"type":"Point","coordinates":[73.8353,15.4062]},"properties":{"kind":"stranded","hours":59}},{"type":"Feature","geometry":{"type":"Point","coordinates":[73.7874,15.4052]},"properties":{"kind":"stranded","hours":53}},{"type":"Feature","geometry":{"type":"Point","coordinates":[73.7888,15.4129]},"properties":{"kind":"stranded","hours":54}},{"type":"Feature","geometry":{"type":"Point","coordinates":[73.7788,15.3514]},"properties":{"kind":"stranded","hours":59}},{"type":"Feature","geometry":{"type":"Point","coordinates":[73.8107,15.3803]},"properties":{"kind":"stranded","hours":59}},{"type":"Feature","geometry":{"type":"Point","coordinates":[73.764,15.3493]},"properties":{"kind":"stranded","hours":57}},{"type":"Feature","geometry":{"type":"Point","coordinates":[73.797,15.3757]},"properties":{"kind":"stranded","hours":58}},{"type":"Feature","geometry":{"type":"Point","coordinates":[73.7856,15.4093]},"properties":{"kind":"stranded","hours":53}},{"type":"Feature","geometry":{"type":"Point","coordinates":[73.7902,15.4614]},"properties":{"kind":"stranded","hours":39}},{"type":"Feature","geometry":{"type":"Point","coordinates":[73.7852,15.4112]},"properties":{"kind":"stranded","hours":52}},{"type":"Feature","geometry":{"type":"Point","coordinates":[73.8195,15.4032]},"properties":{"kind":"stranded","hours":58}},{"type":"Feature","geometry":{"type":"Point","coordinates":[73.8086,15.3778]},"properties":{"kind":"stranded","hours":59}},{"type":"Feature","geometry":{"type":"Point","coordinates":[73.7914,15.462]},"properties":{"kind":"stranded","hours":42}},{"type":"Feature","geometry":{"type":"Point","coordinates":[73.8309,15.4041]},"properties":{"kind":"stranded","hours":58}},{"type":"Feature","geometry":{"type":"Point","coordinates":[73.8098,15.3808]},"properties":{"kind":"stranded","hours":58}},{"type":"Feature","geometry":{"type":"Point","coordinates":[73.792,15.4615]},"properties":{"kind":"stranded","hours":40}},{"type":"Feature","geometry":{"type":"Point","coordinates":[73.8414,15.4083]},"properties":{"kind":"stranded","hours":59}},{"type":"Feature","geometry":{"type":"Point","coordinates":[73.8085,15.3794]},"properties":{"kind":"stranded","hours":60}},{"type":"Feature","geometry":{"type":"Point","coordinates":[73.8408,15.4077]},"properties":{"kind":"stranded","hours":59}},{"type":"Feature","geometry":{"type":"Point","coordinates":[73.7967,15.3715]},"properties":{"kind":"stranded","hours":58}},{"type":"Feature","geometry":{"type":"Point","coordinates":[73.8054,15.4609]},"properties":{"kind":"stranded","hours":41}},{"type":"Feature","geometry":{"type":"Point","coordinates":[73.8191,15.4083]},"properties":{"kind":"stranded","hours":56}},{"type":"Feature","geometry":{"type":"Point","coordinates":[73.8428,15.4083]},"properties":{"kind":"stranded","hours":59}},{"type":"Feature","geometry":{"type":"Point","coordinates":[73.7726,15.3496]},"properties":{"kind":"stranded","hours":57}},{"type":"Feature","geometry":{"type":"Point","coordinates":[73.785,15.3521]},"properties":{"kind":"stranded","hours":60}},{"type":"Feature","geometry":{"type":"Point","coordinates":[73.7973,15.376]},"properties":{"kind":"stranded","hours":59}},{"type":"Feature","geometry":{"type":"Point","coordinates":[73.8174,15.4027]},"properties":{"kind":"stranded","hours":59}},{"type":"Feature","geometry":{"type":"Point","coordinates":[73.8176,15.4079]},"properties":{"kind":"stranded","hours":57}},{"type":"Feature","geometry":{"type":"Point","coordinates":[73.7923,15.3969]},"properties":{"kind":"stranded","hours":56}},{"type":"Feature","geometry":{"type":"Point","coordinates":[73.7914,15.395]},"properties":{"kind":"stranded","hours":55}},{"type":"Feature","geometry":{"type":"Point","coordinates":[73.7754,15.3995]},"properties":{"kind":"stranded","hours":52}},{"type":"Feature","geometry":{"type":"Point","coordinates":[73.7858,15.4118]},"properties":{"kind":"stranded","hours":53}},{"type":"Feature","geometry":{"type":"Point","coordinates":[73.8209,15.4091]},"properties":{"kind":"stranded","hours":57}},{"type":"Feature","geometry":{"type":"Point","coordinates":[73.7784,15.3515]},"properties":{"kind":"stranded","hours":58}},{"type":"Feature","geometry":{"type":"Point","coordinates":[73.8191,15.4045]},"properties":{"kind":"stranded","hours":55}},{"type":"Feature","geometry":{"type":"Point","coordinates":[73.7792,15.3516]},"properties":{"kind":"stranded","hours":58}},{"type":"Feature","geometry":{"type":"Point","coordinates":[73.7659,15.3499]},"properties":{"kind":"stranded","hours":57}},{"type":"Feature","geometry":{"type":"Point","coordinates":[73.8021,15.4596]},"properties":{"kind":"stranded","hours":41}},{"type":"Feature","geometry":{"type":"Point","coordinates":[73.7865,15.4119]},"properties":{"kind":"stranded","hours":52}},{"type":"Feature","geometry":{"type":"Point","coordinates":[73.7791,15.3516]},"properties":{"kind":"stranded","hours":58}},{"type":"Feature","geometry":{"type":"Point","coordinates":[73.8209,15.4083]},"properties":{"kind":"stranded","hours":58}},{"type":"Feature","geometry":{"type":"Point","coordinates":[73.7967,15.3758]},"properties":{"kind":"stranded","hours":59}},{"type":"Feature","geometry":{"type":"Point","coordinates":[73.7646,15.351]},"properties":{"kind":"stranded","hours":57}},{"type":"Feature","geometry":{"type":"Point","coordinates":[73.7884,15.4027]},"properties":{"kind":"stranded","hours":56}},{"type":"Feature","geometry":{"type":"Point","coordinates":[73.8373,15.4077]},"properties":{"kind":"stranded","hours":58}},{"type":"Feature","geometry":{"type":"Point","coordinates":[73.7904,15.4125]},"properties":{"kind":"stranded","hours":54}},{"type":"Feature","geometry":{"type":"Point","coordinates":[73.8347,15.4056]},"properties":{"kind":"stranded","hours":58}},{"type":"Feature","geometry":{"type":"Point","coordinates":[73.7902,15.4617]},"properties":{"kind":"stranded","hours":41}},{"type":"Feature","geometry":{"type":"Point","coordinates":[73.8357,15.4062]},"properties":{"kind":"stranded","hours":58}},{"type":"Feature","geometry":{"type":"Point","coordinates":[73.7725,15.3497]},"properties":{"kind":"stranded","hours":58}},{"type":"Feature","geometry":{"type":"Point","coordinates":[73.8076,15.3775]},"properties":{"kind":"stranded","hours":59}},{"type":"Feature","geometry":{"type":"Point","coordinates":[73.7919,15.4129]},"properties":{"kind":"stranded","hours":55}},{"type":"Feature","geometry":{"type":"Point","coordinates":[73.796,15.3719]},"properties":{"kind":"stranded","hours":59}},{"type":"Feature","geometry":{"type":"Point","coordinates":[73.7919,15.397]},"properties":{"kind":"stranded","hours":56}},{"type":"Feature","geometry":{"type":"Point","coordinates":[73.7873,15.4122]},"properties":{"kind":"stranded","hours":53}},{"type":"Feature","geometry":{"type":"Point","coordinates":[73.7758,15.3505]},"properties":{"kind":"stranded","hours":58}},{"type":"Feature","geometry":{"type":"Point","coordinates":[73.8348,15.4051]},"properties":{"kind":"stranded","hours":60}},{"type":"Feature","geometry":{"type":"Point","coordinates":[73.8159,15.4007]},"properties":{"kind":"stranded","hours":57}},{"type":"Feature","geometry":{"type":"Point","coordinates":[73.7842,15.3526]},"properties":{"kind":"stranded","hours":58}},{"type":"Feature","geometry":{"type":"Point","coordinates":[73.8096,15.3782]},"properties":{"kind":"stranded","hours":59}},{"type":"Feature","geometry":{"type":"Point","coordinates":[73.79,15.4618]},"properties":{"kind":"stranded","hours":40}},{"type":"Feature","geometry":{"type":"Point","coordinates":[73.8354,15.4065]},"properties":{"kind":"stranded","hours":58}},{"type":"Feature","geometry":{"type":"Point","coordinates":[73.7651,15.3501]},"properties":{"kind":"stranded","hours":57}},{"type":"Feature","geometry":{"type":"Point","coordinates":[73.7932,15.4129]},"properties":{"kind":"stranded","hours":53}},{"type":"Feature","geometry":{"type":"Point","coordinates":[73.8681,15.4011]},"properties":{"kind":"stranded","hours":62}},{"type":"Feature","geometry":{"type":"Point","coordinates":[73.7944,15.412]},"properties":{"kind":"stranded","hours":54}},{"type":"Feature","geometry":{"type":"Point","coordinates":[73.7873,15.412]},"properties":{"kind":"stranded","hours":53}},{"type":"Feature","geometry":{"type":"Point","coordinates":[73.789,15.4596]},"properties":{"kind":"stranded","hours":42}},{"type":"Feature","geometry":{"type":"Point","coordinates":[73.8081,15.4674]},"properties":{"kind":"stranded","hours":40}},{"type":"Feature","geometry":{"type":"Point","coordinates":[73.7818,15.3528]},"properties":{"kind":"stranded","hours":58}},{"type":"Feature","geometry":{"type":"Point","coordinates":[73.8341,15.4027]},"properties":{"kind":"stranded","hours":59}},{"type":"Feature","geometry":{"type":"Point","coordinates":[73.7951,15.461]},"properties":{"kind":"stranded","hours":39}},{"type":"Feature","geometry":{"type":"Point","coordinates":[73.7967,15.4612]},"properties":{"kind":"stranded","hours":41}},{"type":"Feature","geometry":{"type":"Point","coordinates":[73.8188,15.4066]},"properties":{"kind":"stranded","hours":58}},{"type":"Feature","geometry":{"type":"Point","coordinates":[73.7925,15.4124]},"properties":{"kind":"stranded","hours":52}},{"type":"Feature","geometry":{"type":"Point","coordinates":[73.839,15.4077]},"properties":{"kind":"stranded","hours":59}},{"type":"Feature","geometry":{"type":"Point","coordinates":[73.8096,15.3791]},"properties":{"kind":"stranded","hours":59}},{"type":"Feature","geometry":{"type":"Point","coordinates":[73.7853,15.4103]},"properties":{"kind":"stranded","hours":53}},{"type":"Feature","geometry":{"type":"Point","coordinates":[73.7918,15.4616]},"properties":{"kind":"stranded","hours":41}},{"type":"Feature","geometry":{"type":"Point","coordinates":[73.842,15.4078]},"properties":{"kind":"stranded","hours":59}},{"type":"Feature","geometry":{"type":"Point","coordinates":[73.8095,15.38]},"properties":{"kind":"stranded","hours":57}},{"type":"Feature","geometry":{"type":"Point","coordinates":[73.8304,15.4039]},"properties":{"kind":"stranded","hours":60}},{"type":"Feature","geometry":{"type":"Point","coordinates":[73.8631,15.3988]},"properties":{"kind":"stranded","hours":61}},{"type":"Feature","geometry":{"type":"Point","coordinates":[73.7766,15.3996]},"properties":{"kind":"stranded","hours":53}},{"type":"Feature","geometry":{"type":"Point","coordinates":[73.8185,15.4046]},"properties":{"kind":"stranded","hours":58}},{"type":"Feature","geometry":{"type":"Point","coordinates":[73.7845,15.3525]},"properties":{"kind":"stranded","hours":59}},{"type":"Feature","geometry":{"type":"Point","coordinates":[73.8384,15.4066]},"properties":{"kind":"stranded","hours":59}},{"type":"Feature","geometry":{"type":"Point","coordinates":[73.7888,15.4594]},"properties":{"kind":"stranded","hours":44}},{"type":"Feature","geometry":{"type":"Point","coordinates":[73.861,15.3974]},"properties":{"kind":"stranded","hours":62}},{"type":"Feature","geometry":{"type":"Point","coordinates":[73.7859,15.411]},"properties":{"kind":"stranded","hours":55}},{"type":"Feature","geometry":{"type":"Point","coordinates":[73.8087,15.3793]},"properties":{"kind":"stranded","hours":58}},{"type":"Feature","geometry":{"type":"Point","coordinates":[73.7862,15.4084]},"properties":{"kind":"stranded","hours":53}},{"type":"Feature","geometry":{"type":"Point","coordinates":[73.7972,15.3762]},"properties":{"kind":"stranded","hours":58}},{"type":"Feature","geometry":{"type":"Point","coordinates":[73.7818,15.3528]},"properties":{"kind":"stranded","hours":59}},{"type":"Feature","geometry":{"type":"Point","coordinates":[73.7875,15.4121]},"properties":{"kind":"stranded","hours":54}},{"type":"Feature","geometry":{"type":"Point","coordinates":[73.796,15.4605]},"properties":{"kind":"stranded","hours":41}},{"type":"Feature","geometry":{"type":"Point","coordinates":[73.7748,15.3983]},"properties":{"kind":"stranded","hours":51}},{"type":"Feature","geometry":{"type":"Point","coordinates":[73.7879,15.4046]},"properties":{"kind":"stranded","hours":54}},{"type":"Feature","geometry":{"type":"Point","coordinates":[73.7964,15.376]},"properties":{"kind":"stranded","hours":58}},{"type":"Feature","geometry":{"type":"Point","coordinates":[73.7717,15.3499]},"properties":{"kind":"stranded","hours":58}},{"type":"Feature","geometry":{"type":"Point","coordinates":[73.8364,15.4067]},"properties":{"kind":"stranded","hours":59}},{"type":"Feature","geometry":{"type":"Point","coordinates":[73.7954,15.3747]},"properties":{"kind":"stranded","hours":57}},{"type":"Feature","geometry":{"type":"Point","coordinates":[73.8176,15.4078]},"properties":{"kind":"stranded","hours":57}},{"type":"Feature","geometry":{"type":"Point","coordinates":[73.7806,15.3524]},"properties":{"kind":"stranded","hours":59}},{"type":"Feature","geometry":{"type":"Point","coordinates":[73.7705,15.3495]},"properties":{"kind":"stranded","hours":57}},{"type":"Feature","geometry":{"type":"Point","coordinates":[73.7964,15.3735]},"properties":{"kind":"stranded","hours":59}},{"type":"Feature","geometry":{"type":"Point","coordinates":[73.8189,15.4036]},"properties":{"kind":"stranded","hours":58}},{"type":"Feature","geometry":{"type":"Point","coordinates":[73.7891,15.4005]},"properties":{"kind":"stranded","hours":56}},{"type":"Feature","geometry":{"type":"Point","coordinates":[73.7927,15.4128]},"properties":{"kind":"stranded","hours":55}},{"type":"Feature","geometry":{"type":"Point","coordinates":[73.8187,15.4095]},"properties":{"kind":"stranded","hours":57}},{"type":"Feature","geometry":{"type":"Point","coordinates":[73.819,15.4095]},"properties":{"kind":"stranded","hours":57}},{"type":"Feature","geometry":{"type":"Point","coordinates":[73.7924,15.3976]},"properties":{"kind":"stranded","hours":55}},{"type":"Feature","geometry":{"type":"Point","coordinates":[73.8341,15.4026]},"properties":{"kind":"stranded","hours":59}},{"type":"Feature","geometry":{"type":"Point","coordinates":[73.7815,15.3518]},"properties":{"kind":"stranded","hours":58}},{"type":"Feature","geometry":{"type":"Point","coordinates":[73.7846,15.3519]},"properties":{"kind":"stranded","hours":59}},{"type":"Feature","geometry":{"type":"Point","coordinates":[73.8183,15.4023]},"properties":{"kind":"stranded","hours":57}},{"type":"Feature","geometry":{"type":"Point","coordinates":[73.7899,15.4611]},"properties":{"kind":"stranded","hours":39}},{"type":"Feature","geometry":{"type":"Point","coordinates":[73.8353,15.4054]},"properties":{"kind":"stranded","hours":58}},{"type":"Feature","geometry":{"type":"Point","coordinates":[73.8178,15.4073]},"properties":{"kind":"stranded","hours":59}},{"type":"Feature","geometry":{"type":"Point","coordinates":[73.8644,15.4005]},"properties":{"kind":"stranded","hours":61}},{"type":"Feature","geometry":{"type":"Point","coordinates":[73.7927,15.4614]},"properties":{"kind":"stranded","hours":39}},{"type":"Feature","geometry":{"type":"Point","coordinates":[73.7941,15.4125]},"properties":{"kind":"stranded","hours":55}},{"type":"Feature","geometry":{"type":"Point","coordinates":[73.8096,15.3823]},"properties":{"kind":"stranded","hours":59}},{"type":"Feature","geometry":{"type":"Point","coordinates":[73.7848,15.3516]},"properties":{"kind":"stranded","hours":59}},{"type":"Feature","geometry":{"type":"Point","coordinates":[73.7759,15.3991]},"properties":{"kind":"stranded","hours":52}},{"type":"Feature","geometry":{"type":"Point","coordinates":[73.7898,15.4005]},"properties":{"kind":"stranded","hours":54}},{"type":"Feature","geometry":{"type":"Point","coordinates":[73.7963,15.3722]},"properties":{"kind":"stranded","hours":57}},{"type":"Feature","geometry":{"type":"Point","coordinates":[73.7886,15.4121]},"properties":{"kind":"stranded","hours":52}},{"type":"Feature","geometry":{"type":"Point","coordinates":[73.7875,15.4128]},"properties":{"kind":"stranded","hours":52}},{"type":"Feature","geometry":{"type":"Point","coordinates":[73.7655,15.3507]},"properties":{"kind":"stranded","hours":57}},{"type":"Feature","geometry":{"type":"Point","coordinates":[73.789,15.4592]},"properties":{"kind":"stranded","hours":23}},{"type":"Feature","geometry":{"type":"Point","coordinates":[73.8009,15.4593]},"properties":{"kind":"stranded","hours":42}},{"type":"Feature","geometry":{"type":"Point","coordinates":[73.7984,15.3759]},"properties":{"kind":"stranded","hours":59}},{"type":"Feature","geometry":{"type":"Point","coordinates":[73.8394,15.4083]},"properties":{"kind":"stranded","hours":60}},{"type":"Feature","geometry":{"type":"Point","coordinates":[73.7956,15.4117]},"properties":{"kind":"stranded","hours":55}},{"type":"Feature","geometry":{"type":"Point","coordinates":[73.8175,15.4068]},"properties":{"kind":"stranded","hours":56}},{"type":"Feature","geometry":{"type":"Point","coordinates":[73.7977,15.3763]},"properties":{"kind":"stranded","hours":59}},{"type":"Feature","geometry":{"type":"Point","coordinates":[73.7969,15.4595]},"properties":{"kind":"stranded","hours":42}},{"type":"Feature","geometry":{"type":"Point","coordinates":[73.7936,15.4128]},"properties":{"kind":"stranded","hours":55}},{"type":"Feature","geometry":{"type":"Point","coordinates":[73.7888,15.4604]},"properties":{"kind":"stranded","hours":20}},{"type":"Feature","geometry":{"type":"Point","coordinates":[73.8089,15.3797]},"properties":{"kind":"stranded","hours":59}},{"type":"Feature","geometry":{"type":"Point","coordinates":[73.8421,15.4086]},"properties":{"kind":"stranded","hours":59}},{"type":"Feature","geometry":{"type":"Point","coordinates":[73.785,15.4084]},"properties":{"kind":"stranded","hours":54}},{"type":"Feature","geometry":{"type":"Point","coordinates":[73.7904,15.4615]},"properties":{"kind":"stranded","hours":41}},{"type":"Feature","geometry":{"type":"Point","coordinates":[73.8179,15.408]},"properties":{"kind":"stranded","hours":55}},{"type":"Feature","geometry":{"type":"Point","coordinates":[73.8179,15.4069]},"properties":{"kind":"stranded","hours":55}},{"type":"Feature","geometry":{"type":"Point","coordinates":[73.8642,15.3989]},"properties":{"kind":"stranded","hours":63}},{"type":"Feature","geometry":{"type":"Point","coordinates":[73.8174,15.4008]},"properties":{"kind":"stranded","hours":56}},{"type":"Feature","geometry":{"type":"Point","coordinates":[73.8084,15.3774]},"properties":{"kind":"stranded","hours":59}},{"type":"Feature","geometry":{"type":"Point","coordinates":[73.7792,15.3515]},"properties":{"kind":"stranded","hours":59}},{"type":"Feature","geometry":{"type":"Point","coordinates":[73.8035,15.4606]},"properties":{"kind":"stranded","hours":41}},{"type":"Feature","geometry":{"type":"Point","coordinates":[73.7806,15.351]},"properties":{"kind":"stranded","hours":59}},{"type":"Feature","geometry":{"type":"Point","coordinates":[73.7951,15.4128]},"properties":{"kind":"stranded","hours":53}},{"type":"Feature","geometry":{"type":"Point","coordinates":[73.7853,15.409]},"properties":{"kind":"stranded","hours":55}},{"type":"Feature","geometry":{"type":"Point","coordinates":[73.792,15.3972]},"properties":{"kind":"stranded","hours":56}},{"type":"Feature","geometry":{"type":"Point","coordinates":[73.7989,15.4596]},"properties":{"kind":"stranded","hours":43}},{"type":"Feature","geometry":{"type":"Point","coordinates":[73.7921,15.4613]},"properties":{"kind":"stranded","hours":41}},{"type":"Feature","geometry":{"type":"Point","coordinates":[73.796,15.3716]},"properties":{"kind":"stranded","hours":59}},{"type":"Feature","geometry":{"type":"Point","coordinates":[73.8184,15.407]},"properties":{"kind":"stranded","hours":56}},{"type":"Feature","geometry":{"type":"Point","coordinates":[73.8091,15.471]},"properties":{"kind":"stranded","hours":39}},{"type":"Feature","geometry":{"type":"Point","coordinates":[73.8087,15.3777]},"properties":{"kind":"stranded","hours":59}},{"type":"Feature","geometry":{"type":"Point","coordinates":[73.7975,15.3768]},"properties":{"kind":"stranded","hours":58}},{"type":"Feature","geometry":{"type":"Point","coordinates":[73.785,15.4091]},"properties":{"kind":"stranded","hours":55}},{"type":"Feature","geometry":{"type":"Point","coordinates":[73.7748,15.3988]},"properties":{"kind":"stranded","hours":55}},{"type":"Feature","geometry":{"type":"Point","coordinates":[73.8386,15.4077]},"properties":{"kind":"stranded","hours":60}},{"type":"Feature","geometry":{"type":"Point","coordinates":[73.7743,15.3511]},"properties":{"kind":"stranded","hours":58}},{"type":"Feature","geometry":{"type":"Point","coordinates":[73.7849,15.3524]},"properties":{"kind":"stranded","hours":59}},{"type":"Feature","geometry":{"type":"Point","coordinates":[73.8094,15.3778]},"properties":{"kind":"stranded","hours":60}},{"type":"Feature","geometry":{"type":"Point","coordinates":[73.8005,15.4584]},"properties":{"kind":"stranded","hours":41}},{"type":"Feature","geometry":{"type":"Point","coordinates":[73.7877,15.4124]},"properties":{"kind":"stranded","hours":53}},{"type":"Feature","geometry":{"type":"Point","coordinates":[73.7659,15.3511]},"properties":{"kind":"stranded","hours":56}},{"type":"Feature","geometry":{"type":"Point","coordinates":[73.7849,15.4089]},"properties":{"kind":"stranded","hours":54}},{"type":"Feature","geometry":{"type":"Point","coordinates":[73.8049,15.4618]},"properties":{"kind":"stranded","hours":44}},{"type":"Feature","geometry":{"type":"Point","coordinates":[73.7657,15.351]},"properties":{"kind":"stranded","hours":58}},{"type":"Feature","geometry":{"type":"Point","coordinates":[73.8103,15.3793]},"properties":{"kind":"stranded","hours":59}},{"type":"Feature","geometry":{"type":"Point","coordinates":[73.7787,15.3513]},"properties":{"kind":"stranded","hours":58}},{"type":"Feature","geometry":{"type":"Point","coordinates":[73.7846,15.351]},"properties":{"kind":"stranded","hours":59}},{"type":"Feature","geometry":{"type":"Point","coordinates":[73.8413,15.407]},"properties":{"kind":"stranded","hours":59}},{"type":"Feature","geometry":{"type":"Point","coordinates":[73.7835,15.3522]},"properties":{"kind":"stranded","hours":59}},{"type":"Feature","geometry":{"type":"Point","coordinates":[73.8301,15.4035]},"properties":{"kind":"stranded","hours":60}},{"type":"Feature","geometry":{"type":"Point","coordinates":[73.7893,15.4003]},"properties":{"kind":"stranded","hours":55}},{"type":"Feature","geometry":{"type":"Point","coordinates":[73.7927,15.4618]},"properties":{"kind":"stranded","hours":40}},{"type":"Feature","geometry":{"type":"Point","coordinates":[73.836,15.4056]},"properties":{"kind":"stranded","hours":59}},{"type":"Feature","geometry":{"type":"Point","coordinates":[73.8088,15.3801]},"properties":{"kind":"stranded","hours":60}},{"type":"Feature","geometry":{"type":"Point","coordinates":[73.7908,15.4126]},"properties":{"kind":"stranded","hours":54}},{"type":"Feature","geometry":{"type":"Point","coordinates":[73.7946,15.3924]},"properties":{"kind":"stranded","hours":55}},{"type":"Feature","geometry":{"type":"Point","coordinates":[73.7948,15.3751]},"properties":{"kind":"stranded","hours":58}},{"type":"Feature","geometry":{"type":"Point","coordinates":[73.8072,15.3769]},"properties":{"kind":"stranded","hours":59}},{"type":"Feature","geometry":{"type":"Point","coordinates":[73.791,15.3953]},"properties":{"kind":"stranded","hours":56}},{"type":"Feature","geometry":{"type":"Point","coordinates":[73.776,15.3507]},"properties":{"kind":"stranded","hours":58}},{"type":"Feature","geometry":{"type":"Point","coordinates":[73.7739,15.3506]},"properties":{"kind":"stranded","hours":58}},{"type":"Feature","geometry":{"type":"Point","coordinates":[73.8073,15.467]},"properties":{"kind":"stranded","hours":40}},{"type":"Feature","geometry":{"type":"Point","coordinates":[73.792,15.462]},"properties":{"kind":"stranded","hours":39}},{"type":"Feature","geometry":{"type":"Point","coordinates":[73.8389,15.4077]},"properties":{"kind":"stranded","hours":59}},{"type":"Feature","geometry":{"type":"Point","coordinates":[73.8379,15.4067]},"properties":{"kind":"stranded","hours":59}},{"type":"Feature","geometry":{"type":"Point","coordinates":[73.7798,15.3517]},"properties":{"kind":"stranded","hours":58}},{"type":"Feature","geometry":{"type":"Point","coordinates":[73.8083,15.377]},"properties":{"kind":"stranded","hours":59}},{"type":"Feature","geometry":{"type":"Point","coordinates":[73.793,15.412]},"properties":{"kind":"stranded","hours":54}},{"type":"Feature","geometry":{"type":"Point","coordinates":[73.7898,15.4127]},"properties":{"kind":"stranded","hours":51}},{"type":"Feature","geometry":{"type":"Point","coordinates":[73.8647,15.3985]},"properties":{"kind":"stranded","hours":63}},{"type":"Feature","geometry":{"type":"Point","coordinates":[73.771,15.3495]},"properties":{"kind":"stranded","hours":58}},{"type":"Feature","geometry":{"type":"Point","coordinates":[73.8075,15.4668]},"properties":{"kind":"stranded","hours":43}},{"type":"Feature","geometry":{"type":"Point","coordinates":[73.7822,15.3526]},"properties":{"kind":"stranded","hours":58}},{"type":"Feature","geometry":{"type":"Point","coordinates":[73.8183,15.4081]},"properties":{"kind":"stranded","hours":58}},{"type":"Feature","geometry":{"type":"Point","coordinates":[73.8019,15.4079]},"properties":{"kind":"stranded","hours":55}},{"type":"Feature","geometry":{"type":"Point","coordinates":[73.8333,15.4036]},"properties":{"kind":"stranded","hours":58}},{"type":"Feature","geometry":{"type":"Point","coordinates":[73.7847,15.4083]},"properties":{"kind":"stranded","hours":50}},{"type":"Feature","geometry":{"type":"Point","coordinates":[73.7751,15.3986]},"properties":{"kind":"stranded","hours":54}},{"type":"Feature","geometry":{"type":"Point","coordinates":[73.7974,15.3769]},"properties":{"kind":"stranded","hours":59}},{"type":"Feature","geometry":{"type":"Point","coordinates":[73.7938,15.4127]},"properties":{"kind":"stranded","hours":55}},{"type":"Feature","geometry":{"type":"Point","coordinates":[73.7897,15.4]},"properties":{"kind":"stranded","hours":54}},{"type":"Feature","geometry":{"type":"Point","coordinates":[73.8175,15.4015]},"properties":{"kind":"stranded","hours":58}},{"type":"Feature","geometry":{"type":"Point","coordinates":[73.7887,15.4124]},"properties":{"kind":"stranded","hours":54}},{"type":"Feature","geometry":{"type":"Point","coordinates":[73.8184,15.4026]},"properties":{"kind":"stranded","hours":56}},{"type":"Feature","geometry":{"type":"Point","coordinates":[73.808,15.4657]},"properties":{"kind":"stranded","hours":40}},{"type":"Feature","geometry":{"type":"Point","coordinates":[73.8083,15.4698]},"properties":{"kind":"stranded","hours":39}},{"type":"Feature","geometry":{"type":"Point","coordinates":[73.7814,15.3526]},"properties":{"kind":"stranded","hours":59}},{"type":"Feature","geometry":{"type":"Point","coordinates":[73.8397,15.4083]},"properties":{"kind":"stranded","hours":60}},{"type":"Feature","geometry":{"type":"Point","coordinates":[73.7922,15.3977]},"properties":{"kind":"stranded","hours":55}},{"type":"Feature","geometry":{"type":"Point","coordinates":[73.819,15.4087]},"properties":{"kind":"stranded","hours":58}},{"type":"Feature","geometry":{"type":"Point","coordinates":[73.7921,15.3969]},"properties":{"kind":"stranded","hours":56}},{"type":"Feature","geometry":{"type":"Point","coordinates":[73.8383,15.4075]},"properties":{"kind":"stranded","hours":58}},{"type":"Feature","geometry":{"type":"Point","coordinates":[73.7799,15.3522]},"properties":{"kind":"stranded","hours":59}},{"type":"Feature","geometry":{"type":"Point","coordinates":[73.7885,15.4036]},"properties":{"kind":"stranded","hours":54}},{"type":"Feature","geometry":{"type":"Point","coordinates":[73.7904,15.3965]},"properties":{"kind":"stranded","hours":55}},{"type":"Feature","geometry":{"type":"Point","coordinates":[73.8438,15.4081]},"properties":{"kind":"stranded","hours":59}},{"type":"Feature","geometry":{"type":"Point","coordinates":[73.7947,15.3748]},"properties":{"kind":"stranded","hours":58}},{"type":"Feature","geometry":{"type":"Point","coordinates":[73.8008,15.4595]},"properties":{"kind":"stranded","hours":41}},{"type":"Feature","geometry":{"type":"Point","coordinates":[73.8097,15.3868]},"properties":{"kind":"stranded","hours":58}},{"type":"Feature","geometry":{"type":"Point","coordinates":[73.7925,15.3972]},"properties":{"kind":"stranded","hours":55}},{"type":"Feature","geometry":{"type":"Point","coordinates":[73.7703,15.3503]},"properties":{"kind":"stranded","hours":58}},{"type":"Feature","geometry":{"type":"Point","coordinates":[73.8051,15.4616]},"properties":{"kind":"stranded","hours":41}},{"type":"Feature","geometry":{"type":"Point","coordinates":[73.8077,15.4655]},"properties":{"kind":"stranded","hours":41}},{"type":"Feature","geometry":{"type":"Point","coordinates":[73.7741,15.3493]},"properties":{"kind":"stranded","hours":57}},{"type":"Feature","geometry":{"type":"Point","coordinates":[73.8179,15.4089]},"properties":{"kind":"stranded","hours":57}},{"type":"Feature","geometry":{"type":"Point","coordinates":[73.7891,15.4126]},"properties":{"kind":"stranded","hours":53}},{"type":"Feature","geometry":{"type":"Point","coordinates":[73.7852,15.4083]},"properties":{"kind":"stranded","hours":53}},{"type":"Feature","geometry":{"type":"Point","coordinates":[73.8334,15.4046]},"properties":{"kind":"stranded","hours":58}},{"type":"Feature","geometry":{"type":"Point","coordinates":[73.7891,15.4021]},"properties":{"kind":"stranded","hours":54}},{"type":"Feature","geometry":{"type":"Point","coordinates":[73.8388,15.4078]},"properties":{"kind":"stranded","hours":58}},{"type":"Feature","geometry":{"type":"Point","coordinates":[73.8186,15.4047]},"properties":{"kind":"stranded","hours":57}},{"type":"Feature","geometry":{"type":"Point","coordinates":[73.765,15.3491]},"properties":{"kind":"stranded","hours":57}},{"type":"Feature","geometry":{"type":"Point","coordinates":[73.7763,15.3506]},"properties":{"kind":"stranded","hours":58}},{"type":"Feature","geometry":{"type":"Point","coordinates":[73.7661,15.351]},"properties":{"kind":"stranded","hours":56}},{"type":"Feature","geometry":{"type":"Point","coordinates":[73.7954,15.4605]},"properties":{"kind":"stranded","hours":42}},{"type":"Feature","geometry":{"type":"Point","coordinates":[73.8181,15.4042]},"properties":{"kind":"stranded","hours":56}},{"type":"Feature","geometry":{"type":"Point","coordinates":[73.8078,15.4676]},"properties":{"kind":"stranded","hours":42}},{"type":"Feature","geometry":{"type":"Point","coordinates":[73.8187,15.4038]},"properties":{"kind":"stranded","hours":56}},{"type":"Feature","geometry":{"type":"Point","coordinates":[73.833,15.4033]},"properties":{"kind":"stranded","hours":59}},{"type":"Feature","geometry":{"type":"Point","coordinates":[73.8188,15.4018]},"properties":{"kind":"stranded","hours":59}},{"type":"Feature","geometry":{"type":"Point","coordinates":[73.836,15.4046]},"properties":{"kind":"stranded","hours":59}},{"type":"Feature","geometry":{"type":"Point","coordinates":[73.8446,15.4079]},"properties":{"kind":"stranded","hours":59}},{"type":"Feature","geometry":{"type":"Point","coordinates":[73.7892,15.459]},"properties":{"kind":"stranded","hours":41}},{"type":"Feature","geometry":{"type":"Point","coordinates":[73.7639,15.349]},"properties":{"kind":"stranded","hours":57}},{"type":"Feature","geometry":{"type":"Point","coordinates":[73.7945,15.3926]},"properties":{"kind":"stranded","hours":55}},{"type":"Feature","geometry":{"type":"Point","coordinates":[73.8184,15.4044]},"properties":{"kind":"stranded","hours":57}},{"type":"Feature","geometry":{"type":"Point","coordinates":[73.7883,15.4019]},"properties":{"kind":"stranded","hours":55}},{"type":"Feature","geometry":{"type":"Point","coordinates":[73.8185,15.4088]},"properties":{"kind":"stranded","hours":56}},{"type":"Feature","geometry":{"type":"Point","coordinates":[73.831,15.4043]},"properties":{"kind":"stranded","hours":58}},{"type":"Feature","geometry":{"type":"Point","coordinates":[73.8189,15.4082]},"properties":{"kind":"stranded","hours":57}}],"properties":{"model":"OpenDrift OpenOil","oil_type":"GENERIC INTERMEDIATE FUEL OIL 180","hours":72,"coastal_impact":true,"stranded_elements":306,"elements":1500,"mass_budget_fraction":{"mass_oil":[1.0,0.9898999929428101,0.984499990940094,0.9789999723434448,0.9736999869346619,0.9678000211715698,0.9607999920845032,0.9528999924659729,0.9442999958992004,0.9359999895095825,0.928600013256073,0.9210000038146973,0.9132999777793884,0.9068999886512756,0.9017999768257141,0.8971999883651733,0.8928999900817871,0.8888999819755554,0.8849999904632568,0.8810999989509583,0.8769000172615051,0.8718000054359436,0.8671000003814697,0.863099992275238,0.8598999977111816,0.8598999977111816,0.8598999977111816,0.8598999977111816,0.8598999977111816,0.8598999977111816,0.8598999977111816,0.8598999977111816,0.8598999977111816,0.8598999977111816,0.8598999977111816,0.8598999977111816,0.8598999977111816,0.8598999977111816,0.859499990940094,0.8533999919891357,0.8375999927520752,0.8287000060081482,0.8187999725341797,0.8147000074386597,0.8134999871253967,0.8116999864578247,0.8116999864578247,0.8116999864578247,0.8116999864578247,0.8116999864578247,0.8112000226974487,0.8105999827384949,0.8094000220298767,0.8041999936103821,0.7943999767303467,0.782800018787384,0.7669000029563904,0.7519999742507935,0.7300000190734863,0.6947000026702881,0.6492999792098999,0.6367999911308289,0.6297000050544739,0.6230000257492065,0.6176999807357788,0.6147000193595886,0.6123999953269958,0.6093000173568726,0.6046000123023987,0.6021000146865845,0.6018000245094299,0.6015999913215637],"mass_evaporated":[0.0,0.010099999606609344,0.01549999974668026,0.020999999716877937,0.02630000002682209,0.03220000118017197,0.03920000046491623,0.0471000000834465,0.05570000037550926,0.06400000303983688,0.0714000016450882,0.07890000194311142,0.08649999648332596,0.09300000220537186,0.09809999912977219,0.10270000249147415,0.10700000077486038,0.11100000143051147,0.11490000039339066,0.11879999935626984,0.12290000170469284,0.1273999959230423,0.13199999928474426,0.13609999418258667,0.13860000669956207,0.13860000669956207,0.13860000669956207,0.13860000669956207,0.13860000669956207,0.13860000669956207,0.13860000669956207,0.13860000669956207,0.13860000669956207,0.13860000669956207,0.13860000669956207,0.13860000669956207,0.13860000669956207,0.13860000669956207,0.13860000669956207,0.13860000669956207,0.1378999948501587,0.13729999959468842,0.13600000739097595,0.13539999723434448,0.13519999384880066,0.13490000367164612,0.13490000367164612,0.13490000367164612,0.13490000367164612,0.13490000367164612,0.13490000367164612,0.1348000019788742,0.13459999859333038,0.13379999995231628,0.1324000060558319,0.1306000053882599,0.12849999964237213,0.12690000236034393,0.12430000305175781,0.11969999969005585,0.11389999836683273,0.11289999634027481,0.1128000020980835,0.11249999701976776,0.11240000277757645,0.11240000277757645,0.11240000277757645,0.11240000277757645,0.11240000277757645,0.11240000277757645,0.11240000277757645,0.11240000277757645],"mass_dispersed":[0.0,0.0,0.0,0.0,0.0,0.0,0.0,0.0,0.0,0.0,0.0,9.999999747378752e-05,9.999999747378752e-05,9.999999747378752e-05,9.999999747378752e-05,9.999999747378752e-05,9.999999747378752e-05,9.999999747378752e-05,9.999999747378752e-05,9.999999747378752e-05,9.999999747378752e-05,9.999999747378752e-05,0.00019999999494757503,0.00019999999494757503,0.00019999999494757503,0.00019999999494757503,0.00019999999494757503,0.00019999999494757503,0.00019999999494757503,0.00019999999494757503,0.00019999999494757503,0.00019999999494757503,0.00019999999494757503,0.00019999999494757503,0.00019999999494757503,0.00019999999494757503,0.00019999999494757503,0.00019999999494757503,0.0006000000284984708,0.0066999997943639755,0.017799999564886093,0.022700000554323196,0.02329999953508377,0.02329999953508377,0.02329999953508377,0.02329999953508377,0.02329999953508377,0.02329999953508377,0.02329999953508377,0.02329999953508377,0.02329999953508377,0.02329999953508377,0.02329999953508377,0.02329999953508377,0.02319999970495701,0.02319999970495701,0.024700000882148743,0.029100000858306885,0.03370000049471855,0.03830000013113022,0.04479999840259552,0.05090000107884407,0.0568000003695488,0.061799999326467514,0.06599999964237213,0.0689999982714653,0.07119999825954437,0.07440000027418137,0.07909999787807465,0.08150000125169754,0.08190000057220459,0.08209999650716782]}}}