{"type":"FeatureCollection","features":[{"type":"Feature","geometry":{"type":"Point","coordinates":[73.1747,15.99812]},"properties":{"peak_db":-4.5,"area_px":1,"approx_length_m":42,"platform":false}},{"type":"Feature","geometry":{"type":"Point","coordinates":[73.17298,15.99507]},"properties":{"peak_db":-4.8,"area_px":1,"approx_length_m":42,"platform":false}},{"type":"Feature","geometry":{"type":"Point","coordinates":[73.46324,15.93222]},"properties":{"peak_db":-6.5,"area_px":2,"approx_length_m":59,"platform":false}},{"type":"Feature","geometry":{"type":"Point","coordinates":[73.46278,15.93203]},"properties":{"peak_db":-6.8,"area_px":1,"approx_length_m":42,"platform":false}},{"type":"Feature","geometry":{"type":"Point","coordinates":[73.08947,16.00006]},"properties":{"peak_db":-4.2,"area_px":1,"approx_length_m":42,"platform":false}},{"type":"Feature","geometry":{"type":"Point","coordinates":[73.4664,15.8951]},"properties":{"peak_db":-4.3,"area_px":7,"approx_length_m":111,"platform":false}},{"type":"Feature","geometry":{"type":"Point","coordinates":[73.46644,15.89414]},"properties":{"peak_db":-0.7,"area_px":3,"approx_length_m":73,"platform":false}},{"type":"Feature","geometry":{"type":"Point","coordinates":[73.46592,15.89386]},"properties":{"peak_db":-5.1,"area_px":1,"approx_length_m":42,"platform":false}},{"type":"Feature","geometry":{"type":"Point","coordinates":[73.46212,15.88966]},"properties":{"peak_db":-2.7,"area_px":6,"approx_length_m":103,"platform":false}},{"type":"Feature","geometry":{"type":"Point","coordinates":[73.45507,15.88915]},"properties":{"peak_db":-2.1,"area_px":3,"approx_length_m":73,"platform":false}},{"type":"Feature","geometry":{"type":"Point","coordinates":[73.45559,15.88891]},"properties":{"peak_db":-5.9,"area_px":2,"approx_length_m":59,"platform":false}},{"type":"Feature","geometry":{"type":"Point","coordinates":[73.46351,15.8873]},"properties":{"peak_db":-5.4,"area_px":1,"approx_length_m":42,"platform":false}},{"type":"Feature","geometry":{"type":"Point","coordinates":[73.45587,15.88816]},"properties":{"peak_db":-5.4,"area_px":2,"approx_length_m":59,"platform":false}},{"type":"Feature","geometry":{"type":"Point","coordinates":[73.45842,15.8874]},"properties":{"peak_db":-7.7,"area_px":1,"approx_length_m":42,"platform":false}},{"type":"Feature","geometry":{"type":"Point","coordinates":[73.10991,15.92736]},"properties":{"peak_db":12.6,"area_px":20,"approx_length_m":188,"platform":false}},{"type":"Feature","geometry":{"type":"Point","coordinates":[72.8438,15.94569]},"properties":{"peak_db":9.8,"area_px":14,"approx_length_m":157,"platform":false}},{"type":"Feature","geometry":{"type":"Point","coordinates":[73.44549,15.8131]},"properties":{"peak_db":-6.4,"area_px":2,"approx_length_m":59,"platform":false}},{"type":"Feature","geometry":{"type":"Point","coordinates":[73.44024,15.80356]},"properties":{"peak_db":-7.9,"area_px":1,"approx_length_m":42,"platform":false}},{"type":"Feature","geometry":{"type":"Point","coordinates":[73.60077,15.76151]},"properties":{"peak_db":13.9,"area_px":19,"approx_length_m":183,"platform":false}},{"type":"Feature","geometry":{"type":"Point","coordinates":[73.08008,15.8372]},"properties":{"peak_db":-5.7,"area_px":2,"approx_length_m":59,"platform":false}},{"type":"Feature","geometry":{"type":"Point","coordinates":[73.35347,15.75628]},"properties":{"peak_db":1.7,"area_px":4,"approx_length_m":84,"platform":false}},{"type":"Feature","geometry":{"type":"Point","coordinates":[73.32334,15.71855]},"properties":{"peak_db":-3.2,"area_px":2,"approx_length_m":59,"platform":false}},{"type":"Feature","geometry":{"type":"Point","coordinates":[73.35367,15.68839]},"properties":{"peak_db":-5.3,"area_px":1,"approx_length_m":42,"platform":false}},{"type":"Feature","geometry":{"type":"Point","coordinates":[73.40098,15.64987]},"properties":{"peak_db":-7.2,"area_px":2,"approx_length_m":59,"platform":false}},{"type":"Feature","geometry":{"type":"Point","coordinates":[73.34293,15.62784]},"properties":{"peak_db":-6.2,"area_px":1,"approx_length_m":42,"platform":false}},{"type":"Feature","geometry":{"type":"Point","coordinates":[73.38149,15.61591]},"properties":{"peak_db":-6.7,"area_px":2,"approx_length_m":59,"platform":false}},{"type":"Feature","geometry":{"type":"Point","coordinates":[73.35072,15.5905]},"properties":{"peak_db":-6.2,"area_px":1,"approx_length_m":42,"platform":false}},{"type":"Feature","geometry":{"type":"Point","coordinates":[73.31467,15.59411]},"properties":{"peak_db":-6.7,"area_px":1,"approx_length_m":42,"platform":false}},{"type":"Feature","geometry":{"type":"Point","coordinates":[73.36171,15.55635]},"properties":{"peak_db":-5.4,"area_px":2,"approx_length_m":59,"platform":false}},{"type":"Feature","geometry":{"type":"Point","coordinates":[73.78872,15.46366]},"properties":{"peak_db":-0.5,"area_px":1,"approx_length_m":42,"platform":false}},{"type":"Feature","geometry":{"type":"Point","coordinates":[72.89425,15.6253]},"properties":{"peak_db":-5.2,"area_px":1,"approx_length_m":42,"platform":false}},{"type":"Feature","geometry":{"type":"Point","coordinates":[73.73973,15.45266]},"properties":{"peak_db":17.9,"area_px":11,"approx_length_m":139,"platform":false}},{"type":"Feature","geometry":{"type":"Point","coordinates":[73.79962,15.43297]},"properties":{"peak_db":5.0,"area_px":8,"approx_length_m":119,"platform":false}},{"type":"Feature","geometry":{"type":"Point","coordinates":[73.73042,15.44367]},"properties":{"peak_db":18.1,"area_px":20,"approx_length_m":188,"platform":false}},{"type":"Feature","geometry":{"type":"Point","coordinates":[73.85871,15.41662]},"properties":{"peak_db":0.6,"area_px":2,"approx_length_m":59,"platform":false}},{"type":"Feature","geometry":{"type":"Point","coordinates":[73.70149,15.43676]},"properties":{"peak_db":17.1,"area_px":14,"approx_length_m":157,"platform":false}},{"type":"Feature","geometry":{"type":"Point","coordinates":[73.81095,15.41412]},"properties":{"peak_db":6.8,"area_px":4,"approx_length_m":84,"platform":false}},{"type":"Feature","geometry":{"type":"Point","coordinates":[73.80898,15.41386]},"properties":{"peak_db":1.7,"area_px":4,"approx_length_m":84,"platform":false}},{"type":"Feature","geometry":{"type":"Point","coordinates":[73.7896,15.41407]},"properties":{"peak_db":5.4,"area_px":2,"approx_length_m":59,"platform":false}},{"type":"Feature","geometry":{"type":"Point","coordinates":[73.77312,15.40032]},"properties":{"peak_db":-6.0,"area_px":1,"approx_length_m":42,"platform":false}},{"type":"Feature","geometry":{"type":"Point","coordinates":[73.37549,15.47131]},"properties":{"peak_db":0.7,"area_px":2,"approx_length_m":59,"platform":false}},{"type":"Feature","geometry":{"type":"Point","coordinates":[73.67903,15.41394]},"properties":{"peak_db":7.9,"area_px":8,"approx_length_m":119,"platform":false}},{"type":"Feature","geometry":{"type":"Point","coordinates":[73.76359,15.35297]},"properties":{"peak_db":0.3,"area_px":1,"approx_length_m":42,"platform":false}},{"type":"Feature","geometry":{"type":"Point","coordinates":[73.76277,15.35312]},"properties":{"peak_db":-3.1,"area_px":1,"approx_length_m":42,"platform":false}},{"type":"Feature","geometry":{"type":"Point","coordinates":[73.45709,15.3294]},"properties":{"peak_db":-2.8,"area_px":1,"approx_length_m":42,"platform":false}},{"type":"Feature","geometry":{"type":"Point","coordinates":[73.27432,15.34977]},"properties":{"peak_db":-6.2,"area_px":1,"approx_length_m":42,"platform":false}},{"type":"Feature","geometry":{"type":"Point","coordinates":[72.97295,15.39788]},"properties":{"peak_db":-4.5,"area_px":1,"approx_length_m":42,"platform":false}},{"type":"Feature","geometry":{"type":"Point","coordinates":[73.40341,15.28427]},"properties":{"peak_db":15.2,"area_px":26,"approx_length_m":214,"platform":false}},{"type":"Feature","geometry":{"type":"Point","coordinates":[73.14609,15.27845]},"properties":{"peak_db":-2.9,"area_px":2,"approx_length_m":59,"platform":false}},{"type":"Feature","geometry":{"type":"Point","coordinates":[73.55878,15.18402]},"properties":{"peak_db":-1.9,"area_px":1,"approx_length_m":42,"platform":false}},{"type":"Feature","geometry":{"type":"Point","coordinates":[73.77251,15.13839]},"properties":{"peak_db":-2.3,"area_px":1,"approx_length_m":42,"platform":false}},{"type":"Feature","geometry":{"type":"Point","coordinates":[73.39723,15.17841]},"properties":{"peak_db":-2.1,"area_px":1,"approx_length_m":42,"platform":false}},{"type":"Feature","geometry":{"type":"Point","coordinates":[73.65977,15.10716]},"properties":{"peak_db":-1.3,"area_px":2,"approx_length_m":59,"platform":false}},{"type":"Feature","geometry":{"type":"Point","coordinates":[73.55982,15.04555]},"properties":{"peak_db":1.5,"area_px":2,"approx_length_m":59,"platform":false}},{"type":"Feature","geometry":{"type":"Point","coordinates":[73.61534,15.00957]},"properties":{"peak_db":-2.7,"area_px":3,"approx_length_m":73,"platform":false}},{"type":"Feature","geometry":{"type":"Point","coordinates":[73.74333,14.96455]},"properties":{"peak_db":-2.7,"area_px":2,"approx_length_m":59,"platform":false}},{"type":"Feature","geometry":{"type":"Point","coordinates":[73.66348,14.95325]},"properties":{"peak_db":-0.7,"area_px":4,"approx_length_m":84,"platform":false}},{"type":"Feature","geometry":{"type":"Point","coordinates":[73.63912,14.95687]},"properties":{"peak_db":2.3,"area_px":4,"approx_length_m":84,"platform":false}},{"type":"Feature","geometry":{"type":"Point","coordinates":[73.66811,14.92077]},"properties":{"peak_db":-6.6,"area_px":1,"approx_length_m":42,"platform":false}},{"type":"Feature","geometry":{"type":"Point","coordinates":[74.09466,14.83823]},"properties":{"peak_db":-3.1,"area_px":1,"approx_length_m":42,"platform":false}},{"type":"Feature","geometry":{"type":"Point","coordinates":[74.09341,14.83762]},"properties":{"peak_db":-2.9,"area_px":1,"approx_length_m":42,"platform":false}},{"type":"Feature","geometry":{"type":"Point","coordinates":[74.0929,14.83716]},"properties":{"peak_db":-1.3,"area_px":2,"approx_length_m":59,"platform":false}},{"type":"Feature","geometry":{"type":"Point","coordinates":[74.06048,14.82109]},"properties":{"peak_db":-1.7,"area_px":7,"approx_length_m":111,"platform":false}},{"type":"Feature","geometry":{"type":"Point","coordinates":[74.06361,14.82011]},"properties":{"peak_db":-2.5,"area_px":2,"approx_length_m":59,"platform":false}},{"type":"Feature","geometry":{"type":"Point","coordinates":[74.05769,14.82026]},"properties":{"peak_db":-3.7,"area_px":1,"approx_length_m":42,"platform":false}},{"type":"Feature","geometry":{"type":"Point","coordinates":[74.05696,14.81984]},"properties":{"peak_db":1.3,"area_px":4,"approx_length_m":84,"platform":false}},{"type":"Feature","geometry":{"type":"Point","coordinates":[74.05513,14.81737]},"properties":{"peak_db":-5.0,"area_px":1,"approx_length_m":42,"platform":false}},{"type":"Feature","geometry":{"type":"Point","coordinates":[74.05535,14.81705]},"properties":{"peak_db":-2.9,"area_px":1,"approx_length_m":42,"platform":false}},{"type":"Feature","geometry":{"type":"Point","coordinates":[74.05393,14.81704]},"properties":{"peak_db":-4.7,"area_px":1,"approx_length_m":42,"platform":false}},{"type":"Feature","geometry":{"type":"Point","coordinates":[73.66933,14.88331]},"properties":{"peak_db":-0.8,"area_px":4,"approx_length_m":84,"platform":false}},{"type":"Feature","geometry":{"type":"Point","coordinates":[73.19817,14.9544]},"properties":{"peak_db":-5.5,"area_px":3,"approx_length_m":73,"platform":false}},{"type":"Feature","geometry":{"type":"Point","coordinates":[74.11274,14.76587]},"properties":{"peak_db":-6.2,"area_px":1,"approx_length_m":42,"platform":false}},{"type":"Feature","geometry":{"type":"Point","coordinates":[73.68757,14.84667]},"properties":{"peak_db":-3.3,"area_px":3,"approx_length_m":73,"platform":false}},{"type":"Feature","geometry":{"type":"Point","coordinates":[74.11193,14.76461]},"properties":{"peak_db":-5.2,"area_px":1,"approx_length_m":42,"platform":false}},{"type":"Feature","geometry":{"type":"Point","coordinates":[74.11147,14.76372]},"properties":{"peak_db":-4.9,"area_px":2,"approx_length_m":59,"platform":false}},{"type":"Feature","geometry":{"type":"Point","coordinates":[74.12809,14.75866]},"properties":{"peak_db":-4.1,"area_px":7,"approx_length_m":111,"platform":false}},{"type":"Feature","geometry":{"type":"Point","coordinates":[74.10975,14.76116]},"properties":{"peak_db":-0.5,"area_px":4,"approx_length_m":84,"platform":false}},{"type":"Feature","geometry":{"type":"Point","coordinates":[74.13012,14.75719]},"properties":{"peak_db":-5.4,"area_px":3,"approx_length_m":73,"platform":false}},{"type":"Feature","geometry":{"type":"Point","coordinates":[74.10983,14.76016]},"properties":{"peak_db":-1.5,"area_px":4,"approx_length_m":84,"platform":false}},{"type":"Feature","geometry":{"type":"Point","coordinates":[74.11008,14.75962]},"properties":{"peak_db":-3.0,"area_px":1,"approx_length_m":42,"platform":false}},{"type":"Feature","geometry":{"type":"Point","coordinates":[74.13358,14.75484]},"properties":{"peak_db":-6.4,"area_px":1,"approx_length_m":42,"platform":false}},{"type":"Feature","geometry":{"type":"Point","coordinates":[74.13456,14.75409]},"properties":{"peak_db":-5.1,"area_px":1,"approx_length_m":42,"platform":false}},{"type":"Feature","geometry":{"type":"Point","coordinates":[74.13532,14.75366]},"properties":{"peak_db":-7.1,"area_px":1,"approx_length_m":42,"platform":false}},{"type":"Feature","geometry":{"type":"Point","coordinates":[74.13586,14.75321]},"properties":{"peak_db":-5.2,"area_px":4,"approx_length_m":84,"platform":false}},{"type":"Feature","geometry":{"type":"Point","coordinates":[74.11433,14.75628]},"properties":{"peak_db":-1.6,"area_px":4,"approx_length_m":84,"platform":false}},{"type":"Feature","geometry":{"type":"Point","coordinates":[74.11386,14.75609]},"properties":{"peak_db":-3.7,"area_px":1,"approx_length_m":42,"platform":false}},{"type":"Feature","geometry":{"type":"Point","coordinates":[74.11489,14.75561]},"properties":{"peak_db":-3.9,"area_px":1,"approx_length_m":42,"platform":false}},{"type":"Feature","geometry":{"type":"Point","coordinates":[74.11511,14.75528]},"properties":{"peak_db":-4.1,"area_px":1,"approx_length_m":42,"platform":false}},{"type":"Feature","geometry":{"type":"Point","coordinates":[74.11457,14.75539]},"properties":{"peak_db":-3.5,"area_px":1,"approx_length_m":42,"platform":false}},{"type":"Feature","geometry":{"type":"Point","coordinates":[74.11866,14.75404]},"properties":{"peak_db":-4.1,"area_px":4,"approx_length_m":84,"platform":false}},{"type":"Feature","geometry":{"type":"Point","coordinates":[74.15432,14.74151]},"properties":{"peak_db":-3.4,"area_px":4,"approx_length_m":84,"platform":false}},{"type":"Feature","geometry":{"type":"Point","coordinates":[73.79379,14.80619]},"properties":{"peak_db":5.4,"area_px":6,"approx_length_m":103,"platform":false}},{"type":"Feature","geometry":{"type":"Point","coordinates":[74.16288,14.73506]},"properties":{"peak_db":-1.9,"area_px":3,"approx_length_m":73,"platform":false}},{"type":"Feature","geometry":{"type":"Point","coordinates":[74.10677,14.73823]},"properties":{"peak_db":8.4,"area_px":22,"approx_length_m":197,"platform":false}},{"type":"Feature","geometry":{"type":"Point","coordinates":[74.23864,14.71146]},"properties":{"peak_db":-3.7,"area_px":2,"approx_length_m":59,"platform":false}},{"type":"Feature","geometry":{"type":"Point","coordinates":[74.23896,14.71097]},"properties":{"peak_db":-3.0,"area_px":2,"approx_length_m":59,"platform":false}},{"type":"Feature","geometry":{"type":"Point","coordinates":[74.23763,14.71067]},"properties":{"peak_db":-3.2,"area_px":1,"approx_length_m":42,"platform":false}},{"type":"Feature","geometry":{"type":"Point","coordinates":[74.23785,14.71034]},"properties":{"peak_db":-4.5,"area_px":1,"approx_length_m":42,"platform":false}},{"type":"Feature","geometry":{"type":"Point","coordinates":[74.23774,14.7098]},"properties":{"peak_db":-3.1,"area_px":1,"approx_length_m":42,"platform":false}},{"type":"Feature","geometry":{"type":"Point","coordinates":[74.14581,14.72619]},"properties":{"peak_db":-5.5,"area_px":2,"approx_length_m":59,"platform":false}},{"type":"Feature","geometry":{"type":"Point","coordinates":[74.13648,14.70365]},"properties":{"peak_db":-7.4,"area_px":1,"approx_length_m":42,"platform":false}},{"type":"Feature","geometry":{"type":"Point","coordinates":[73.09396,14.88743]},"properties":{"peak_db":19.1,"area_px":28,"approx_length_m":222,"platform":false}},{"type":"Feature","geometry":{"type":"Point","coordinates":[73.97486,14.59456]},"properties":{"peak_db":-7.4,"area_px":2,"approx_length_m":59,"platform":false}},{"type":"Feature","geometry":{"type":"Point","coordinates":[73.62999,14.65621]},"properties":{"peak_db":7.8,"area_px":15,"approx_length_m":163,"platform":false}},{"type":"Feature","geometry":{"type":"Point","coordinates":[73.33749,14.69667]},"properties":{"peak_db":-6.0,"area_px":2,"approx_length_m":59,"platform":false}},{"type":"Feature","geometry":{"type":"Point","coordinates":[73.35765,14.66157]},"properties":{"peak_db":-7.5,"area_px":2,"approx_length_m":59,"platform":false}},{"type":"Feature","geometry":{"type":"Point","coordinates":[73.99357,14.48214]},"properties":{"peak_db":-4.6,"area_px":1,"approx_length_m":42,"platform":false}},{"type":"Feature","geometry":{"type":"Point","coordinates":[74.29276,14.42047]},"properties":{"peak_db":-1.6,"area_px":4,"approx_length_m":84,"platform":false}},{"type":"Feature","geometry":{"type":"Point","coordinates":[73.37196,14.59105]},"properties":{"peak_db":-4.7,"area_px":2,"approx_length_m":59,"platform":false}},{"type":"Feature","geometry":{"type":"Point","coordinates":[73.36971,14.58684]},"properties":{"peak_db":-6.3,"area_px":1,"approx_length_m":42,"platform":false}},{"type":"Feature","geometry":{"type":"Point","coordinates":[73.87088,14.39697]},"properties":{"peak_db":1.2,"area_px":4,"approx_length_m":84,"platform":false}},{"type":"Feature","geometry":{"type":"Point","coordinates":[74.11182,14.34886]},"properties":{"peak_db":0.8,"area_px":4,"approx_length_m":84,"platform":false}},{"type":"Feature","geometry":{"type":"Point","coordinates":[73.87305,14.39149]},"properties":{"peak_db":-3.4,"area_px":2,"approx_length_m":59,"platform":false}},{"type":"Feature","geometry":{"type":"Point","coordinates":[73.21517,14.51146]},"properties":{"peak_db":-4.2,"area_px":2,"approx_length_m":59,"platform":false}}],"properties":{"method":"two-window CFAR, 30 m, 9.0 dB over local background","validated":false}}