{"type":"FeatureCollection","features":[{"type":"Feature","geometry":{"type":"MultiPolygon","coordinates":[[[[73.626883,15.42681],[73.631689,15.42681],[73.631689,15.426123],[73.635809,15.426123],[73.635809,15.425436],[73.640616,15.425436],[73.640616,15.42475],[73.644736,15.42475],[73.644736,15.424063],[73.647482,15.424063],[73.647482,15.423376],[73.652289,15.423376],[73.652289,15.42269],[73.655722,15.42269],[73.655722,15.422003],[73.660529,15.422003],[73.660529,15.421317],[73.663962,15.421317],[73.663962,15.42063],[73.668082,15.42063],[73.668082,15.419943],[73.670828,15.419943],[73.670828,15.419257],[73.674948,15.419257],[73.674948,15.41857],[73.675635,15.41857],[73.675635,15.417883],[73.677695,15.417883],[73.677695,15.415823],[73.679068,15.415823],[73.679068,15.41651],[73.678381,15.41651],[73.678381,15.417197],[73.681128,15.417197],[73.681128,15.41651],[73.681815,15.41651],[73.681815,15.417197],[73.683188,15.417197],[73.683188,15.41651],[73.685934,15.41651],[73.685934,15.415823],[73.687994,15.415823],[73.687994,15.415137],[73.688681,15.415137],[73.688681,15.415823],[73.691428,15.415823],[73.691428,15.415137],[73.695547,15.415137],[73.695547,15.41445],[73.698981,15.41445],[73.698981,15.413763],[73.703101,15.413763],[73.703101,15.413077],[73.70722,15.413077],[73.70722,15.41239],[73.710654,15.41239],[73.710654,15.411703],[73.71546,15.411703],[73.71546,15.411017],[73.71958,15.411017],[73.71958,15.41033],[73.723013,15.41033],[73.723013,15.408957],[73.727133,15.408957],[73.727133,15.40827],[73.730566,15.40827],[73.730566,15.407584],[73.734686,15.407584],[73.734686,15.406897],[73.738806,15.406897],[73.738806,15.40621],[73.740179,15.40621],[73.740179,15.405524],[73.741553,15.405524],[73.741553,15.40621],[73.742926,15.40621],[73.742926,15.405524],[73.745673,15.405524],[73.745673,15.404837],[73.751166,15.404837],[73.751166,15.40415],[73.753912,15.40415],[73.753912,15.403464],[73.757346,15.403464],[73.757346,15.402777],[73.759406,15.402777],[73.759406,15.40209],[73.755286,15.40209],[73.755286,15.402777],[73.754599,15.402777],[73.754599,15.40209],[73.753912,15.40209],[73.753912,15.402777],[73.753226,15.402777],[73.753226,15.401404],[73.751852,15.401404],[73.751852,15.400717],[73.751166,15.400717],[73.751166,15.400031],[73.742239,15.400031],[73.742239,15.400717],[73.737433,15.400717],[73.737433,15.400031],[73.73606,15.400031],[73.73606,15.399344],[73.735373,15.399344],[73.735373,15.400031],[73.733313,15.400031],[73.733313,15.398657],[73.72988,15.398657],[73.72988,15.397284],[73.723013,15.397284],[73.723013,15.397971],[73.722327,15.397971],[73.722327,15.397284],[73.7134,15.397284],[73.7134,15.396597],[73.714087,15.396597],[73.714087,15.395911],[73.712714,15.395911],[73.712714,15.397284],[73.70928,15.397284],[73.70928,15.397971],[73.708594,15.397971],[73.708594,15.397284],[73.707907,15.397284],[73.707907,15.397971],[73.70722,15.397971],[73.70722,15.398657],[73.706534,15.398657],[73.706534,15.400031],[73.705847,15.400031],[73.705847,15.399344],[73.705161,15.399344],[73.705161,15.400031],[73.703101,15.400031],[73.703101,15.401404],[73.702414,15.401404],[73.702414,15.40209],[73.701727,15.40209],[73.701727,15.402777],[73.700354,15.402777],[73.700354,15.403464],[73.698981,15.403464],[73.698981,15.40415],[73.698294,15.40415],[73.698294,15.404837],[73.697607,15.404837],[73.697607,15.405524],[73.696234,15.405524],[73.696234,15.406897],[73.694861,15.406897],[73.694861,15.407584],[73.695547,15.407584],[73.695547,15.40827],[73.693488,15.40827],[73.693488,15.409644],[73.692114,15.409644],[73.692114,15.41033],[73.690741,15.41033],[73.690741,15.411017],[73.688681,15.411017],[73.688681,15.411703],[73.687994,15.411703],[73.687994,15.411017],[73.687308,15.411017],[73.687308,15.41033],[73.685934,15.41033],[73.685934,15.409644],[73.683875,15.409644],[73.683875,15.408957],[73.683188,15.408957],[73.683188,15.40827],[73.681815,15.40827],[73.681815,15.407584],[73.680441,15.407584],[73.680441,15.40827],[73.679755,15.40827],[73.679755,15.407584],[73.679068,15.407584],[73.679068,15.40827],[73.678381,15.40827],[73.678381,15.406897],[73.674948,15.406897],[73.674948,15.407584],[73.674261,15.407584],[73.674261,15.406897],[73.673575,15.406897],[73.673575,15.407584],[73.672888,15.407584],[73.672888,15.406897],[73.671515,15.406897],[73.671515,15.40621],[73.670142,15.40621],[73.670142,15.405524],[73.669455,15.405524],[73.669455,15.40621],[73.668768,15.40621],[73.668768,15.406897],[73.664648,15.406897],[73.664648,15.405524],[73.662589,15.405524],[73.662589,15.40621],[73.661902,15.40621],[73.661902,15.406897],[73.660529,15.406897],[73.660529,15.407584],[73.659842,15.407584],[73.659842,15.40827],[73.656409,15.40827],[73.656409,15.406897],[73.655035,15.406897],[73.655035,15.408957],[73.653662,15.408957],[73.653662,15.40827],[73.652975,15.40827],[73.652975,15.407584],[73.651602,15.407584],[73.651602,15.41033],[73.649542,15.41033],[73.649542,15.409644],[73.648856,15.409644],[73.648856,15.408957],[73.648169,15.408957],[73.648169,15.409644],[73.647482,15.409644],[73.647482,15.41033],[73.646796,15.41033],[73.646796,15.411017],[73.645422,15.411017],[73.645422,15.411703],[73.644736,15.411703],[73.644736,15.411017],[73.644049,15.411017],[73.644049,15.411703],[73.642676,15.411703],[73.642676,15.41239],[73.640616,15.41239],[73.640616,15.413077],[73.638556,15.413077],[73.638556,15.413763],[73.637183,15.413763],[73.637183,15.41239],[73.635809,15.41239],[73.635809,15.413077],[73.634436,15.413077],[73.634436,15.413763],[73.633063,15.413763],[73.633063,15.41445],[73.632376,15.41445],[73.632376,15.415137],[73.633063,15.415137],[73.633063,15.415823],[73.633749,15.415823],[73.633749,15.41857],[73.634436,15.41857],[73.634436,15.419257],[73.633749,15.419257],[73.633749,15.42063],[73.631689,15.42063],[73.631689,15.421317],[73.631003,15.421317],[73.631003,15.422003],[73.630316,15.422003],[73.630316,15.42063],[73.628943,15.42063],[73.628943,15.419943],[73.628256,15.419943],[73.628256,15.42063],[73.62757,15.42063],[73.62757,15.421317],[73.626883,15.421317],[73.626883,15.42269],[73.626196,15.42269],[73.626196,15.423376],[73.62551,15.423376],[73.62551,15.42475],[73.626883,15.42475],[73.626883,15.425436],[73.626196,15.425436],[73.626196,15.426123],[73.626883,15.426123],[73.626883,15.42681]],[[73.751166,15.400717],[73.751166,15.401404],[73.749792,15.401404],[73.749792,15.400717],[73.751166,15.400717]],[[73.712714,15.398657],[73.712714,15.397971],[73.714087,15.397971],[73.714087,15.398657],[73.712714,15.398657]],[[73.683188,15.411017],[73.683188,15.41033],[73.683875,15.41033],[73.683875,15.411017],[73.683188,15.411017]],[[73.677695,15.415137],[73.677695,15.41445],[73.677008,15.41445],[73.677008,15.413763],[73.677695,15.413763],[73.677695,15.413077],[73.678381,15.413077],[73.678381,15.411703],[73.679755,15.411703],[73.679755,15.415137],[73.677695,15.415137]],[[73.676321,15.417197],[73.676321,15.41651],[73.677008,15.41651],[73.677008,15.417197],[73.676321,15.417197]]],[[[73.661902,15.40621],[73.661902,15.405524],[73.660529,15.405524],[73.660529,15.40621],[73.661902,15.40621]]],[[[73.742239,15.399344],[73.743613,15.399344],[73.743613,15.398657],[73.742239,15.398657],[73.742239,15.399344]]],[[[73.631003,15.419257],[73.631689,15.419257],[73.631689,15.41857],[73.632376,15.41857],[73.632376,15.417883],[73.631003,15.417883],[73.631003,15.419257]]],[[[73.451102,15.459769],[73.451788,15.459769],[73.451788,15.460455],[73.452475,15.460455],[73.452475,15.459769],[73.457281,15.459769],[73.457281,15.459082],[73.460715,15.459082],[73.460715,15.458395],[73.465521,15.458395],[73.465521,15.457709],[73.468954,15.457709],[73.468954,15.457022],[73.473074,15.457022],[73.473074,15.456335],[73.477194,15.456335],[73.477194,15.454962],[73.479254,15.454962],[73.479254,15.455649],[73.479941,15.455649],[73.479941,15.454962],[73.480627,15.454962],[73.480627,15.454276],[73.484747,15.454276],[73.484747,15.453589],[73.488867,15.453589],[73.488867,15.452902],[73.492987,15.452902],[73.492987,15.452216],[73.497107,15.452216],[73.497107,15.451529],[73.501227,15.451529],[73.501227,15.450842],[73.50466,15.450842],[73.50466,15.450156],[73.508093,15.450156],[73.508093,15.449469],[73.5129,15.449469],[73.5129,15.448782],[73.516333,15.448782],[73.516333,15.448096],[73.520453,15.448096],[73.520453,15.447409],[73.524573,15.447409],[73.524573,15.446722],[73.528693,15.446722],[73.528693,15.446036],[73.529379,15.446036],[73.529379,15.445349],[73.532812,15.445349],[73.532812,15.444662],[73.536246,15.444662],[73.536246,15.443976],[73.540366,15.443976],[73.540366,15.443289],[73.544485,15.443289],[73.544485,15.442603],[73.549292,15.442603],[73.549292,15.441916],[73.552039,15.441916],[73.552039,15.441229],[73.557532,15.441229],[73.557532,15.440543],[73.560278,15.440543],[73.560278,15.439856],[73.563712,15.439856],[73.563712,15.439169],[73.568518,15.439169],[73.568518,15.438483],[73.572638,15.438483],[73.572638,15.437796],[73.576071,15.437796],[73.576071,15.437109],[73.576758,15.437109],[73.576758,15.436423],[73.580191,15.436423],[73.580191,15.435736],[73.584998,15.435736],[73.584998,15.435049],[73.586371,15.435049],[73.586371,15.435736],[73.587057,15.435736],[73.587057,15.435049],[73.587744,15.435049],[73.587744,15.434363],[73.591864,15.434363],[73.591864,15.433676],[73.595984,15.433676],[73.595984,15.43299],[73.600104,15.43299],[73.600104,15.432303],[73.604224,15.432303],[73.604224,15.431616],[73.608344,15.431616],[73.608344,15.43093],[73.612463,15.43093],[73.612463,15.430243],[73.616583,15.430243],[73.616583,15.429556],[73.617957,15.429556],[73.617957,15.430243],[73.618643,15.430243],[73.618643,15.429556],[73.620016,15.429556],[73.620016,15.42887],[73.62345,15.42887],[73.62345,15.428183],[73.624823,15.428183],[73.624823,15.427496],[73.626196,15.427496],[73.626196,15.42681],[73.62551,15.42681],[73.62551,15.426123],[73.624823,15.426123],[73.624823,15.425436],[73.62345,15.425436],[73.62345,15.42681],[73.62139,15.42681],[73.62139,15.42475],[73.620703,15.42475],[73.620703,15.424063],[73.61933,15.424063],[73.61933,15.423376],[73.617957,15.423376],[73.617957,15.42269],[73.616583,15.42269],[73.616583,15.422003],[73.615897,15.422003],[73.615897,15.421317],[73.61521,15.421317],[73.61521,15.417883],[73.614523,15.417883],[73.614523,15.41857],[73.612463,15.41857],[73.612463,15.417883],[73.61109,15.417883],[73.61109,15.41857],[73.609717,15.41857],[73.609717,15.417883],[73.608344,15.417883],[73.608344,15.41651],[73.607657,15.41651],[73.607657,15.417197],[73.60697,15.417197],[73.60697,15.41651],[73.606284,15.41651],[73.606284,15.417197],[73.605597,15.417197],[73.605597,15.417883],[73.604224,15.417883],[73.604224,15.417197],[73.601477,15.417197],[73.601477,15.41651],[73.599417,15.41651],[73.599417,15.417883],[73.59873,15.417883],[73.59873,15.419257],[73.598044,15.419257],[73.598044,15.421317],[73.597357,15.421317],[73.597357,15.42269],[73.596671,15.42269],[73.596671,15.421317],[73.595984,15.421317],[73.595984,15.417883],[73.590491,15.417883],[73.590491,15.417197],[73.589804,15.417197],[73.589804,15.415137],[73.587057,15.415137],[73.587057,15.415823],[73.586371,15.415823],[73.586371,15.417883],[73.584998,15.417883],[73.584998,15.419257],[73.583624,15.419257],[73.583624,15.42063],[73.578818,15.42063],[73.578818,15.421317],[73.578131,15.421317],[73.578131,15.422003],[73.576758,15.422003],[73.576758,15.421317],[73.575385,15.421317],[73.575385,15.422003],[73.573325,15.422003],[73.573325,15.421317],[73.572638,15.421317],[73.572638,15.42063],[73.571951,15.42063],[73.571951,15.421317],[73.570578,15.421317],[73.570578,15.42063],[73.568518,15.42063],[73.568518,15.419943],[73.567831,15.419943],[73.567831,15.42063],[73.567145,15.42063],[73.567145,15.422003],[73.566458,15.422003],[73.566458,15.421317],[73.563712,15.421317],[73.563712,15.422003],[73.563025,15.422003],[73.563025,15.421317],[73.562338,15.421317],[73.562338,15.42063],[73.560278,15.42063],[73.560278,15.419943],[73.559592,15.419943],[73.559592,15.419257],[73.557532,15.419257],[73.557532,15.419943],[73.558218,15.419943],[73.558218,15.42063],[73.557532,15.42063],[73.557532,15.422003],[73.554785,15.422003],[73.554785,15.42269],[73.553412,15.42269],[73.553412,15.423376],[73.552725,15.423376],[73.552725,15.425436],[73.552039,15.425436],[73.552039,15.426123],[73.548605,15.426123],[73.548605,15.425436],[73.547232,15.425436],[73.547232,15.42269],[73.545859,15.42269],[73.545859,15.422003],[73.545172,15.422003],[73.545172,15.423376],[73.543799,15.423376],[73.543799,15.424063],[73.544485,15.424063],[73.544485,15.42475],[73.543112,15.42475],[73.543112,15.423376],[73.542426,15.423376],[73.542426,15.424063],[73.541739,15.424063],[73.541739,15.423376],[73.541052,15.423376],[73.541052,15.42475],[73.540366,15.42475],[73.540366,15.425436],[73.539679,15.425436],[73.539679,15.426123],[73.538992,15.426123],[73.538992,15.425436],[73.537619,15.425436],[73.537619,15.42475],[73.536246,15.42475],[73.536246,15.425436],[73.535559,15.425436],[73.535559,15.426123],[73.534186,15.426123],[73.534186,15.425436],[73.532812,15.425436],[73.532812,15.42475],[73.532126,15.42475],[73.532126,15.426123],[73.530753,15.426123],[73.530753,15.42681],[73.529379,15.42681],[73.529379,15.426123],[73.528693,15.426123],[73.528693,15.42681],[73.527319,15.42681],[73.527319,15.427496],[73.525946,15.427496],[73.525946,15.428183],[73.526633,15.428183],[73.526633,15.429556],[73.527319,15.429556],[73.527319,15.430243],[73.525946,15.430243],[73.525946,15.429556],[73.525259,15.429556],[73.525259,15.430243],[73.522513,15.430243],[73.522513,15.429556],[73.52114,15.429556],[73.52114,15.430243],[73.516333,15.430243],[73.516333,15.43093],[73.51496,15.43093],[73.51496,15.431616],[73.513586,15.431616],[73.513586,15.43093],[73.512213,15.43093],[73.512213,15.431616],[73.508093,15.431616],[73.508093,15.432303],[73.507407,15.432303],[73.507407,15.431616],[73.50466,15.431616],[73.50466,15.432303],[73.503973,15.432303],[73.503973,15.43299],[73.5026,15.43299],[73.5026,15.433676],[73.50054,15.433676],[73.50054,15.43299],[73.499854,15.43299],[73.499854,15.434363],[73.497794,15.434363],[73.497794,15.435736],[73.499167,15.435736],[73.499167,15.436423],[73.499854,15.436423],[73.499854,15.437109],[73.497107,15.437109],[73.497107,15.435736],[73.495734,15.435736],[73.495734,15.436423],[73.49642,15.436423],[73.49642,15.437109],[73.495734,15.437109],[73.495734,15.438483],[73.495047,15.438483],[73.495047,15.437109],[73.49436,15.437109],[73.49436,15.436423],[73.493674,15.436423],[73.493674,15.435736],[73.492987,15.435736],[73.492987,15.437109],[73.49024,15.437109],[73.49024,15.437796],[73.488181,15.437796],[73.488181,15.439856],[73.487494,15.439856],[73.487494,15.441229],[73.483374,15.441229],[73.483374,15.441916],[73.477881,15.441916],[73.477881,15.442603],[73.477194,15.442603],[73.477194,15.441916],[73.476508,15.441916],[73.476508,15.442603],[73.475821,15.442603],[73.475821,15.443289],[73.475134,15.443289],[73.475134,15.443976],[73.471014,15.443976],[73.471014,15.444662],[73.470328,15.444662],[73.470328,15.445349],[73.468954,15.445349],[73.468954,15.446722],[73.468268,15.446722],[73.468268,15.446036],[73.467581,15.446036],[73.467581,15.446722],[73.466895,15.446722],[73.466895,15.447409],[73.465521,15.447409],[73.465521,15.449469],[73.464835,15.449469],[73.464835,15.450842],[73.464148,15.450842],[73.464148,15.450156],[73.463461,15.450156],[73.463461,15.450842],[73.462088,15.450842],[73.462088,15.451529],[73.461401,15.451529],[73.461401,15.452216],[73.460028,15.452216],[73.460028,15.452902],[73.459341,15.452902],[73.459341,15.452216],[73.458655,15.452216],[73.458655,15.452902],[73.457281,15.452902],[73.457281,15.453589],[73.455908,15.453589],[73.455908,15.454276],[73.454535,15.454276],[73.454535,15.455649],[73.453848,15.455649],[73.453848,15.454962],[73.453162,15.454962],[73.453162,15.457022],[73.452475,15.457022],[73.452475,15.456335],[73.451788,15.456335],[73.451788,15.459082],[73.451102,15.459082],[73.451102,15.459769]],[[73.578131,15.422003],[73.578818,15.422003],[73.578818,15.42269],[73.578131,15.42269],[73.578131,15.422003]]],[[[73.444922,15.461142],[73.446295,15.461142],[73.446295,15.460455],[73.447668,15.460455],[73.447668,15.461142],[73.449042,15.461142],[73.449042,15.460455],[73.451102,15.460455],[73.451102,15.459769],[73.450415,15.459769],[73.450415,15.459082],[73.449728,15.459082],[73.449728,15.458395],[73.449042,15.458395],[73.449042,15.459082],[73.448355,15.459082],[73.448355,15.458395],[73.447668,15.458395],[73.447668,15.459769],[73.445609,15.459769],[73.445609,15.459082],[73.444922,15.459082],[73.444922,15.461142]]],[[[73.62345,15.422003],[73.624823,15.422003],[73.624823,15.421317],[73.62551,15.421317],[73.62551,15.419943],[73.624136,15.419943],[73.624136,15.41857],[73.62345,15.41857],[73.62345,15.417883],[73.624136,15.417883],[73.624136,15.417197],[73.622763,15.417197],[73.622763,15.421317],[73.62345,15.421317],[73.62345,15.422003]]],[[[73.547919,15.42475],[73.548605,15.42475],[73.548605,15.424063],[73.547919,15.424063],[73.547919,15.42475]]],[[[73.442175,15.461142],[73.444235,15.461142],[73.444235,15.459769],[73.443549,15.459769],[73.443549,15.460455],[73.442175,15.460455],[73.442175,15.461142]]]]},"properties":{"area_km2":46.512,"perimeter_km":110.28,"length_km":34.67,"mean_width_km":1.341,"elongation":25.8,"compactness":0.0481,"components":1,"orientation_deg":100.8,"centroid":[73.58911,15.42741],"taper":"undetermined","end_width_ratio":0.84,"edge_truncated":false,"wind_speed_ms":1.8,"wind_reliability":0.61,"age_prior_h":{"min":2,"max":72,"label":"weak prior","spreading_min_h":1.6},"shape_indicator":"elongated, few parts: consistent with a moving vessel","cerulean_slick_id":3358130,"cerulean_machine_confidence":0.984,"cerulean_class":5,"s1_scene_id":"S1A_IW_GRDH_1SDV_20240519T005619_20240519T005644_053933_068E47_B194","source":"SkyTruth Cerulean slick polygon"}}]}