{"type":"FeatureCollection","features":[{"type":"Feature","geometry":{"type":"Polygon","coordinates":[[[71.28793628297434,11.703404724041295],[71.29331915785106,11.710961293984132],[71.30421802776634,11.712685019622462],[71.48457323953504,11.633357892227341],[71.49419155238142,11.621073547482453],[71.48819114721069,11.604102945527151],[71.48286274800964,11.595354930041422],[71.46928895695227,11.591887829454839],[71.30225046119621,11.667624988709056],[71.28584087808117,11.677287883275296],[71.28231831219166,11.683635035032134],[71.28793628297434,11.703404724041295]]]},"properties":{"kind":"age","age_h":1,"in_age_prior":false}},{"type":"Feature","geometry":{"type":"Polygon","coordinates":[[[71.28695995290627,11.713361031232298],[71.29646161005186,11.725279779216327],[71.31346486034214,11.72248527783164],[71.47394023522631,11.65163183944198],[71.48670607636139,11.644798570525278],[71.49292059918034,11.63405428076612],[71.48594796653948,11.614134481509241],[71.4772518098977,11.603279993460356],[71.46618288189974,11.598386280835792],[71.31527124701479,11.665383144426242],[71.28210609994116,11.684154811474569],[71.27896714646143,11.693489713054914],[71.28695995290627,11.713361031232298]]]},"properties":{"kind":"age","age_h":2,"in_age_prior":false}},{"type":"Feature","geometry":{"type":"Polygon","coordinates":[[[71.2860616433717,11.724232033042702],[71.29764626182535,11.737089286031885],[71.3075142003495,11.738835379389727],[71.36570739446014,11.716501316221883],[71.48643362104724,11.661651870252513],[71.49223628060003,11.64543976535885],[71.48624999707609,11.628117384937527],[71.47499731836668,11.609762864671486],[71.46287379671101,11.606502926317015],[71.42950507735237,11.617596227182336],[71.39734116117081,11.63470504995906],[71.31258709945712,11.67165443545586],[71.28099764809323,11.68905412607654],[71.27785814420716,11.700069553277663],[71.2860616433717,11.724232033042702]]]},"properties":{"kind":"age","age_h":3,"in_age_prior":false}},{"type":"Feature","geometry":{"type":"Polygon","coordinates":[[[71.27403196468583,11.756276385511839],[71.29771257689231,11.789563217419396],[71.31049464364078,11.787381288493423],[71.4077188635615,11.749221602668214],[71.48692035809162,11.706887372899056],[71.49314888902099,11.698330666070861],[71.48294343280371,11.663086098505307],[71.46438831279606,11.636495799261864],[71.4524154933485,11.628973988588397],[71.27123266902709,11.710599670524667],[71.26773525833957,11.72092368589133],[71.26872363234104,11.737655417085016],[71.27403196468583,11.756276385511839]]]},"properties":{"kind":"age","age_h":6,"in_age_prior":true}},{"type":"Feature","geometry":{"type":"Polygon","coordinates":[[[71.26032107460031,11.807758186007499],[71.28244018212841,11.83828497069058],[71.29123387507694,11.840808567802643],[71.31731924406924,11.834710381609815],[71.3897323751802,11.80713003208694],[71.48924516197731,11.755190055668695],[71.49237331966992,11.747904478396672],[71.48724882306267,11.717604177579059],[71.47226832524456,11.684936086363274],[71.44867334116597,11.659142291171493],[71.43871204633304,11.654551381282246],[71.40081807557645,11.667434500871227],[71.36792940836338,11.685227993244279],[71.27555313266294,11.724517195720773],[71.26346387613962,11.732367275748112],[71.25059589053416,11.743049503985064],[71.2474272363705,11.755911986242968],[71.26032107460031,11.807758186007499]]]},"properties":{"kind":"age","age_h":9,"in_age_prior":true}},{"type":"Feature","geometry":{"type":"Polygon","coordinates":[[[71.24803932113169,11.877241547667161],[71.27101535613937,11.889431487164229],[71.29228553099264,11.88994486042643],[71.42808731617224,11.83695875070634],[71.49346058116981,11.802988729631771],[71.49565645442775,11.782508316699849],[71.49330520142354,11.760257246893858],[71.47993504616058,11.722849837742318],[71.43428037051078,11.682977842231171],[71.42457035383526,11.67800091089705],[71.3832753544071,11.687708623385955],[71.35504301315531,11.7052298933567],[71.22608767784331,11.760505652345353],[71.22396488153515,11.764355410854563],[71.2318380395172,11.831566517098492],[71.23019841548629,11.83665986262584],[71.24803932113169,11.877241547667161]]]},"properties":{"kind":"age","age_h":12,"in_age_prior":true}},{"type":"Feature","geometry":{"type":"Polygon","coordinates":[[[71.1742919399207,11.952213283184879],[71.19538606658993,11.977993547177737],[71.22928136232983,11.980399148738703],[71.33480828725304,11.950470330119717],[71.45483003911203,11.910419742937696],[71.4834273497307,11.897873620010982],[71.49153687302805,11.88845322254751],[71.49591781997127,11.862685219700522],[71.49363969947032,11.818484227494677],[71.48270890483991,11.776208657043814],[71.47334693255414,11.766189133421507],[71.42023279131053,11.761828590181631],[71.39539286280923,11.731646432709736],[71.39072988311207,11.720532457234478],[71.3723739330347,11.711916651754297],[71.33632373431277,11.719650622270905],[71.27818470627578,11.748217620212936],[71.20868570039373,11.773620954360624],[71.18086436204518,11.787887869050502],[71.17942333482269,11.808530386768055],[71.19139181835095,11.855932618337672],[71.17775525304431,11.898597156161195],[71.1742919399207,11.952213283184879]]]},"properties":{"kind":"age","age_h":18,"in_age_prior":true}},{"type":"Feature","geometry":{"type":"Polygon","coordinates":[[[71.10284236982392,12.033896099721916],[71.11386965651114,12.044971049226621],[71.12976311242672,12.05408430127644],[71.24851195291576,12.033906225401648],[71.44996466482692,11.981966870263781],[71.48060807796351,11.956975232047785],[71.48570094579942,11.94463370355326],[71.49049648575762,11.862560354164753],[71.48109967842943,11.820569657638492],[71.47556962328012,11.809986982954321],[71.47146272653568,11.80794538711192],[71.44179096611306,11.812682951391023],[71.3646077868427,11.794202962634925],[71.34079284149455,11.748289863755097],[71.317538642603,11.736049075136265],[71.28448812902288,11.742194316964278],[71.1269145282193,11.802782494984658],[71.12444217090244,11.823533934496844],[71.13929784641617,11.895195285690203],[71.09601633264526,12.01776484342567],[71.10284236982392,12.033896099721916]]]},"properties":{"kind":"age","age_h":24,"in_age_prior":true}},{"type":"Feature","geometry":{"type":"Polygon","coordinates":[[[70.9855495547586,12.149444182417083],[70.98805536333572,12.166056860284892],[71.00458355976745,12.181576784065157],[71.03758966828269,12.183385354568326],[71.11485015893116,12.164433518329504],[71.25819568062532,12.148421658179641],[71.44239832636825,12.105172255467599],[71.45213010548795,12.0957307157412],[71.46244482451426,12.072106002260288],[71.48224794299884,11.964701558794745],[71.48226252742931,11.945458099043494],[71.47232857750897,11.886928464091609],[71.45555043322076,11.87108148023636],[71.40061233999492,11.885915122692264],[71.28274581310544,11.842230088681198],[71.25010225484237,11.774678328597046],[71.23265649581566,11.761866259013987],[71.19969970014763,11.764385566366853],[71.08515246003934,11.796408266413065],[71.05116924700486,11.808805343064837],[71.04588121622368,11.82558843594353],[71.05601179823971,11.94106703355187],[71.02933945320797,12.027449861065477],[70.9855495547586,12.149444182417083]]]},"properties":{"kind":"age","age_h":36,"in_age_prior":true}},{"type":"Feature","geometry":{"type":"Polygon","coordinates":[[[70.89473124603951,12.285147250109647],[70.88543401868151,12.296211846496076],[70.88650847510513,12.301601115306477],[70.92617624422475,12.328172602921963],[70.94290811765957,12.327850791890604],[71.08099854049283,12.28285395015335],[71.25220000338645,12.25297506641852],[71.42985100729523,12.191549123113349],[71.44969026608153,12.169751557136022],[71.45283657692099,12.15867500234092],[71.47819306002661,11.97480273159445],[71.47590995653162,11.906454594836214],[71.45998555141323,11.89426436931359],[71.4370946622293,11.896555024073079],[71.37651315584205,11.923068947067774],[71.19452807646722,11.882698080904609],[71.15435743075254,11.784193832205915],[71.1424543357289,11.779419804532987],[71.12299498405773,11.780043809572094],[71.0028701671632,11.80238171616822],[70.98130234068016,11.811174349585672],[70.9762187672567,11.829255169693326],[70.95246114260203,12.02184301246529],[70.94032351834178,12.079500239581844],[70.9463941112567,12.101986615884634],[70.91146561255368,12.28428463548528],[70.89473124603951,12.285147250109647]]]},"properties":{"kind":"age","age_h":48,"in_age_prior":true}},{"type":"Feature","geometry":{"type":"Polygon","coordinates":[[[70.81974615150564,12.459124172216756],[70.82631326727984,12.468764346358993],[70.85063605706196,12.482442989353514],[70.86695165175114,12.48248962388401],[70.94056464834107,12.470045550268132],[71.28482360151062,12.39294255295864],[71.32133857875937,12.391589247510218],[71.49715473272374,12.320747328202911],[71.5138925998481,12.308076962467752],[71.5289131000106,12.278369365918902],[71.54878443051729,12.054952967585798],[71.56965160727444,12.038876426502547],[71.56116327748435,11.975816244755594],[71.55203665936085,11.955511501747262],[71.54741547133939,11.953310935558218],[71.52855786839523,11.957477631504537],[71.49522483011964,11.973943016400323],[71.38436041050488,12.018000038634069],[71.17443262307312,11.946133084413319],[71.12758960475324,11.842072635453743],[71.11277294680932,11.83392918893607],[70.98261705019887,11.854088741410687],[70.96165475550626,11.860021806619022],[70.95358906305952,11.884206685158249],[70.94815190865654,12.027229084174106],[70.92757059608363,12.163229555279147],[70.93172983404597,12.182251418606489],[70.94425780606934,12.194679585121948],[70.93302011795588,12.415684664312694],[70.85273969036997,12.423315153991684],[70.82008245082825,12.445036846265877],[70.81974615150564,12.459124172216756]]]},"properties":{"kind":"age","age_h":60,"in_age_prior":true}},{"type":"Feature","geometry":{"type":"Polygon","coordinates":[[[70.75281704254289,12.674490505059717],[70.75135234185734,12.705724111170548],[70.78193545686226,12.718385550987405],[71.1092671578802,12.651684576274342],[71.32166173599941,12.62104686311284],[71.50050792214887,12.562874448579988],[71.53683061724723,12.544838082662126],[71.54228074415171,12.54061154048216],[71.55231061448025,12.516769660991672],[71.54790811474602,12.285589240207136],[71.58586086696134,12.257744287085282],[71.60621610870649,12.247096361238562],[71.62609080471152,12.225084320926815],[71.6146949550296,12.129037495579848],[71.60104702838119,12.12135743692817],[71.56501446609408,12.143656229493267],[71.44547603067319,12.197212928207154],[71.3995697445461,12.211210261878847],[71.20033745601259,12.219744141129151],[71.1100517426481,12.114190146701219],[71.03878923343544,11.99870781687337],[71.0241588361698,11.995989893640882],[70.98563302732322,11.996778627719943],[70.90732150699496,12.002459404867677],[70.88217356673523,12.011283803553717],[70.87520543878092,12.028391078903732],[70.88541226180291,12.19026864815547],[70.87996316155551,12.324779838152377],[70.88590053196474,12.341191980044458],[70.90515198961437,12.35345298261263],[70.95045264283394,12.354346679998498],[71.00702769755884,12.360562539909765],[71.03596301026325,12.371422496688202],[70.99366786632352,12.621563849913795],[70.83517741379205,12.648958789830509],[70.78483880569502,12.650700196919551],[70.75281704254289,12.674490505059717]]]},"properties":{"kind":"age","age_h":72,"in_age_prior":true}},{"type":"Feature","geometry":{"type":"Polygon","coordinates":[[[71.1543076789504,11.770152674412751],[71.00241117793209,11.802491470876731],[70.97481525286241,11.814611727986327],[70.96583176861941,11.829889990329253],[70.94826675997152,11.898927011433667],[70.91787189087079,11.968244791261846],[70.88982116990158,12.00848169119277],[70.88021233440743,12.013663886980508],[70.87520543878092,12.028391078903732],[70.88541226180291,12.19026864815547],[70.88064288799018,12.307522128531751],[70.86663825009879,12.339673216373617],[70.86700475186153,12.345295271578472],[70.8581571070849,12.354523666115929],[70.85936034506818,12.360639933793678],[70.8527044615088,12.367624516521929],[70.85569918977424,12.373617156737955],[70.84988058898739,12.379784246853323],[70.85178851451606,12.386754531750729],[70.84716288962672,12.391795012842127],[70.84686367833723,12.39754162688743],[70.83454672056632,12.407266461591314],[70.83709004368166,12.413647081006806],[70.83092122790214,12.420099893794239],[70.8338785803995,12.425787602292122],[70.82207435067028,12.434636978260206],[70.82517797415966,12.441444883762902],[70.8191299555054,12.446944811841501],[70.81797805785901,12.473220164117704],[70.81447228939088,12.477761670847823],[70.81584237550139,12.487953156220204],[70.81139629003299,12.492990665134487],[70.81347505932891,12.504781899144618],[70.8081951545125,12.510084981079192],[70.80944967513275,12.52112039561636],[70.80299034686112,12.527404922206761],[70.80445156998876,12.542813933374116],[70.79812665156298,12.549177260772543],[70.7996425245971,12.563669848867574],[70.79280498525397,12.570163713681273],[70.79456392120696,12.584368073252445],[70.78707720236434,12.59149785151278],[70.78852337195846,12.60587250020136],[70.78025053099286,12.61310686897014],[70.78132608650563,12.627330084182391],[70.77240678105031,12.635208087700246],[70.77253980327345,12.647986401138606],[70.76305650829177,12.65610053819968],[70.76270128543158,12.666997735543141],[70.75113296276334,12.677105378757659],[70.75135234185734,12.705724111170548],[70.77924942409248,12.718122476278287],[71.1092671578802,12.651684576274342],[71.32166173599941,12.62104686311284],[71.50113022756449,12.562619818119854],[71.54116052282914,12.541948629877426],[71.55196379332324,12.51814593544155],[71.55218118010588,12.508693440953701],[71.55967010447378,12.495743725764974],[71.58623947128282,12.25754772389536],[71.60621610870649,12.247096361238562],[71.62609080471152,12.225084320926815],[71.62400831590523,12.164367334768183],[71.61113361402407,12.071693764035082],[71.58879525044608,11.997987231649121],[71.58303956042727,11.995558267185563],[71.58067211014192,11.98599553679108],[71.57473034954309,11.984052996503346],[71.57275778980349,11.97477847386706],[71.56611740643595,11.972749032791915],[71.56307468587787,11.963490254523023],[71.55541128041017,11.962823151486479],[71.54665620393152,11.940460110617591],[71.54178128938479,11.93925736261941],[71.53763373540095,11.931772773533405],[71.53214753637548,11.930612371920883],[71.52088026065985,11.917498190444535],[71.51059138473181,11.913629087847855],[71.50125133171001,11.903648424893051],[71.49673614037518,11.90283692784822],[71.49419386426204,11.87589953300656],[71.49858614143848,11.835724841419676],[71.49031401156194,11.735599761250358],[71.4925585752473,11.714019171981153],[71.49039168161447,11.703649910321943],[71.49318896311121,11.698781548415303],[71.49057786762947,11.68776718348721],[71.49288086041042,11.68330540640712],[71.48093575524138,11.647213304410318],[71.4693203766937,11.629935524585216],[71.45845992217122,11.621396370314148],[71.43541386348858,11.627861600261246],[71.2758483284206,11.702905766980786],[71.25575925764514,11.738624148391848],[71.23290297009568,11.754389256787219],[71.1969830708761,11.765128037535803],[71.1543076789504,11.770152674412751]]]},"properties":{"kind":"release_corridor","age_prior_h":{"min":5,"max":72,"label":"weak prior","spreading_min_h":5.9}}},{"type":"Feature","geometry":{"type":"Polygon","coordinates":[[[70.74690098681691,12.569376573972468],[70.70529877878326,12.67455150497702],[70.70516335968483,12.709588881524027],[70.71152652936297,12.728148250221063],[70.73317145365277,12.747997655365968],[70.76404231321824,12.760784925274857],[70.78379238979247,12.763614047125815],[71.11745122543918,12.696204055673462],[71.33402489059074,12.664591262167614],[71.51808494264743,12.604639777547451],[71.55996982020417,12.5838785293896],[71.57877412688536,12.568068805331535],[71.60483076329947,12.503622664324151],[71.6291710121493,12.286275289660407],[71.6612362425997,12.254358682142914],[71.67152137434742,12.232243353489128],[71.66966841337933,12.16015627952397],[71.65613705996293,12.06299806439461],[71.62968916834276,11.977522219686522],[71.58180851819233,11.911420015726582],[71.54085511946418,11.876748772792478],[71.54441117325322,11.833974788407362],[71.53749649382458,11.739673041645865],[71.5379732623272,11.674938076153662],[71.52118829014313,11.625542695091307],[71.4905741233008,11.587944189929711],[71.45694923578397,11.575765287667782],[71.42053434748286,11.585089358158157],[71.25169346661785,11.664468091926379],[71.2379565244948,11.676850352264632],[71.2213951223099,11.706242240325707],[71.20865863442961,11.714855625972152],[70.99160304055697,11.758546658635396],[70.95724371576341,11.771891661092278],[70.93763330392964,11.788051952511545],[70.9229657206174,11.813820912592117],[70.9046749017032,11.883315016143905],[70.8774170773171,11.945068173690228],[70.84232182768568,11.987942462030077],[70.83134053377826,12.0147194312935],[70.83949561077657,12.190769957876364],[70.83528237811535,12.294350891675997],[70.80458859486687,12.372355134367973],[70.77851692554637,12.420483395296037],[70.74690098681691,12.569376573972468]]]},"properties":{"kind":"expanded_corridor_for_veto","margin_km":5.0}}],"properties":{"physics":{"formula":"V_oil = V_current + V_tide + V_Stokes + alpha * V_wind10","current_source":"CMEMS SMOC (uo+utide, vo+vtide)","stokes_source":"CMEMS SMOC (vsdx, vsdy)","wind_source":"ERA5 10 m (u10, v10)","alpha":0.02,"alpha_range":[0.01,0.03],"current_scale_sd":0.15,"wind_rotation_sd_deg":10.0,"current_error_sd_ms":0.1,"diffusion_m2s":1.0,"time_step_s":900,"backward_members":10,"backward_particles":500,"forward_members":5,"max_age_h":72}}}