{"type":"FeatureCollection","features":[{"type":"Feature","geometry":{"type":"Polygon","coordinates":[[[71.34463077860812,11.486773762390925],[71.35564741270696,11.506528246624741],[71.36748273094335,11.510811079019243],[71.38641228382117,11.507908963138258],[71.45043658797348,11.477248428985108],[71.52807245879256,11.454631473881495],[71.59952010654874,11.441510941573519],[71.60731791702732,11.430402322237882],[71.60618948219117,11.419013364379598],[71.59895674564706,11.40634280890024],[71.54973236416376,11.400064666256004],[71.50450721551283,11.405103081791927],[71.46742638763214,11.414671409274762],[71.42058651722442,11.430994397291807],[71.34577621236419,11.474715701368316],[71.34463077860812,11.486773762390925]]]},"properties":{"kind":"forecast_envelope","hours":24,"active_fraction":1.0}},{"type":"Feature","geometry":{"type":"Polygon","coordinates":[[[71.41861699754656,11.501647908769131],[71.35978542874255,11.530794379032361],[71.35904792683668,11.536892603486946],[71.38529715050731,11.552874022280982],[71.41125313444817,11.55611158242638],[71.56298478962557,11.52996249528762],[71.74093354370046,11.547460270192966],[71.75031763891162,11.543699274828143],[71.75392443114781,11.536694865117857],[71.75264831720568,11.528018543386445],[71.73322884541717,11.517500755861192],[71.68423848921408,11.506884233060862],[71.58353905088387,11.493233668444574],[71.44933499829457,11.494516423030813],[71.41861699754656,11.501647908769131]]]},"properties":{"kind":"forecast_envelope","hours":48,"active_fraction":1.0}},{"type":"Feature","geometry":{"type":"Polygon","coordinates":[[[71.4925862928819,11.438386235935926],[71.48990615541511,11.448893608043125],[71.50407396600899,11.460892058334348],[71.56305887837601,11.471238374304937],[71.7933430306795,11.485491141920354],[71.94146680058107,11.539419415514308],[72.10835644664222,11.641750422274647],[72.1136371174533,11.640227912514582],[72.12438735217492,11.619186181505789],[72.12264200506014,11.614508725039927],[72.04415079412264,11.55753717450015],[72.01994367840436,11.543457374858349],[71.91971699614851,11.498097071264034],[71.8225112379697,11.464720833912184],[71.67102950639767,11.425958861241826],[71.60606868791578,11.419480141469776],[71.55756346067845,11.424366112402938],[71.4925862928819,11.438386235935926]]]},"properties":{"kind":"forecast_envelope","hours":72,"active_fraction":1.0}}],"properties":{"model":"OpenDrift OpenOil","oil_type":"GENERIC INTERMEDIATE FUEL OIL 180","hours":72,"coastal_impact":false,"stranded_elements":0,"elements":1500,"mass_budget_fraction":{"mass_oil":[1.0,0.9916999936103821,0.9861999750137329,0.9800000190734863,0.9732999801635742,0.9664000272750854,0.9589999914169312,0.9516000151634216,0.944100022315979,0.9362999796867371,0.9283000230789185,0.919700026512146,0.909500002861023,0.8984000086784363,0.8873999714851379,0.8773000240325928,0.8693000078201294,0.8628000020980835,0.857200026512146,0.8519999980926514,0.8474000096321106,0.8438000082969666,0.8411999940872192,0.8396999835968018,0.8373000025749207,0.8373000025749207,0.8371999859809875,0.8371999859809875,0.8371999859809875,0.8371999859809875,0.8371999859809875,0.8371999859809875,0.8371999859809875,0.8371999859809875,0.8371999859809875,0.8371999859809875,0.8371999859809875,0.8371999859809875,0.8371999859809875,0.8371999859809875,0.8371999859809875,0.8371999859809875,0.8371999859809875,0.8371999859809875,0.8371999859809875,0.8371999859809875,0.8371999859809875,0.8371999859809875,0.8371999859809875,0.8371999859809875,0.8371999859809875,0.8371999859809875,0.8371999859809875,0.8371999859809875,0.8371999859809875,0.8371999859809875,0.8371999859809875,0.8371999859809875,0.8371999859809875,0.8371999859809875,0.8371999859809875,0.8371999859809875,0.8371999859809875,0.8371999859809875,0.8371999859809875,0.8371999859809875,0.8371999859809875,0.8371999859809875,0.8371999859809875,0.8371999859809875,0.8371999859809875,0.8371999859809875],"mass_evaporated":[0.0,0.00839999970048666,0.013799999840557575,0.020099999383091927,0.02669999934732914,0.03370000049471855,0.04100000113248825,0.04839999973773956,0.05590000003576279,0.06360000371932983,0.07129999995231628,0.07909999787807465,0.08699999749660492,0.09480000287294388,0.10239999741315842,0.10939999669790268,0.11569999903440475,0.12139999866485596,0.1266999989748001,0.1316000074148178,0.13619999587535858,0.1396999955177307,0.14229999482631683,0.14390000700950623,0.14630000293254852,0.14630000293254852,0.14630000293254852,0.14630000293254852,0.14630000293254852,0.14630000293254852,0.14630000293254852,0.14630000293254852,0.14630000293254852,0.14630000293254852,0.14630000293254852,0.14630000293254852,0.14630000293254852,0.14630000293254852,0.14630000293254852,0.14630000293254852,0.14630000293254852,0.14630000293254852,0.14630000293254852,0.14630000293254852,0.14630000293254852,0.14630000293254852,0.14630000293254852,0.14630000293254852,0.14630000293254852,0.14630000293254852,0.14630000293254852,0.14630000293254852,0.14630000293254852,0.14630000293254852,0.14630000293254852,0.14630000293254852,0.14630000293254852,0.14630000293254852,0.14630000293254852,0.14630000293254852,0.14630000293254852,0.14630000293254852,0.14630000293254852,0.14630000293254852,0.14630000293254852,0.14630000293254852,0.14630000293254852,0.14630000293254852,0.14630000293254852,0.14630000293254852,0.14630000293254852,0.14630000293254852],"mass_dispersed":[0.0,0.0,0.0,0.0,0.0,0.0,0.0,0.0,0.0,9.999999747378752e-05,0.00039999998989515007,0.0013000000035390258,0.0035000001080334187,0.006800000090152025,0.010300000198185444,0.013399999588727951,0.014999999664723873,0.015799999237060547,0.016200000420212746,0.01640000008046627,0.016499999910593033,0.016499999910593033,0.016499999910593033,0.016499999910593033,0.016499999910593033,0.016499999910593033,0.016499999910593033,0.016499999910593033,0.016499999910593033,0.016499999910593033,0.016499999910593033,0.016499999910593033,0.016499999910593033,0.016499999910593033,0.016499999910593033,0.016499999910593033,0.016499999910593033,0.016499999910593033,0.016499999910593033,0.016499999910593033,0.016499999910593033,0.016499999910593033,0.016499999910593033,0.016499999910593033,0.016499999910593033,0.016499999910593033,0.016499999910593033,0.016499999910593033,0.016499999910593033,0.016499999910593033,0.016499999910593033,0.016499999910593033,0.016499999910593033,0.016499999910593033,0.016499999910593033,0.016499999910593033,0.016499999910593033,0.016499999910593033,0.016499999910593033,0.016499999910593033,0.016499999910593033,0.016499999910593033,0.016499999910593033,0.016499999910593033,0.016499999910593033,0.016499999910593033,0.016499999910593033,0.016499999910593033,0.016499999910593033,0.016499999910593033,0.016499999910593033,0.016499999910593033]}}}