{"type":"FeatureCollection","features":[{"type":"Feature","geometry":{"type":"Polygon","coordinates":[[[71.47663942796946,11.590411459640434],[71.47663942796946,11.592672388972826],[71.47203881929934,11.592672388972826],[71.47203881929934,11.594933318305218],[71.46973851496428,11.594933318305218],[71.46973851496428,11.597194247637612],[71.46053729762404,11.597194247637612],[71.46053729762404,11.599455176970004],[71.45593668895394,11.599455176970004],[71.45593668895394,11.601716106302398],[71.45363638461887,11.601716106302398],[71.45363638461887,11.60397703563479],[71.44443516727864,11.60397703563479],[71.44443516727864,11.606237964967182],[71.44213486294359,11.606237964967182],[71.44213486294359,11.608498894299576],[71.43983455860852,11.608498894299576],[71.43983455860852,11.610759823631968],[71.43523394993841,11.610759823631968],[71.43523394993841,11.613020752964362],[71.42603273259819,11.613020752964362],[71.42603273259819,11.615281682296754],[71.419131819593,11.615281682296754],[71.419131819593,11.617542611629146],[71.41683151525795,11.617542611629146],[71.41683151525795,11.61980354096154],[71.41453121092289,11.61980354096154],[71.41453121092289,11.622064470293932],[71.40763029791772,11.622064470293932],[71.40763029791772,11.624325399626326],[71.4030296892476,11.624325399626326],[71.4030296892476,11.626586328958718],[71.39382847190737,11.626586328958718],[71.39382847190737,11.62884725829111],[71.39152816757232,11.62884725829111],[71.39152816757232,11.631108187623504],[71.38232695023208,11.631108187623504],[71.38232695023208,11.633369116955896],[71.37772634156197,11.633369116955896],[71.37772634156197,11.63563004628829],[71.37542603722692,11.63563004628829],[71.37542603722692,11.637890975620682],[71.3708254285568,11.637890975620682],[71.3708254285568,11.640151904953074],[71.36622481988668,11.640151904953074],[71.36622481988668,11.642412834285468],[71.35702360254645,11.642412834285468],[71.35702360254645,11.64467376361786],[71.35242299387633,11.64467376361786],[71.35242299387633,11.646934692950254],[71.34782238520621,11.646934692950254],[71.34782238520621,11.649195622282646],[71.3432217765361,11.649195622282646],[71.3432217765361,11.651456551615038],[71.34092147220105,11.651456551615038],[71.34092147220105,11.653717480947432],[71.338621167866,11.653717480947432],[71.338621167866,11.655978410279824],[71.33402055919588,11.655978410279824],[71.33402055919588,11.658239339612217],[71.32251903752058,11.658239339612217],[71.32251903752058,11.66050026894461],[71.32021873318553,11.66050026894461],[71.32021873318553,11.662761198277002],[71.31331782018036,11.662761198277002],[71.31331782018036,11.665022127609395],[71.30871721151024,11.665022127609395],[71.30871721151024,11.667283056941788],[71.30411660284012,11.667283056941788],[71.30411660284012,11.669543986274181],[71.30181629850506,11.669543986274181],[71.30181629850506,11.671804915606574],[71.29491538549989,11.671804915606574],[71.29491538549989,11.674065844938966],[71.29031477682977,11.674065844938966],[71.29031477682977,11.67632677427136],[71.28801447249472,11.67632677427136],[71.28801447249472,11.678587703603752],[71.28571416815966,11.678587703603752],[71.28571416815966,11.680848632936144],[71.2834138638246,11.680848632936144],[71.2834138638246,11.683109562268537],[71.28111355948954,11.683109562268537],[71.28111355948954,11.696675138262894],[71.2834138638246,11.696675138262894],[71.2834138638246,11.698936067595287],[71.29491538549989,11.698936067595287],[71.29491538549989,11.696675138262894],[71.30411660284012,11.696675138262894],[71.30411660284012,11.694414208930501],[71.3110175158453,11.694414208930501],[71.3110175158453,11.69215327959811],[71.31791842885048,11.69215327959811],[71.31791842885048,11.689892350265715],[71.32021873318553,11.689892350265715],[71.32021873318553,11.687631420933323],[71.32251903752058,11.687631420933323],[71.32251903752058,11.68537049160093],[71.3271196461907,11.68537049160093],[71.3271196461907,11.683109562268537],[71.33402055919588,11.683109562268537],[71.33402055919588,11.680848632936144],[71.34092147220105,11.680848632936144],[71.34092147220105,11.678587703603752],[71.34552208087116,11.678587703603752],[71.34552208087116,11.67632677427136],[71.34782238520621,11.67632677427136],[71.34782238520621,11.674065844938966],[71.35012268954128,11.674065844938966],[71.35012268954128,11.671804915606574],[71.36622481988668,11.671804915606574],[71.36622481988668,11.669543986274181],[71.36852512422173,11.669543986274181],[71.36852512422173,11.667283056941788],[71.36622481988668,11.667283056941788],[71.36622481988668,11.665022127609395],[71.36852512422173,11.665022127609395],[71.36852512422173,11.662761198277002],[71.3708254285568,11.662761198277002],[71.3708254285568,11.665022127609395],[71.37542603722692,11.665022127609395],[71.37542603722692,11.662761198277002],[71.37772634156197,11.662761198277002],[71.37772634156197,11.66050026894461],[71.38232695023208,11.66050026894461],[71.38232695023208,11.658239339612217],[71.3869275589022,11.658239339612217],[71.3869275589022,11.655978410279824],[71.38922786323725,11.655978410279824],[71.38922786323725,11.658239339612217],[71.39382847190737,11.658239339612217],[71.39382847190737,11.655978410279824],[71.39612877624243,11.655978410279824],[71.39612877624243,11.653717480947432],[71.39842908057749,11.653717480947432],[71.39842908057749,11.651456551615038],[71.40072938491255,11.651456551615038],[71.40072938491255,11.649195622282646],[71.40993060225279,11.649195622282646],[71.40993060225279,11.646934692950254],[71.41683151525795,11.646934692950254],[71.41683151525795,11.64467376361786],[71.42373242826312,11.64467376361786],[71.42373242826312,11.642412834285468],[71.42833303693324,11.642412834285468],[71.42833303693324,11.640151904953074],[71.4306333412683,11.640151904953074],[71.4306333412683,11.637890975620682],[71.43753425427347,11.637890975620682],[71.43753425427347,11.63563004628829],[71.44443516727864,11.63563004628829],[71.44443516727864,11.633369116955896],[71.44903577594876,11.633369116955896],[71.44903577594876,11.631108187623504],[71.45133608028382,11.631108187623504],[71.45133608028382,11.62884725829111],[71.46053729762404,11.62884725829111],[71.46053729762404,11.626586328958718],[71.46283760195911,11.626586328958718],[71.46283760195911,11.624325399626326],[71.46513790629416,11.624325399626326],[71.46513790629416,11.622064470293932],[71.4743391236344,11.622064470293932],[71.4743391236344,11.61980354096154],[71.48124003663956,11.61980354096154],[71.48124003663956,11.617542611629146],[71.48584064530968,11.617542611629146],[71.48584064530968,11.615281682296754],[71.48814094964474,11.615281682296754],[71.48814094964474,11.613020752964362],[71.4904412539798,11.613020752964362],[71.4904412539798,11.608498894299576],[71.49274155831486,11.608498894299576],[71.49274155831486,11.606237964967182],[71.49504186264991,11.606237964967182],[71.49504186264991,11.601716106302398],[71.49734216698498,11.601716106302398],[71.49734216698498,11.597194247637612],[71.49504186264991,11.597194247637612],[71.49504186264991,11.594933318305218],[71.49274155831486,11.594933318305218],[71.49274155831486,11.592672388972826],[71.4904412539798,11.592672388972826],[71.4904412539798,11.590411459640434],[71.47663942796946,11.590411459640434]]]},"properties":{"area_km2":67.904,"perimeter_km":72.65,"length_km":26.01,"mean_width_km":2.61,"elongation":10.0,"compactness":0.1617,"components":1,"orientation_deg":114.6,"centroid":[71.38894,11.64443],"taper":"undetermined","end_width_ratio":0.94,"edge_truncated":false,"wind_speed_ms":1.1,"wind_reliability":0.36,"age_prior_h":{"min":5,"max":72,"label":"weak prior","spreading_min_h":5.9},"shape_indicator":"elongated, few parts: consistent with a moving vessel","simulated":true,"source":"Simulated with truth physics (synthetic scenario)"}}]}