{"type":"FeatureCollection","features":[{"type":"Feature","geometry":{"type":"Polygon","coordinates":[[[72.44458463774457,19.479957690957754],[72.44235814014863,19.66554617820731],[72.44725038493915,19.670117835766877],[72.45455712804505,19.668758264601927],[72.46637403821316,19.658188153409757],[72.48207948672257,19.615135833897103],[72.48628436795727,19.585676363446368],[72.4870158960522,19.544108127048784],[72.47696841391551,19.38067106414021],[72.47594041326506,19.277913702850924],[72.52143813272393,19.105387255630717],[72.52101675337067,19.085189056027946],[72.51570320488821,19.08095919573142],[72.48693732195103,19.079311951548632],[72.47118471640688,19.098284342703366],[72.44714449423891,19.25650653953374],[72.44236163553884,19.316354155236663],[72.44458463774457,19.479957690957754]]]},"properties":{"kind":"age","age_h":1,"in_age_prior":false}},{"type":"Feature","geometry":{"type":"Polygon","coordinates":[[[72.44405101851217,19.56325937876981],[72.44333555517568,19.704001329581015],[72.44759486457389,19.705694931336264],[72.45939071377558,19.703223546704386],[72.46924581216459,19.696123068499517],[72.48144210187209,19.67149135850152],[72.49283726453912,19.616856780381596],[72.49428355651521,19.576874807819703],[72.48218680371906,19.351609658580497],[72.48343086341919,19.292893812317082],[72.52808913842827,19.132032299390552],[72.5245023089028,19.10809784630172],[72.51910562156242,19.102786373638555],[72.51045556616747,19.101281535107795],[72.48431088492138,19.100383810823207],[72.47316719229329,19.112339860427383],[72.44620158769546,19.298166556775687],[72.44246466698304,19.34753506663615],[72.44405101851217,19.56325937876981]]]},"properties":{"kind":"age","age_h":2,"in_age_prior":false}},{"type":"Feature","geometry":{"type":"Polygon","coordinates":[[[72.44324972366472,19.546562785134878],[72.43910119944141,19.728194174612884],[72.44568527254442,19.73467557504913],[72.46214635027069,19.73160317256088],[72.47352728433003,19.72420367813925],[72.48622007654994,19.69735498419932],[72.49376314462332,19.67068543300019],[72.49949480647929,19.600759477302038],[72.49057745522694,19.392664122116372],[72.49124274341001,19.31872074542084],[72.54206433430144,19.13402654540264],[72.54011562755622,19.129416128035984],[72.53090438221662,19.126389270687824],[72.48553936847739,19.12160857804711],[72.47602308410889,19.129009767469455],[72.4500375449424,19.297275788815703],[72.44099341907648,19.37943929831324],[72.44324972366472,19.546562785134878]]]},"properties":{"kind":"age","age_h":3,"in_age_prior":true}},{"type":"Feature","geometry":{"type":"Polygon","coordinates":[[[72.41524012509785,19.737288560621828],[72.41840615678161,19.742552279617172],[72.43130663902188,19.742183465900382],[72.47745429022656,19.721552567055838],[72.4909462050717,19.704155691416986],[72.49982193300293,19.675244016485333],[72.50555848541865,19.611559140611305],[72.49823841920536,19.414499028170745],[72.49984462708721,19.346840351723337],[72.5516501646925,19.19650222930154],[72.55640521210539,19.17078934917469],[72.54302847100591,19.16300238756315],[72.49447239360687,19.15581728933291],[72.48258979212217,19.162961624402563],[72.46385998800054,19.20611500929739],[72.44072482984018,19.30814602627453],[72.42106845649782,19.41258318488613],[72.42436516208062,19.544265844693275],[72.41524012509785,19.737288560621828]]]},"properties":{"kind":"age","age_h":6,"in_age_prior":true}},{"type":"Feature","geometry":{"type":"Polygon","coordinates":[[[72.37999335705075,19.570752523033278],[72.37153962105897,19.693988365663586],[72.37986069925229,19.6974922156949],[72.42888509906466,19.69826631550088],[72.44281334089396,19.69363889819966],[72.47486477299584,19.651317774771663],[72.4852646816054,19.625542134143235],[72.49415670459443,19.554674644766546],[72.48881474871952,19.452584544480395],[72.48213566761497,19.393540204000068],[72.48169155440367,19.35400848299412],[72.4939419274561,19.25731804285942],[72.53775245558857,19.17675741053202],[72.54679506460054,19.153943899121476],[72.54403335881553,19.14953797229572],[72.51434297723488,19.13928813133028],[72.48143652363733,19.133126981671403],[72.45631873180547,19.135109759052266],[72.4495353235354,19.142136992999838],[72.42345509709232,19.187670271519323],[72.37716340030653,19.37697828242078],[72.38254773600073,19.491308291604806],[72.37999335705075,19.570752523033278]]]},"properties":{"kind":"age","age_h":9,"in_age_prior":true}},{"type":"Feature","geometry":{"type":"Polygon","coordinates":[[[72.34522037996354,19.512718665986345],[72.34902831146115,19.720852672330153],[72.3541302675297,19.723899580104913],[72.41151094379923,19.72654313833174],[72.42501608823098,19.7208887224553],[72.4536350337146,19.688999832654925],[72.46555058484225,19.66882420703123],[72.47616718669882,19.6390436706052],[72.4815799447165,19.567194245522938],[72.46385357799176,19.348059343356997],[72.52631553870206,19.153738165407127],[72.52421043905348,19.142118803116155],[72.51571072105591,19.137531040895457],[72.47550396355814,19.12724683778257],[72.42426280553791,19.122682905566023],[72.38540428453432,19.191884721983445],[72.33882873488632,19.388030011880616],[72.34522037996354,19.512718665986345]]]},"properties":{"kind":"age","age_h":12,"in_age_prior":true}},{"type":"Feature","geometry":{"type":"Polygon","coordinates":[[[72.33474703748577,19.50849283652198],[72.33529503851747,19.824497723115176],[72.33830161830679,19.8286358996077],[72.3492799390679,19.831260812680107],[72.41430695626984,19.81677606189273],[72.48434807394966,19.780268834622184],[72.50396891526027,19.732875991258602],[72.51628744882375,19.657226937348586],[72.51169158114722,19.54013664381257],[72.50096987401183,19.472079062428445],[72.5121517881416,19.353643328169376],[72.54260760595459,19.28454552086566],[72.5529583549262,19.26735891481695],[72.56091166005383,19.235013142431434],[72.5507424362986,19.224686745076475],[72.47454869264253,19.20147002567994],[72.44205162917937,19.197422192797532],[72.4191289597421,19.1972181654349],[72.40752730685283,19.209550514735795],[72.37015805146447,19.324176795930473],[72.33474703748577,19.50849283652198]]]},"properties":{"kind":"age","age_h":18,"in_age_prior":true}},{"type":"Feature","geometry":{"type":"Polygon","coordinates":[[[72.26660736396707,19.74854250335452],[72.27068069636125,19.797787508823202],[72.27320991799817,19.801433327923565],[72.28349389498196,19.806282938854554],[72.40863465266906,19.823558189856776],[72.51475847015256,19.754162776378724],[72.54449641670224,19.702516905632095],[72.55284850999367,19.674915029781506],[72.55959702706022,19.631520496008854],[72.53991071337697,19.52135971085797],[72.51817684734044,19.44703110593367],[72.5141155563721,19.38681036039624],[72.57374641811717,19.255151101624982],[72.58258250821665,19.222847168897776],[72.57171583322643,19.20860289575052],[72.52304278259952,19.179480912650583],[72.43529224220256,19.161266298576482],[72.404658122877,19.162946796390354],[72.36419064352079,19.17214352521069],[72.32846594652563,19.27151394345391],[72.3018565849464,19.330762759152787],[72.2607824926684,19.520257246796792],[72.26781112259617,19.640242331386418],[72.26660736396707,19.74854250335452]]]},"properties":{"kind":"age","age_h":24,"in_age_prior":true}},{"type":"Feature","geometry":{"type":"Polygon","coordinates":[[[72.15234492280516,19.786922606236338],[72.17517288121932,19.820108397067813],[72.18300869135324,19.820969059326945],[72.1920401879027,19.81605821381822],[72.346807693589,19.788137828163507],[72.38703050229289,19.88585960026636],[72.39156691241497,19.888503015729096],[72.40459571566049,19.885492596200216],[72.42500890120837,19.874985135950524],[72.45585274056162,19.845015455009413],[72.60325106589643,19.822739353263824],[72.62280884175772,19.822835275311668],[72.65276708389536,19.79962044342775],[72.6747854108655,19.774914445462457],[72.68771267663006,19.71278760841401],[72.6670164859906,19.647627266542088],[72.61639632505715,19.574636615590922],[72.62915656118156,19.406573831180307],[72.64351980049094,19.39354611564578],[72.65783778017415,19.368008078307593],[72.65219235232422,19.283779057811206],[72.64519297848983,19.275957419312803],[72.61941333695252,19.25885627686887],[72.51078776197123,19.26172391686152],[72.43082266561713,19.204131326400475],[72.40055983818685,19.193420705703822],[72.38624795054022,19.192621667069517],[72.31822891101851,19.22167226363372],[72.27017655032668,19.28639701278542],[72.22501427725122,19.39616040068422],[72.18080956533716,19.55252484556958],[72.15234492280516,19.786922606236338]]]},"properties":{"kind":"age","age_h":36,"in_age_prior":true}},{"type":"Feature","geometry":{"type":"Polygon","coordinates":[[[72.3130572981521,19.540370447448183],[72.2476764478873,19.906993680236855],[72.2619395294359,19.92147103981863],[72.47310075500046,19.982846580658563],[72.48586194789266,19.98414856566311],[72.50988829559245,19.9806677728109],[72.67522111035841,19.928422401776675],[72.682921996913,19.91806312716479],[72.7196598412716,19.691283930558388],[72.72411146256322,19.524504197783273],[72.74597416008616,19.374083414649437],[72.72940439891046,19.35914532657027],[72.57263324628988,19.37974233161323],[72.479786702138,19.262510420070303],[72.4655869351091,19.261069535048765],[72.351279323458,19.303506434627653],[72.32837340163384,19.322546822474123],[72.3130572981521,19.540370447448183]]]},"properties":{"kind":"age","age_h":48,"in_age_prior":true}},{"type":"Feature","geometry":{"type":"Polygon","coordinates":[[[72.21724132859012,20.01028753166229],[72.22514915392527,20.032879039272345],[72.4871743691859,20.106872886711436],[72.51583844304055,20.10053269712577],[72.72531985826609,19.986353301170446],[72.71622742178302,19.73973231237571],[72.78423287725306,19.509148305107193],[72.76291451367688,19.414799615939927],[72.75465666262234,19.415508823339916],[72.72857815479037,19.450552139089833],[72.59197835238743,19.487382922344768],[72.50139876940877,19.31783523411784],[72.48855216403395,19.31103513869888],[72.47217223139741,19.306563622863273],[72.32947644134093,19.334675346389012],[72.27680157725281,19.373006317851736],[72.29333435453135,19.44848532471362],[72.30027734610651,19.499399350661708],[72.24598628255208,19.710412349014934],[72.21724132859012,20.01028753166229]]]},"properties":{"kind":"age","age_h":60,"in_age_prior":true}},{"type":"Feature","geometry":{"type":"Polygon","coordinates":[[[72.1333174152401,19.943338418265007],[72.15874236857154,20.05166240940655],[72.17812912924006,20.06665736547116],[72.19042035487651,20.06979583462538],[72.19323614441737,20.066026413852637],[72.19296432602665,20.023296978292873],[72.39115842204967,19.906718881686224],[72.4026451276052,19.914011203728336],[72.49021534342154,19.997450442807025],[72.50018867789183,20.080100886896872],[72.48239687037177,20.142322576320627],[72.48727257734339,20.14746724058702],[72.55788978456503,20.12492607456705],[72.72530275533454,19.986370539152638],[72.69725292222397,19.803016100449884],[72.71612628981599,19.73999738973714],[72.71992568107571,19.693477097189575],[72.79073907909142,19.51664196524946],[72.7910099464771,19.50435356153808],[72.76204552897828,19.37338130159581],[72.75431979834836,19.37474189408185],[72.72767236361761,19.451051844851015],[72.58680147215114,19.504799151387477],[72.49714829311816,19.325873899380664],[72.48632508542919,19.31816580868286],[72.35133444395228,19.25302333781543],[72.3128148897792,19.261730636609823],[72.24663150294012,19.33956900680298],[72.2529388566546,19.455735876248756],[72.26196085584793,19.516047639911157],[72.26254094087726,19.54017374103071],[72.16997718291834,19.74319248589073],[72.1626944949804,19.750691666537865],[72.12994078855846,19.90998772069149],[72.1333174152401,19.943338418265007]]]},"properties":{"kind":"age","age_h":72,"in_age_prior":true}},{"type":"Feature","geometry":{"type":"Polygon","coordinates":[[[72.51803163977635,19.124300542397734],[72.43496706882567,19.119875237685864],[72.42383360307363,19.122876989541542],[72.40223531998399,19.160833685503974],[72.3723133704423,19.16653946749361],[72.36439869726205,19.1717572328132],[72.35793717718576,19.18948474281731],[72.338501754641,19.190718302515535],[72.26939884241351,19.286769429528906],[72.22379786706763,19.386158487921243],[72.17692059468854,19.541116513793085],[72.16247045904018,19.667784503781764],[72.14387648308396,19.776310381742757],[72.15420853189718,19.79187921624558],[72.12991886820038,19.910425191378707],[72.1333174152401,19.943338418265007],[72.15830299938546,20.050941011259468],[72.18982905855495,20.075833993050626],[72.19241901294325,20.0842889001838],[72.20767598892772,20.094268124454842],[72.20946469031345,20.101384336506197],[72.22215470750797,20.117927595252468],[72.22694158954768,20.119562304136952],[72.23158992324636,20.13885011632682],[72.23868131174399,20.151463273293423],[72.2487525619639,20.16041159128912],[72.2668262238294,20.16674247488831],[72.27363223437693,20.16445388236031],[72.27781681171132,20.159729151391666],[72.28195262606607,20.117608666266275],[72.37091239222312,20.074226722739574],[72.4720669623603,20.102824861148722],[72.48313569212749,20.13287610161674],[72.47991586652367,20.14785071194799],[72.48538126685352,20.15259842518606],[72.48270250520294,20.161758170465998],[72.49352562306416,20.16487407813651],[72.48849406598792,20.178901887316194],[72.49178828353699,20.181921371905723],[72.49993713689261,20.181855259061926],[72.49619096822902,20.196851488778673],[72.50191587560306,20.20081448729704],[72.50377861982537,20.212055714605473],[72.51317715089542,20.216263754024936],[72.54223146771437,20.2099025376414],[72.5810878414827,20.186799808000515],[72.67405681256221,20.043405172035236],[72.72630953519614,19.984834993191132],[72.71622742178302,19.73973231237571],[72.75765053195089,19.5994394034939],[72.79057574201052,19.517338354951416],[72.79109818531877,19.50499554934214],[72.76235532201932,19.373706646507845],[72.75735546032861,19.3722280891654],[72.75383309251555,19.376069260461737],[72.73037147418638,19.359176515231912],[72.69827284375118,19.363981937874442],[72.66303647371353,19.34695257507873],[72.65172787919992,19.282457143726425],[72.6396445322064,19.26978320567974],[72.62271876833813,19.25935468106604],[72.59174102203987,19.25882769869288],[72.5879022636253,19.2542552141185],[72.59060106005252,19.243515784370533],[72.58088285325964,19.230860724968785],[72.582525937855,19.222406221292047],[72.57822031985705,19.212330996507276],[72.56654532900114,19.19923891858892],[72.55256102731043,19.191953000522357],[72.55640521210539,19.17078934917469],[72.54902907318662,19.158482121138846],[72.54890893964478,19.151600312648988],[72.53925288648895,19.147209384142347],[72.54112236306054,19.130312016227265],[72.51803163977635,19.124300542397734]]]},"properties":{"kind":"release_corridor","age_prior_h":{"min":3,"max":72,"label":"weak prior","spreading_min_h":0.6}}},{"type":"Feature","geometry":{"type":"Polygon","coordinates":[[[72.10360819996605,19.80202912738681],[72.08236365335529,19.91265546090244],[72.08657816912222,19.951962276197655],[72.11256327924016,20.063645052241334],[72.12434079657295,20.082982501134193],[72.16771473347744,20.123122883441226],[72.20375305876708,20.182277567322352],[72.24129823218675,20.20771312676827],[72.27480337354777,20.21157801497813],[72.3000018244305,20.20210619955103],[72.32069354316772,20.17969808933734],[72.32718917618784,20.146380184090177],[72.3756527053641,20.12274655535381],[72.43296788631858,20.138950543721894],[72.43318708741936,20.157188389103247],[72.44396068718525,20.1949071922516],[72.45939654377159,20.22965644247368],[72.47729019054817,20.249799130377845],[72.5118529991402,20.261467023623972],[72.55900862059035,20.252220945391052],[72.61794357930638,20.21543118748699],[72.71267479650137,20.070087558265087],[72.76638475969445,20.00943196604687],[72.77421871844282,19.98285159792093],[72.76410642957087,19.745051908210545],[72.80291248999578,19.613622494117994],[72.8382894495031,19.519190747756166],[72.83793326237071,19.496672956983797],[72.8099884321628,19.366620742932152],[72.80059824171207,19.34676954114806],[72.78153867902495,19.331828931567408],[72.73968204673014,19.31482850975296],[72.70759920051296,19.316791467315365],[72.69260098906224,19.25925931807216],[72.66229523016557,19.229196916568327],[72.62934296769927,19.21447193123806],[72.618667684071,19.188474157275838],[72.6040669151141,19.17122579571477],[72.58489892488296,19.112188035862555],[72.56536836432444,19.091081420269614],[72.54276520705153,19.082596169005036],[72.49917385350854,19.077002055128066],[72.43238821930555,19.074720932134664],[72.40336476434423,19.082050162682282],[72.38680238836905,19.093975084528974],[72.37053889346794,19.120599043389046],[72.34221705291371,19.131004657273564],[72.30362779647449,19.159932237083673],[72.22909832280895,19.26268571619542],[72.17865750531115,19.37176065295627],[72.13108765848617,19.528867299142476],[72.11528472221214,19.661633674381353],[72.09657706764345,19.771127846721015],[72.10360819996605,19.80202912738681]]]},"properties":{"kind":"expanded_corridor_for_veto","margin_km":5.0}}],"properties":{"physics":{"formula":"V_oil = V_current + V_tide + V_Stokes + alpha * V_wind10","current_source":"CMEMS SMOC (uo+utide, vo+vtide)","stokes_source":"CMEMS SMOC (vsdx, vsdy)","wind_source":"ERA5 10 m (u10, v10)","alpha":0.02,"alpha_range":[0.01,0.03],"current_scale_sd":0.15,"wind_rotation_sd_deg":10.0,"current_error_sd_ms":0.1,"diffusion_m2s":1.0,"time_step_s":900,"backward_members":10,"backward_particles":500,"forward_members":5,"max_age_h":72}}}