{"type":"FeatureCollection","features":[{"type":"Feature","geometry":{"type":"Polygon","coordinates":[[[72.54058704092581,19.522801433263158],[72.54451606379565,19.539000594246037],[72.54824343420768,19.542008379917704],[72.56100230263444,19.535482729865546],[72.56675882508169,19.52793015044993],[72.57832662138982,19.47039812810556],[72.5846609148548,19.40647508560394],[72.58799059551164,19.28019256087308],[72.57703729641113,19.18843360554052],[72.56623871112318,19.138526094449034],[72.5632355656197,19.039952376964667],[72.58504304615384,18.966811327053232],[72.57031063640866,18.941174970107237],[72.56057121643575,18.938613453267592],[72.54435698774388,18.944792743759322],[72.53280159050283,18.967518186651034],[72.54280168871941,19.026727271254348],[72.53305124451455,19.16644070530388],[72.54960877989741,19.298663090161675],[72.54058704092581,19.522801433263158]]]},"properties":{"kind":"forecast_envelope","hours":24,"active_fraction":1.0}},{"type":"Feature","geometry":{"type":"Polygon","coordinates":[[[72.56942312493402,19.479284028362837],[72.58087971018944,19.49692798956996],[72.58647994447297,19.498237457276804],[72.59777584844532,19.489024060622153],[72.60863457248526,19.461723728365538],[72.62923361671285,19.369264237831455],[72.64227988136129,19.242665887025453],[72.63590031665451,19.11582618927814],[72.61632582234446,19.051598563818697],[72.61784537912224,18.94292757172533],[72.63176362149957,18.858261031254987],[72.62267423836633,18.837385980068415],[72.61047764382707,18.831605922939048],[72.59671749837116,18.833817101045685],[72.5848933864051,18.855184611415968],[72.58864761908558,18.91600221442382],[72.57812745339024,19.05449547656012],[72.59114893953651,19.224656253901994],[72.58336687896917,19.283250302769662],[72.57424666008477,19.415314419199227],[72.56778796543044,19.457939759974266],[72.56942312493402,19.479284028362837]]]},"properties":{"kind":"forecast_envelope","hours":48,"active_fraction":1.0}},{"type":"Feature","geometry":{"type":"Polygon","coordinates":[[[72.559340087817,19.426139134315264],[72.5635847790794,19.452014375174976],[72.57818494681642,19.461448379415494],[72.58593565151502,19.460278860172025],[72.59678422312008,19.427580839250837],[72.61958094243094,19.33115395894421],[72.63907796256068,19.189163248053077],[72.63579996213389,19.097967629369375],[72.61897611939315,19.042677666534786],[72.60192208502254,18.87392392336053],[72.61426973035447,18.79064866149789],[72.60775543631243,18.764405389667747],[72.57984173130363,18.759608634249396],[72.56636969644062,18.764290765108562],[72.55761530920412,18.77958565497311],[72.56527205607144,18.84959418804136],[72.55582591034265,18.979269558656572],[72.55705510149708,19.006515254571436],[72.57095025612851,19.05660208198665],[72.58875686434168,19.181728023054923],[72.58412528407554,19.239754994526162],[72.559340087817,19.426139134315264]]]},"properties":{"kind":"forecast_envelope","hours":72,"active_fraction":1.0}}],"properties":{"model":"OpenDrift OpenOil","oil_type":"GENERIC INTERMEDIATE FUEL OIL 180","hours":72,"coastal_impact":false,"stranded_elements":0,"elements":1500,"mass_budget_fraction":{"mass_oil":[1.0,0.9909999966621399,0.9865000247955322,0.9818000197410583,0.9761999845504761,0.9700999855995178,0.9634000062942505,0.9560999870300293,0.9484999775886536,0.9406999945640564,0.9330999851226807,0.9257000088691711,0.9187999963760376,0.9125000238418579,0.9068999886512756,0.9020000100135803,0.8977000117301941,0.8934999704360962,0.8895999789237976,0.8859000205993652,0.8823000192642212,0.8787000179290771,0.8748999834060669,0.8712999820709229,0.8680999875068665,0.8680999875068665,0.8680999875068665,0.8680999875068665,0.8680999875068665,0.8680999875068665,0.8680999875068665,0.8680999875068665,0.8680999875068665,0.8680999875068665,0.8680999875068665,0.8680999875068665,0.8679999709129333,0.8679999709129333,0.8679999709129333,0.8679999709129333,0.8679999709129333,0.8679999709129333,0.8679999709129333,0.8679999709129333,0.8679999709129333,0.8679999709129333,0.8679999709129333,0.8679999709129333,0.8679999709129333,0.8679999709129333,0.8679999709129333,0.8679999709129333,0.8679999709129333,0.8679999709129333,0.8679999709129333,0.8679999709129333,0.8679999709129333,0.8679999709129333,0.8679999709129333,0.8679999709129333,0.8679999709129333,0.8679999709129333,0.8679999709129333,0.8679999709129333,0.8679999709129333,0.8679999709129333,0.8679999709129333,0.8679999709129333,0.8679999709129333,0.8679999709129333,0.8679999709129333,0.8679999709129333,0.8679999709129333],"mass_evaporated":[0.0,0.008999999612569809,0.013500000350177288,0.018300000578165054,0.023800000548362732,0.029899999499320984,0.03660000115633011,0.04390000179409981,0.051500000059604645,0.059300001710653305,0.06679999828338623,0.07410000264644623,0.08100000023841858,0.08730000257492065,0.09279999881982803,0.09769999980926514,0.10209999978542328,0.10620000213384628,0.11020000278949738,0.11389999836683273,0.11749999970197678,0.12110000103712082,0.12489999830722809,0.12849999964237213,0.13169999420642853,0.13169999420642853,0.13169999420642853,0.13169999420642853,0.13169999420642853,0.13169999420642853,0.13169999420642853,0.13169999420642853,0.13169999420642853,0.13169999420642853,0.13169999420642853,0.13169999420642853,0.13169999420642853,0.13169999420642853,0.13169999420642853,0.13169999420642853,0.13169999420642853,0.13169999420642853,0.13169999420642853,0.13169999420642853,0.13169999420642853,0.13169999420642853,0.13169999420642853,0.13169999420642853,0.13169999420642853,0.13169999420642853,0.13169999420642853,0.13169999420642853,0.13169999420642853,0.13169999420642853,0.13169999420642853,0.13169999420642853,0.13169999420642853,0.13169999420642853,0.13169999420642853,0.13169999420642853,0.13169999420642853,0.13169999420642853,0.13169999420642853,0.13169999420642853,0.13169999420642853,0.13169999420642853,0.13169999420642853,0.13169999420642853,0.13169999420642853,0.13169999420642853,0.13169999420642853,0.13169999420642853,0.13169999420642853],"mass_dispersed":[0.0,0.0,0.0,0.0,0.0,0.0,0.0,0.0,0.0,9.999999747378752e-05,9.999999747378752e-05,0.00019999999494757503,0.00019999999494757503,0.00019999999494757503,0.00019999999494757503,0.00019999999494757503,0.00019999999494757503,0.00019999999494757503,0.00019999999494757503,0.00019999999494757503,0.00019999999494757503,0.00019999999494757503,0.00019999999494757503,0.00019999999494757503,0.00019999999494757503,0.00019999999494757503,0.00019999999494757503,0.00019999999494757503,0.00019999999494757503,0.00019999999494757503,0.00019999999494757503,0.00019999999494757503,0.00019999999494757503,0.00019999999494757503,0.00019999999494757503,0.0003000000142492354,0.0003000000142492354,0.0003000000142492354,0.0003000000142492354,0.0003000000142492354,0.0003000000142492354,0.0003000000142492354,0.0003000000142492354,0.0003000000142492354,0.0003000000142492354,0.0003000000142492354,0.0003000000142492354,0.0003000000142492354,0.0003000000142492354,0.0003000000142492354,0.0003000000142492354,0.0003000000142492354,0.0003000000142492354,0.0003000000142492354,0.0003000000142492354,0.0003000000142492354,0.0003000000142492354,0.0003000000142492354,0.0003000000142492354,0.0003000000142492354,0.00039999998989515007,0.00039999998989515007,0.00039999998989515007,0.00039999998989515007,0.00039999998989515007,0.00039999998989515007,0.00039999998989515007,0.00039999998989515007,0.00039999998989515007,0.00039999998989515007,0.00039999998989515007,0.00039999998989515007,0.00039999998989515007]}}}