{"type":"FeatureCollection","features":[{"type":"Feature","geometry":{"type":"Point","coordinates":[72.00446,19.66993]},"properties":{"peak_db":2.6,"area_px":9,"approx_length_m":126,"platform":false}},{"type":"Feature","geometry":{"type":"Point","coordinates":[71.68045,19.70533]},"properties":{"peak_db":2.6,"area_px":2,"approx_length_m":59,"platform":false}},{"type":"Feature","geometry":{"type":"Point","coordinates":[71.68206,19.70386]},"properties":{"peak_db":9.8,"area_px":22,"approx_length_m":197,"platform":false}},{"type":"Feature","geometry":{"type":"Point","coordinates":[72.74511,19.49874]},"properties":{"peak_db":-7.3,"area_px":1,"approx_length_m":42,"platform":false}},{"type":"Feature","geometry":{"type":"Point","coordinates":[72.72433,19.49522]},"properties":{"peak_db":-5.8,"area_px":1,"approx_length_m":42,"platform":false}},{"type":"Feature","geometry":{"type":"Point","coordinates":[72.72481,19.49471]},"properties":{"peak_db":-4.2,"area_px":6,"approx_length_m":103,"platform":false}},{"type":"Feature","geometry":{"type":"Point","coordinates":[72.72551,19.49388]},"properties":{"peak_db":-7.0,"area_px":1,"approx_length_m":42,"platform":false}},{"type":"Feature","geometry":{"type":"Point","coordinates":[72.72574,19.49356]},"properties":{"peak_db":-7.2,"area_px":1,"approx_length_m":42,"platform":false}},{"type":"Feature","geometry":{"type":"Point","coordinates":[72.72636,19.49232]},"properties":{"peak_db":-7.3,"area_px":1,"approx_length_m":42,"platform":false}},{"type":"Feature","geometry":{"type":"Point","coordinates":[71.83529,19.61706]},"properties":{"peak_db":6.4,"area_px":20,"approx_length_m":188,"platform":false}},{"type":"Feature","geometry":{"type":"Point","coordinates":[71.98272,19.57938]},"properties":{"peak_db":1.9,"area_px":8,"approx_length_m":119,"platform":false}},{"type":"Feature","geometry":{"type":"Point","coordinates":[72.44983,19.45653]},"properties":{"peak_db":14.0,"area_px":23,"approx_length_m":201,"platform":false}},{"type":"Feature","geometry":{"type":"Point","coordinates":[72.74874,19.39089]},"properties":{"peak_db":-6.6,"area_px":1,"approx_length_m":42,"platform":false}},{"type":"Feature","geometry":{"type":"Point","coordinates":[72.07793,19.5104]},"properties":{"peak_db":-7.5,"area_px":1,"approx_length_m":42,"platform":false}},{"type":"Feature","geometry":{"type":"Point","coordinates":[72.74791,19.36851]},"properties":{"peak_db":-2.5,"area_px":4,"approx_length_m":84,"platform":false}},{"type":"Feature","geometry":{"type":"Point","coordinates":[72.75549,19.36104]},"properties":{"peak_db":-8.0,"area_px":1,"approx_length_m":42,"platform":false}},{"type":"Feature","geometry":{"type":"Point","coordinates":[72.06695,19.48435]},"properties":{"peak_db":-7.6,"area_px":1,"approx_length_m":42,"platform":false}},{"type":"Feature","geometry":{"type":"Point","coordinates":[71.70569,19.53767]},"properties":{"peak_db":8.3,"area_px":21,"approx_length_m":192,"platform":false}},{"type":"Feature","geometry":{"type":"Point","coordinates":[72.7539,19.34435]},"properties":{"peak_db":-2.3,"area_px":42,"approx_length_m":272,"platform":false}},{"type":"Feature","geometry":{"type":"Point","coordinates":[72.75499,19.34428]},"properties":{"peak_db":-5.5,"area_px":1,"approx_length_m":42,"platform":false}},{"type":"Feature","geometry":{"type":"Point","coordinates":[72.75466,19.34266]},"properties":{"peak_db":-4.9,"area_px":1,"approx_length_m":42,"platform":false}},{"type":"Feature","geometry":{"type":"Point","coordinates":[72.00545,19.47426]},"properties":{"peak_db":-6.1,"area_px":2,"approx_length_m":59,"platform":false}},{"type":"Feature","geometry":{"type":"Point","coordinates":[72.7626,19.3371]},"properties":{"peak_db":-4.4,"area_px":6,"approx_length_m":103,"platform":false}},{"type":"Feature","geometry":{"type":"Point","coordinates":[72.76164,19.3376]},"properties":{"peak_db":-4.6,"area_px":6,"approx_length_m":103,"platform":false}},{"type":"Feature","geometry":{"type":"Point","coordinates":[71.54855,19.55302]},"properties":{"peak_db":0.4,"area_px":5,"approx_length_m":94,"platform":false}},{"type":"Feature","geometry":{"type":"Point","coordinates":[72.79074,19.32545]},"properties":{"peak_db":-3.3,"area_px":3,"approx_length_m":73,"platform":false}},{"type":"Feature","geometry":{"type":"Point","coordinates":[72.78393,19.32345]},"properties":{"peak_db":-4.1,"area_px":10,"approx_length_m":133,"platform":false}},{"type":"Feature","geometry":{"type":"Point","coordinates":[72.78488,19.32333]},"properties":{"peak_db":-4.2,"area_px":3,"approx_length_m":73,"platform":false}},{"type":"Feature","geometry":{"type":"Point","coordinates":[72.78464,19.32262]},"properties":{"peak_db":-5.9,"area_px":1,"approx_length_m":42,"platform":false}},{"type":"Feature","geometry":{"type":"Point","coordinates":[72.78406,19.32119]},"properties":{"peak_db":-4.4,"area_px":2,"approx_length_m":59,"platform":false}},{"type":"Feature","geometry":{"type":"Point","coordinates":[72.78394,19.31489]},"properties":{"peak_db":-7.9,"area_px":1,"approx_length_m":42,"platform":false}},{"type":"Feature","geometry":{"type":"Point","coordinates":[72.7832,19.31456]},"properties":{"peak_db":-7.1,"area_px":3,"approx_length_m":73,"platform":false}},{"type":"Feature","geometry":{"type":"Point","coordinates":[72.78192,19.31498]},"properties":{"peak_db":-6.4,"area_px":1,"approx_length_m":42,"platform":false}},{"type":"Feature","geometry":{"type":"Point","coordinates":[72.78156,19.31462]},"properties":{"peak_db":-5.9,"area_px":2,"approx_length_m":59,"platform":false}},{"type":"Feature","geometry":{"type":"Point","coordinates":[72.78223,19.31401]},"properties":{"peak_db":-7.1,"area_px":4,"approx_length_m":84,"platform":false}},{"type":"Feature","geometry":{"type":"Point","coordinates":[72.7716,19.31]},"properties":{"peak_db":-5.6,"area_px":5,"approx_length_m":94,"platform":false}},{"type":"Feature","geometry":{"type":"Point","coordinates":[72.77207,19.30947]},"properties":{"peak_db":-6.9,"area_px":1,"approx_length_m":42,"platform":false}},{"type":"Feature","geometry":{"type":"Point","coordinates":[72.78604,19.3016]},"properties":{"peak_db":1.6,"area_px":2,"approx_length_m":59,"platform":false}},{"type":"Feature","geometry":{"type":"Point","coordinates":[71.79128,19.47794]},"properties":{"peak_db":-2.1,"area_px":2,"approx_length_m":59,"platform":false}},{"type":"Feature","geometry":{"type":"Point","coordinates":[71.77747,19.47841]},"properties":{"peak_db":2.4,"area_px":7,"approx_length_m":111,"platform":false}},{"type":"Feature","geometry":{"type":"Point","coordinates":[71.80729,19.46389]},"properties":{"peak_db":6.0,"area_px":15,"approx_length_m":163,"platform":false}},{"type":"Feature","geometry":{"type":"Point","coordinates":[71.41515,19.53131]},"properties":{"peak_db":10.9,"area_px":25,"approx_length_m":210,"platform":false}},{"type":"Feature","geometry":{"type":"Point","coordinates":[72.76492,19.29]},"properties":{"peak_db":-6.1,"area_px":1,"approx_length_m":42,"platform":false}},{"type":"Feature","geometry":{"type":"Point","coordinates":[72.76447,19.2897]},"properties":{"peak_db":-5.9,"area_px":3,"approx_length_m":73,"platform":false}},{"type":"Feature","geometry":{"type":"Point","coordinates":[72.76374,19.2865]},"properties":{"peak_db":-4.8,"area_px":5,"approx_length_m":94,"platform":false}},{"type":"Feature","geometry":{"type":"Point","coordinates":[72.76311,19.28611]},"properties":{"peak_db":-6.7,"area_px":2,"approx_length_m":59,"platform":false}},{"type":"Feature","geometry":{"type":"Point","coordinates":[72.76153,19.28133]},"properties":{"peak_db":-4.5,"area_px":14,"approx_length_m":157,"platform":false}},{"type":"Feature","geometry":{"type":"Point","coordinates":[72.76176,19.28018]},"properties":{"peak_db":-7.0,"area_px":1,"approx_length_m":42,"platform":false}},{"type":"Feature","geometry":{"type":"Point","coordinates":[72.75742,19.26897]},"properties":{"peak_db":-2.4,"area_px":53,"approx_length_m":306,"platform":false}},{"type":"Feature","geometry":{"type":"Point","coordinates":[72.75625,19.27024]},"properties":{"peak_db":-7.0,"area_px":1,"approx_length_m":42,"platform":false}},{"type":"Feature","geometry":{"type":"Point","coordinates":[71.41059,19.49917]},"properties":{"peak_db":7.5,"area_px":20,"approx_length_m":188,"platform":false}},{"type":"Feature","geometry":{"type":"Point","coordinates":[71.96956,19.39345]},"properties":{"peak_db":-0.7,"area_px":6,"approx_length_m":103,"platform":false}},{"type":"Feature","geometry":{"type":"Point","coordinates":[72.76595,19.2435]},"properties":{"peak_db":-4.7,"area_px":1,"approx_length_m":42,"platform":false}},{"type":"Feature","geometry":{"type":"Point","coordinates":[72.76641,19.24051]},"properties":{"peak_db":-3.4,"area_px":3,"approx_length_m":73,"platform":false}},{"type":"Feature","geometry":{"type":"Point","coordinates":[72.76574,19.2396]},"properties":{"peak_db":-4.5,"area_px":1,"approx_length_m":42,"platform":false}},{"type":"Feature","geometry":{"type":"Point","coordinates":[72.00958,19.37328]},"properties":{"peak_db":-2.4,"area_px":5,"approx_length_m":94,"platform":false}},{"type":"Feature","geometry":{"type":"Point","coordinates":[71.4161,19.45991]},"properties":{"peak_db":5.0,"area_px":10,"approx_length_m":133,"platform":false}},{"type":"Feature","geometry":{"type":"Point","coordinates":[72.08111,19.33116]},"properties":{"peak_db":3.6,"area_px":6,"approx_length_m":103,"platform":false}},{"type":"Feature","geometry":{"type":"Point","coordinates":[71.97602,19.34554]},"properties":{"peak_db":5.9,"area_px":9,"approx_length_m":126,"platform":false}},{"type":"Feature","geometry":{"type":"Point","coordinates":[72.01997,19.33663]},"properties":{"peak_db":16.1,"area_px":7,"approx_length_m":111,"platform":false}},{"type":"Feature","geometry":{"type":"Point","coordinates":[72.01957,19.33524]},"properties":{"peak_db":8.7,"area_px":6,"approx_length_m":103,"platform":false}},{"type":"Feature","geometry":{"type":"Point","coordinates":[72.04869,19.32965]},"properties":{"peak_db":-6.1,"area_px":1,"approx_length_m":42,"platform":false}},{"type":"Feature","geometry":{"type":"Point","coordinates":[72.01986,19.33427]},"properties":{"peak_db":7.5,"area_px":9,"approx_length_m":126,"platform":false}},{"type":"Feature","geometry":{"type":"Point","coordinates":[71.99967,19.33393]},"properties":{"peak_db":0.4,"area_px":5,"approx_length_m":94,"platform":false}},{"type":"Feature","geometry":{"type":"Point","coordinates":[72.03495,19.32705]},"properties":{"peak_db":0.5,"area_px":8,"approx_length_m":119,"platform":false}},{"type":"Feature","geometry":{"type":"Point","coordinates":[71.40263,19.43561]},"properties":{"peak_db":6.3,"area_px":17,"approx_length_m":173,"platform":false}},{"type":"Feature","geometry":{"type":"Point","coordinates":[72.02078,19.32592]},"properties":{"peak_db":4.1,"area_px":6,"approx_length_m":103,"platform":false}},{"type":"Feature","geometry":{"type":"Point","coordinates":[71.83529,19.35804]},"properties":{"peak_db":8.9,"area_px":26,"approx_length_m":214,"platform":false}},{"type":"Feature","geometry":{"type":"Point","coordinates":[72.00777,19.32155]},"properties":{"peak_db":0.4,"area_px":7,"approx_length_m":111,"platform":false}},{"type":"Feature","geometry":{"type":"Point","coordinates":[72.02557,19.313]},"properties":{"peak_db":5.0,"area_px":9,"approx_length_m":126,"platform":false}},{"type":"Feature","geometry":{"type":"Point","coordinates":[71.78685,19.35164]},"properties":{"peak_db":0.7,"area_px":8,"approx_length_m":119,"platform":false}},{"type":"Feature","geometry":{"type":"Point","coordinates":[71.59091,19.38453]},"properties":{"peak_db":0.8,"area_px":7,"approx_length_m":111,"platform":false}},{"type":"Feature","geometry":{"type":"Point","coordinates":[72.04024,19.30183]},"properties":{"peak_db":3.8,"area_px":9,"approx_length_m":126,"platform":false}},{"type":"Feature","geometry":{"type":"Point","coordinates":[71.97606,19.30482]},"properties":{"peak_db":-0.6,"area_px":7,"approx_length_m":111,"platform":false}},{"type":"Feature","geometry":{"type":"Point","coordinates":[71.41939,19.39206]},"properties":{"peak_db":3.6,"area_px":7,"approx_length_m":111,"platform":false}},{"type":"Feature","geometry":{"type":"Point","coordinates":[72.06234,19.27751]},"properties":{"peak_db":0.8,"area_px":4,"approx_length_m":84,"platform":false}},{"type":"Feature","geometry":{"type":"Point","coordinates":[71.46142,19.38141]},"properties":{"peak_db":6.5,"area_px":16,"approx_length_m":168,"platform":false}},{"type":"Feature","geometry":{"type":"Point","coordinates":[72.10053,19.26627]},"properties":{"peak_db":11.7,"area_px":25,"approx_length_m":210,"platform":false}},{"type":"Feature","geometry":{"type":"Point","coordinates":[71.64287,19.34701]},"properties":{"peak_db":8.7,"area_px":9,"approx_length_m":126,"platform":false}},{"type":"Feature","geometry":{"type":"Point","coordinates":[71.62318,19.34522]},"properties":{"peak_db":-8.0,"area_px":1,"approx_length_m":42,"platform":false}},{"type":"Feature","geometry":{"type":"Point","coordinates":[71.39805,19.3839]},"properties":{"peak_db":7.9,"area_px":8,"approx_length_m":119,"platform":false}},{"type":"Feature","geometry":{"type":"Point","coordinates":[71.41873,19.37985]},"properties":{"peak_db":1.0,"area_px":8,"approx_length_m":119,"platform":false}},{"type":"Feature","geometry":{"type":"Point","coordinates":[72.96971,19.10027]},"properties":{"peak_db":-6.9,"area_px":4,"approx_length_m":84,"platform":false}},{"type":"Feature","geometry":{"type":"Point","coordinates":[72.971,19.10017]},"properties":{"peak_db":-7.1,"area_px":2,"approx_length_m":59,"platform":false}},{"type":"Feature","geometry":{"type":"Point","coordinates":[72.9693,19.09964]},"properties":{"peak_db":-7.9,"area_px":1,"approx_length_m":42,"platform":false}},{"type":"Feature","geometry":{"type":"Point","coordinates":[72.77295,19.13374]},"properties":{"peak_db":-7.0,"area_px":4,"approx_length_m":84,"platform":false}},{"type":"Feature","geometry":{"type":"Point","coordinates":[72.78838,19.13064]},"properties":{"peak_db":1.5,"area_px":2,"approx_length_m":59,"platform":false}},{"type":"Feature","geometry":{"type":"Point","coordinates":[72.78802,19.13028]},"properties":{"peak_db":-1.5,"area_px":1,"approx_length_m":42,"platform":false}},{"type":"Feature","geometry":{"type":"Point","coordinates":[72.78881,19.12986]},"properties":{"peak_db":-1.2,"area_px":1,"approx_length_m":42,"platform":false}},{"type":"Feature","geometry":{"type":"Point","coordinates":[72.78741,19.13011]},"properties":{"peak_db":-1.7,"area_px":1,"approx_length_m":42,"platform":false}},{"type":"Feature","geometry":{"type":"Point","coordinates":[71.99857,19.27194]},"properties":{"peak_db":-0.9,"area_px":6,"approx_length_m":103,"platform":false}},{"type":"Feature","geometry":{"type":"Point","coordinates":[71.43243,19.36848]},"properties":{"peak_db":2.5,"area_px":8,"approx_length_m":119,"platform":false}},{"type":"Feature","geometry":{"type":"Point","coordinates":[72.10737,19.24605]},"properties":{"peak_db":2.0,"area_px":8,"approx_length_m":119,"platform":false}},{"type":"Feature","geometry":{"type":"Point","coordinates":[72.07714,19.25084]},"properties":{"peak_db":4.5,"area_px":7,"approx_length_m":111,"platform":false}},{"type":"Feature","geometry":{"type":"Point","coordinates":[72.03586,19.2534]},"properties":{"peak_db":-3.0,"area_px":5,"approx_length_m":94,"platform":false}},{"type":"Feature","geometry":{"type":"Point","coordinates":[71.3971,19.36421]},"properties":{"peak_db":3.5,"area_px":9,"approx_length_m":126,"platform":false}},{"type":"Feature","geometry":{"type":"Point","coordinates":[71.38092,19.36676]},"properties":{"peak_db":2.2,"area_px":4,"approx_length_m":84,"platform":false}},{"type":"Feature","geometry":{"type":"Point","coordinates":[72.13421,19.23166]},"properties":{"peak_db":2.7,"area_px":10,"approx_length_m":133,"platform":false}},{"type":"Feature","geometry":{"type":"Point","coordinates":[72.18082,19.22254]},"properties":{"peak_db":4.0,"area_px":10,"approx_length_m":133,"platform":false}},{"type":"Feature","geometry":{"type":"Point","coordinates":[71.4063,19.34934]},"properties":{"peak_db":2.5,"area_px":6,"approx_length_m":103,"platform":false}},{"type":"Feature","geometry":{"type":"Point","coordinates":[71.42813,19.34456]},"properties":{"peak_db":3.9,"area_px":10,"approx_length_m":133,"platform":false}},{"type":"Feature","geometry":{"type":"Point","coordinates":[72.6567,19.12417]},"properties":{"peak_db":0.9,"area_px":1,"approx_length_m":42,"platform":false}},{"type":"Feature","geometry":{"type":"Point","coordinates":[72.97216,19.06597]},"properties":{"peak_db":-2.0,"area_px":1,"approx_length_m":42,"platform":false}},{"type":"Feature","geometry":{"type":"Point","coordinates":[72.65691,19.12247]},"properties":{"peak_db":14.4,"area_px":20,"approx_length_m":188,"platform":false}},{"type":"Feature","geometry":{"type":"Point","coordinates":[72.96842,19.06469]},"properties":{"peak_db":-1.9,"area_px":1,"approx_length_m":42,"platform":false}},{"type":"Feature","geometry":{"type":"Point","coordinates":[72.97535,19.063]},"properties":{"peak_db":1.9,"area_px":4,"approx_length_m":84,"platform":false}},{"type":"Feature","geometry":{"type":"Point","coordinates":[72.56476,19.13636]},"properties":{"peak_db":12.0,"area_px":19,"approx_length_m":183,"platform":false}},{"type":"Feature","geometry":{"type":"Point","coordinates":[72.96463,19.06314]},"properties":{"peak_db":-2.1,"area_px":1,"approx_length_m":42,"platform":false}},{"type":"Feature","geometry":{"type":"Point","coordinates":[72.96485,19.06281]},"properties":{"peak_db":-0.6,"area_px":1,"approx_length_m":42,"platform":false}},{"type":"Feature","geometry":{"type":"Point","coordinates":[72.18947,19.20311]},"properties":{"peak_db":-6.4,"area_px":1,"approx_length_m":42,"platform":false}},{"type":"Feature","geometry":{"type":"Point","coordinates":[71.63149,19.30054]},"properties":{"peak_db":-0.6,"area_px":6,"approx_length_m":103,"platform":false}},{"type":"Feature","geometry":{"type":"Point","coordinates":[72.96173,19.0617]},"properties":{"peak_db":2.9,"area_px":1,"approx_length_m":42,"platform":false}},{"type":"Feature","geometry":{"type":"Point","coordinates":[72.11298,19.21483]},"properties":{"peak_db":3.8,"area_px":2,"approx_length_m":59,"platform":false}},{"type":"Feature","geometry":{"type":"Point","coordinates":[72.51468,19.14113]},"properties":{"peak_db":10.0,"area_px":20,"approx_length_m":188,"platform":false}},{"type":"Feature","geometry":{"type":"Point","coordinates":[72.11263,19.21381]},"properties":{"peak_db":8.0,"area_px":17,"approx_length_m":173,"platform":false}},{"type":"Feature","geometry":{"type":"Point","coordinates":[72.11039,19.21292]},"properties":{"peak_db":9.8,"area_px":29,"approx_length_m":226,"platform":false}},{"type":"Feature","geometry":{"type":"Point","coordinates":[72.18294,19.20001]},"properties":{"peak_db":4.3,"area_px":8,"approx_length_m":119,"platform":false}},{"type":"Feature","geometry":{"type":"Point","coordinates":[72.97691,19.05555]},"properties":{"peak_db":-6.7,"area_px":2,"approx_length_m":59,"platform":false}},{"type":"Feature","geometry":{"type":"Point","coordinates":[72.13377,19.20037]},"properties":{"peak_db":4.4,"area_px":8,"approx_length_m":119,"platform":false}},{"type":"Feature","geometry":{"type":"Point","coordinates":[72.80907,19.07842]},"properties":{"peak_db":-3.2,"area_px":1,"approx_length_m":42,"platform":false}},{"type":"Feature","geometry":{"type":"Point","coordinates":[72.63799,19.10918]},"properties":{"peak_db":-0.7,"area_px":2,"approx_length_m":59,"platform":false}},{"type":"Feature","geometry":{"type":"Point","coordinates":[72.63824,19.10773]},"properties":{"peak_db":13.9,"area_px":17,"approx_length_m":173,"platform":false}},{"type":"Feature","geometry":{"type":"Point","coordinates":[72.80824,19.07717]},"properties":{"peak_db":-4.6,"area_px":1,"approx_length_m":42,"platform":false}},{"type":"Feature","geometry":{"type":"Point","coordinates":[72.80696,19.07516]},"properties":{"peak_db":-4.2,"area_px":1,"approx_length_m":42,"platform":false}},{"type":"Feature","geometry":{"type":"Point","coordinates":[72.18663,19.18461]},"properties":{"peak_db":11.9,"area_px":27,"approx_length_m":218,"platform":false}},{"type":"Feature","geometry":{"type":"Point","coordinates":[71.51053,19.30339]},"properties":{"peak_db":-4.3,"area_px":7,"approx_length_m":111,"platform":false}},{"type":"Feature","geometry":{"type":"Point","coordinates":[71.38868,19.3246]},"properties":{"peak_db":-2.2,"area_px":6,"approx_length_m":103,"platform":false}},{"type":"Feature","geometry":{"type":"Point","coordinates":[72.03701,19.20859]},"properties":{"peak_db":2.9,"area_px":11,"approx_length_m":139,"platform":false}},{"type":"Feature","geometry":{"type":"Point","coordinates":[71.45864,19.30925]},"properties":{"peak_db":5.5,"area_px":5,"approx_length_m":94,"platform":false}},{"type":"Feature","geometry":{"type":"Point","coordinates":[71.39587,19.31898]},"properties":{"peak_db":2.8,"area_px":8,"approx_length_m":119,"platform":false}},{"type":"Feature","geometry":{"type":"Point","coordinates":[72.54191,19.1139]},"properties":{"peak_db":11.9,"area_px":17,"approx_length_m":173,"platform":false}},{"type":"Feature","geometry":{"type":"Point","coordinates":[71.41557,19.3143]},"properties":{"peak_db":-0.8,"area_px":5,"approx_length_m":94,"platform":false}},{"type":"Feature","geometry":{"type":"Point","coordinates":[71.43687,19.30948]},"properties":{"peak_db":3.8,"area_px":9,"approx_length_m":126,"platform":false}},{"type":"Feature","geometry":{"type":"Point","coordinates":[71.37631,19.31405]},"properties":{"peak_db":2.0,"area_px":4,"approx_length_m":84,"platform":false}},{"type":"Feature","geometry":{"type":"Point","coordinates":[72.1167,19.18143]},"properties":{"peak_db":0.7,"area_px":6,"approx_length_m":103,"platform":false}},{"type":"Feature","geometry":{"type":"Point","coordinates":[72.55499,19.09898]},"properties":{"peak_db":14.4,"area_px":16,"approx_length_m":168,"platform":false}},{"type":"Feature","geometry":{"type":"Point","coordinates":[71.37924,19.30588]},"properties":{"peak_db":9.7,"area_px":25,"approx_length_m":210,"platform":false}},{"type":"Feature","geometry":{"type":"Point","coordinates":[71.6073,19.26229]},"properties":{"peak_db":-7.4,"area_px":2,"approx_length_m":59,"platform":false}},{"type":"Feature","geometry":{"type":"Point","coordinates":[72.97056,19.01601]},"properties":{"peak_db":4.3,"area_px":10,"approx_length_m":133,"platform":false}},{"type":"Feature","geometry":{"type":"Point","coordinates":[71.40532,19.29541]},"properties":{"peak_db":1.8,"area_px":7,"approx_length_m":111,"platform":false}},{"type":"Feature","geometry":{"type":"Point","coordinates":[72.81201,19.04391]},"properties":{"peak_db":4.1,"area_px":7,"approx_length_m":111,"platform":false}},{"type":"Feature","geometry":{"type":"Point","coordinates":[72.57351,19.08632]},"properties":{"peak_db":11.8,"area_px":18,"approx_length_m":178,"platform":false}},{"type":"Feature","geometry":{"type":"Point","coordinates":[71.60439,19.2593]},"properties":{"peak_db":-7.8,"area_px":1,"approx_length_m":42,"platform":false}},{"type":"Feature","geometry":{"type":"Point","coordinates":[72.81691,19.03852]},"properties":{"peak_db":2.7,"area_px":1,"approx_length_m":42,"platform":false}},{"type":"Feature","geometry":{"type":"Point","coordinates":[72.81637,19.03628]},"properties":{"peak_db":7.2,"area_px":36,"approx_length_m":252,"platform":false}},{"type":"Feature","geometry":{"type":"Point","coordinates":[71.43581,19.28309]},"properties":{"peak_db":-3.1,"area_px":3,"approx_length_m":73,"platform":false}},{"type":"Feature","geometry":{"type":"Point","coordinates":[71.48239,19.27172]},"properties":{"peak_db":0.3,"area_px":6,"approx_length_m":103,"platform":false}},{"type":"Feature","geometry":{"type":"Point","coordinates":[72.52204,19.08552]},"properties":{"peak_db":12.0,"area_px":20,"approx_length_m":188,"platform":false}},{"type":"Feature","geometry":{"type":"Point","coordinates":[71.61331,19.24789]},"properties":{"peak_db":3.7,"area_px":5,"approx_length_m":94,"platform":false}},{"type":"Feature","geometry":{"type":"Point","coordinates":[71.42713,19.27894]},"properties":{"peak_db":8.2,"area_px":33,"approx_length_m":241,"platform":false}},{"type":"Feature","geometry":{"type":"Point","coordinates":[72.81469,19.02977]},"properties":{"peak_db":3.9,"area_px":22,"approx_length_m":197,"platform":false}},{"type":"Feature","geometry":{"type":"Point","coordinates":[71.42546,19.27892]},"properties":{"peak_db":0.4,"area_px":2,"approx_length_m":59,"platform":false}},{"type":"Feature","geometry":{"type":"Point","coordinates":[72.57912,19.07177]},"properties":{"peak_db":14.7,"area_px":19,"approx_length_m":183,"platform":false}},{"type":"Feature","geometry":{"type":"Point","coordinates":[71.44586,19.27428]},"properties":{"peak_db":7.7,"area_px":10,"approx_length_m":133,"platform":false}},{"type":"Feature","geometry":{"type":"Point","coordinates":[71.42727,19.27382]},"properties":{"peak_db":11.7,"area_px":8,"approx_length_m":119,"platform":false}},{"type":"Feature","geometry":{"type":"Point","coordinates":[71.57648,19.24715]},"properties":{"peak_db":-4.9,"area_px":3,"approx_length_m":73,"platform":false}},{"type":"Feature","geometry":{"type":"Point","coordinates":[72.81268,19.02189]},"properties":{"peak_db":2.9,"area_px":1,"approx_length_m":42,"platform":false}},{"type":"Feature","geometry":{"type":"Point","coordinates":[72.97006,18.9915]},"properties":{"peak_db":-5.0,"area_px":2,"approx_length_m":59,"platform":false}},{"type":"Feature","geometry":{"type":"Point","coordinates":[72.94823,18.99516]},"properties":{"peak_db":6.9,"area_px":14,"approx_length_m":157,"platform":false}},{"type":"Feature","geometry":{"type":"Point","coordinates":[72.97532,18.98985]},"properties":{"peak_db":1.0,"area_px":47,"approx_length_m":288,"platform":false}},{"type":"Feature","geometry":{"type":"Point","coordinates":[72.96778,18.99177]},"properties":{"peak_db":-4.2,"area_px":1,"approx_length_m":42,"platform":false}},{"type":"Feature","geometry":{"type":"Point","coordinates":[72.96498,18.99213]},"properties":{"peak_db":2.3,"area_px":23,"approx_length_m":201,"platform":false}},{"type":"Feature","geometry":{"type":"Point","coordinates":[72.11644,19.14489]},"properties":{"peak_db":8.3,"area_px":38,"approx_length_m":259,"platform":false}},{"type":"Feature","geometry":{"type":"Point","coordinates":[72.96265,18.99229]},"properties":{"peak_db":-2.8,"area_px":2,"approx_length_m":59,"platform":false}},{"type":"Feature","geometry":{"type":"Point","coordinates":[71.49536,19.25537]},"properties":{"peak_db":2.3,"area_px":8,"approx_length_m":119,"platform":false}},{"type":"Feature","geometry":{"type":"Point","coordinates":[72.96106,18.99229]},"properties":{"peak_db":0.2,"area_px":9,"approx_length_m":126,"platform":false}},{"type":"Feature","geometry":{"type":"Point","coordinates":[72.95928,18.99221]},"properties":{"peak_db":-2.0,"area_px":4,"approx_length_m":84,"platform":false}},{"type":"Feature","geometry":{"type":"Point","coordinates":[72.95816,18.99206]},"properties":{"peak_db":-3.9,"area_px":4,"approx_length_m":84,"platform":false}},{"type":"Feature","geometry":{"type":"Point","coordinates":[72.95707,18.99205]},"properties":{"peak_db":-3.4,"area_px":3,"approx_length_m":73,"platform":false}},{"type":"Feature","geometry":{"type":"Point","coordinates":[72.98202,18.98707]},"properties":{"peak_db":-0.6,"area_px":7,"approx_length_m":111,"platform":false}},{"type":"Feature","geometry":{"type":"Point","coordinates":[72.9554,18.99185]},"properties":{"peak_db":0.5,"area_px":12,"approx_length_m":145,"platform":false}},{"type":"Feature","geometry":{"type":"Point","coordinates":[72.55424,19.06531]},"properties":{"peak_db":1.7,"area_px":1,"approx_length_m":42,"platform":false}},{"type":"Feature","geometry":{"type":"Point","coordinates":[72.98301,18.98645]},"properties":{"peak_db":-6.1,"area_px":1,"approx_length_m":42,"platform":false}},{"type":"Feature","geometry":{"type":"Point","coordinates":[72.95396,18.99178]},"properties":{"peak_db":-4.5,"area_px":2,"approx_length_m":59,"platform":false}},{"type":"Feature","geometry":{"type":"Point","coordinates":[72.55456,19.06396]},"properties":{"peak_db":12.3,"area_px":16,"approx_length_m":168,"platform":false}},{"type":"Feature","geometry":{"type":"Point","coordinates":[72.98352,18.98607]},"properties":{"peak_db":-2.2,"area_px":1,"approx_length_m":42,"platform":false}},{"type":"Feature","geometry":{"type":"Point","coordinates":[72.95253,18.99159]},"properties":{"peak_db":-1.9,"area_px":8,"approx_length_m":119,"platform":false}},{"type":"Feature","geometry":{"type":"Point","coordinates":[72.95099,18.99149]},"properties":{"peak_db":-2.0,"area_px":2,"approx_length_m":59,"platform":false}},{"type":"Feature","geometry":{"type":"Point","coordinates":[71.38808,19.26996]},"properties":{"peak_db":2.8,"area_px":7,"approx_length_m":111,"platform":false}},{"type":"Feature","geometry":{"type":"Point","coordinates":[72.93488,18.99002]},"properties":{"peak_db":3.0,"area_px":34,"approx_length_m":245,"platform":false}},{"type":"Feature","geometry":{"type":"Point","coordinates":[71.4717,19.25059]},"properties":{"peak_db":-1.2,"area_px":7,"approx_length_m":111,"platform":false}},{"type":"Feature","geometry":{"type":"Point","coordinates":[72.925,18.98895]},"properties":{"peak_db":-3.9,"area_px":1,"approx_length_m":42,"platform":false}},{"type":"Feature","geometry":{"type":"Point","coordinates":[72.92411,18.98884]},"properties":{"peak_db":-6.9,"area_px":1,"approx_length_m":42,"platform":false}},{"type":"Feature","geometry":{"type":"Point","coordinates":[71.56137,19.23289]},"properties":{"peak_db":-6.0,"area_px":4,"approx_length_m":84,"platform":false}},{"type":"Feature","geometry":{"type":"Point","coordinates":[72.91878,18.98841]},"properties":{"peak_db":-3.6,"area_px":1,"approx_length_m":42,"platform":false}},{"type":"Feature","geometry":{"type":"Point","coordinates":[72.59367,19.04777]},"properties":{"peak_db":0.2,"area_px":1,"approx_length_m":42,"platform":false}},{"type":"Feature","geometry":{"type":"Point","coordinates":[72.88507,18.99365]},"properties":{"peak_db":5.9,"area_px":10,"approx_length_m":133,"platform":false}},{"type":"Feature","geometry":{"type":"Point","coordinates":[72.59382,19.04602]},"properties":{"peak_db":16.6,"area_px":18,"approx_length_m":178,"platform":false}},{"type":"Feature","geometry":{"type":"Point","coordinates":[71.41187,19.25715]},"properties":{"peak_db":-0.0,"area_px":5,"approx_length_m":94,"platform":false}},{"type":"Feature","geometry":{"type":"Point","coordinates":[72.92032,18.98213]},"properties":{"peak_db":8.4,"area_px":33,"approx_length_m":241,"platform":false}},{"type":"Feature","geometry":{"type":"Point","coordinates":[72.54217,19.04922]},"properties":{"peak_db":10.3,"area_px":17,"approx_length_m":173,"platform":false}},{"type":"Feature","geometry":{"type":"Point","coordinates":[72.91784,18.98086]},"properties":{"peak_db":2.8,"area_px":2,"approx_length_m":59,"platform":false}},{"type":"Feature","geometry":{"type":"Point","coordinates":[72.91894,18.98052]},"properties":{"peak_db":0.2,"area_px":1,"approx_length_m":42,"platform":false}},{"type":"Feature","geometry":{"type":"Point","coordinates":[71.43416,19.2439]},"properties":{"peak_db":3.8,"area_px":8,"approx_length_m":119,"platform":false}},{"type":"Feature","geometry":{"type":"Point","coordinates":[72.89692,18.98105]},"properties":{"peak_db":-3.9,"area_px":2,"approx_length_m":59,"platform":false}},{"type":"Feature","geometry":{"type":"Point","coordinates":[72.91472,18.97729]},"properties":{"peak_db":-1.2,"area_px":4,"approx_length_m":84,"platform":false}},{"type":"Feature","geometry":{"type":"Point","coordinates":[71.36306,19.25511]},"properties":{"peak_db":1.4,"area_px":5,"approx_length_m":94,"platform":false}},{"type":"Feature","geometry":{"type":"Point","coordinates":[72.89656,18.98069]},"properties":{"peak_db":-6.7,"area_px":1,"approx_length_m":42,"platform":false}},{"type":"Feature","geometry":{"type":"Point","coordinates":[72.10684,19.12326]},"properties":{"peak_db":-0.3,"area_px":8,"approx_length_m":119,"platform":false}},{"type":"Feature","geometry":{"type":"Point","coordinates":[72.91454,18.97627]},"properties":{"peak_db":7.9,"area_px":26,"approx_length_m":214,"platform":false}},{"type":"Feature","geometry":{"type":"Point","coordinates":[72.89336,18.98072]},"properties":{"peak_db":-2.5,"area_px":1,"approx_length_m":42,"platform":false}},{"type":"Feature","geometry":{"type":"Point","coordinates":[72.89196,18.98098]},"properties":{"peak_db":-5.8,"area_px":1,"approx_length_m":42,"platform":false}},{"type":"Feature","geometry":{"type":"Point","coordinates":[72.89359,18.9804]},"properties":{"peak_db":-4.8,"area_px":1,"approx_length_m":42,"platform":false}},{"type":"Feature","geometry":{"type":"Point","coordinates":[72.91333,18.97579]},"properties":{"peak_db":0.5,"area_px":2,"approx_length_m":59,"platform":false}},{"type":"Feature","geometry":{"type":"Point","coordinates":[72.88785,18.97743]},"properties":{"peak_db":-3.7,"area_px":3,"approx_length_m":73,"platform":false}},{"type":"Feature","geometry":{"type":"Point","coordinates":[71.47664,19.22463]},"properties":{"peak_db":1.4,"area_px":6,"approx_length_m":103,"platform":false}},{"type":"Feature","geometry":{"type":"Point","coordinates":[71.92042,19.14546]},"properties":{"peak_db":-2.3,"area_px":6,"approx_length_m":103,"platform":false}},{"type":"Feature","geometry":{"type":"Point","coordinates":[71.99685,19.13148]},"properties":{"peak_db":0.7,"area_px":4,"approx_length_m":84,"platform":false}},{"type":"Feature","geometry":{"type":"Point","coordinates":[71.4479,19.22817]},"properties":{"peak_db":3.6,"area_px":10,"approx_length_m":133,"platform":false}},{"type":"Feature","geometry":{"type":"Point","coordinates":[71.7325,19.17812]},"properties":{"peak_db":-5.6,"area_px":2,"approx_length_m":59,"platform":false}},{"type":"Feature","geometry":{"type":"Point","coordinates":[72.45825,19.04778]},"properties":{"peak_db":3.9,"area_px":6,"approx_length_m":103,"platform":false}},{"type":"Feature","geometry":{"type":"Point","coordinates":[72.9075,18.96563]},"properties":{"peak_db":-6.5,"area_px":2,"approx_length_m":59,"platform":false}},{"type":"Feature","geometry":{"type":"Point","coordinates":[71.99837,19.12992]},"properties":{"peak_db":7.0,"area_px":9,"approx_length_m":126,"platform":false}},{"type":"Feature","geometry":{"type":"Point","coordinates":[71.41862,19.23191]},"properties":{"peak_db":0.6,"area_px":6,"approx_length_m":103,"platform":false}},{"type":"Feature","geometry":{"type":"Point","coordinates":[71.77576,19.16782]},"properties":{"peak_db":5.8,"area_px":9,"approx_length_m":126,"platform":false}},{"type":"Feature","geometry":{"type":"Point","coordinates":[72.9,18.96205]},"properties":{"peak_db":13.2,"area_px":7,"approx_length_m":111,"platform":false}},{"type":"Feature","geometry":{"type":"Point","coordinates":[72.94564,18.95258]},"properties":{"peak_db":12.0,"area_px":1,"approx_length_m":42,"platform":false}},{"type":"Feature","geometry":{"type":"Point","coordinates":[72.90818,18.95937]},"properties":{"peak_db":4.6,"area_px":3,"approx_length_m":73,"platform":false}},{"type":"Feature","geometry":{"type":"Point","coordinates":[72.50675,19.0303]},"properties":{"peak_db":10.4,"area_px":20,"approx_length_m":188,"platform":false}},{"type":"Feature","geometry":{"type":"Point","coordinates":[72.90817,18.95787]},"properties":{"peak_db":14.9,"area_px":3,"approx_length_m":73,"platform":false}},{"type":"Feature","geometry":{"type":"Point","coordinates":[72.90772,18.9566]},"properties":{"peak_db":8.8,"area_px":2,"approx_length_m":59,"platform":false}},{"type":"Feature","geometry":{"type":"Point","coordinates":[72.90758,18.95425]},"properties":{"peak_db":19.6,"area_px":18,"approx_length_m":178,"platform":false}},{"type":"Feature","geometry":{"type":"Point","coordinates":[72.9005,18.9554]},"properties":{"peak_db":4.5,"area_px":2,"approx_length_m":59,"platform":false}},{"type":"Feature","geometry":{"type":"Point","coordinates":[72.90018,18.95189]},"properties":{"peak_db":12.3,"area_px":49,"approx_length_m":294,"platform":false}},{"type":"Feature","geometry":{"type":"Point","coordinates":[72.89943,18.95011]},"properties":{"peak_db":4.4,"area_px":1,"approx_length_m":42,"platform":false}},{"type":"Feature","geometry":{"type":"Point","coordinates":[72.86903,18.95457]},"properties":{"peak_db":-0.7,"area_px":2,"approx_length_m":59,"platform":false}},{"type":"Feature","geometry":{"type":"Point","coordinates":[71.86759,19.13336]},"properties":{"peak_db":-1.6,"area_px":8,"approx_length_m":119,"platform":false}},{"type":"Feature","geometry":{"type":"Point","coordinates":[72.89955,18.94682]},"properties":{"peak_db":5.5,"area_px":3,"approx_length_m":73,"platform":false}},{"type":"Feature","geometry":{"type":"Point","coordinates":[72.89883,18.94713]},"properties":{"peak_db":3.2,"area_px":1,"approx_length_m":42,"platform":false}},{"type":"Feature","geometry":{"type":"Point","coordinates":[72.11431,19.08916]},"properties":{"peak_db":0.7,"area_px":7,"approx_length_m":111,"platform":false}},{"type":"Feature","geometry":{"type":"Point","coordinates":[72.89895,18.94627]},"properties":{"peak_db":3.0,"area_px":1,"approx_length_m":42,"platform":false}},{"type":"Feature","geometry":{"type":"Point","coordinates":[72.86597,18.95193]},"properties":{"peak_db":2.7,"area_px":5,"approx_length_m":94,"platform":false}},{"type":"Feature","geometry":{"type":"Point","coordinates":[72.89904,18.9455]},"properties":{"peak_db":6.9,"area_px":6,"approx_length_m":103,"platform":false}},{"type":"Feature","geometry":{"type":"Point","coordinates":[72.89864,18.94379]},"properties":{"peak_db":8.8,"area_px":25,"approx_length_m":210,"platform":false}},{"type":"Feature","geometry":{"type":"Point","coordinates":[72.86384,18.95047]},"properties":{"peak_db":1.3,"area_px":2,"approx_length_m":59,"platform":false}},{"type":"Feature","geometry":{"type":"Point","coordinates":[72.88201,18.94601]},"properties":{"peak_db":-6.4,"area_px":1,"approx_length_m":42,"platform":false}},{"type":"Feature","geometry":{"type":"Point","coordinates":[72.93289,18.93625]},"properties":{"peak_db":22.8,"area_px":6,"approx_length_m":103,"platform":false}},{"type":"Feature","geometry":{"type":"Point","coordinates":[72.88348,18.94509]},"properties":{"peak_db":1.2,"area_px":3,"approx_length_m":73,"platform":false}},{"type":"Feature","geometry":{"type":"Point","coordinates":[72.89898,18.94205]},"properties":{"peak_db":2.9,"area_px":1,"approx_length_m":42,"platform":false}},{"type":"Feature","geometry":{"type":"Point","coordinates":[72.88505,18.94423]},"properties":{"peak_db":-2.4,"area_px":3,"approx_length_m":73,"platform":false}},{"type":"Feature","geometry":{"type":"Point","coordinates":[72.89741,18.9415]},"properties":{"peak_db":2.4,"area_px":1,"approx_length_m":42,"platform":false}},{"type":"Feature","geometry":{"type":"Point","coordinates":[72.8696,18.94628]},"properties":{"peak_db":9.8,"area_px":6,"approx_length_m":103,"platform":false}},{"type":"Feature","geometry":{"type":"Point","coordinates":[72.8656,18.94661]},"properties":{"peak_db":5.6,"area_px":5,"approx_length_m":94,"platform":false}},{"type":"Feature","geometry":{"type":"Point","coordinates":[72.89472,18.93862]},"properties":{"peak_db":6.9,"area_px":4,"approx_length_m":84,"platform":false}},{"type":"Feature","geometry":{"type":"Point","coordinates":[72.867,18.94371]},"properties":{"peak_db":-0.6,"area_px":1,"approx_length_m":42,"platform":false}},{"type":"Feature","geometry":{"type":"Point","coordinates":[72.8629,18.94432]},"properties":{"peak_db":-0.1,"area_px":4,"approx_length_m":84,"platform":false}},{"type":"Feature","geometry":{"type":"Point","coordinates":[71.58565,19.17366]},"properties":{"peak_db":-5.4,"area_px":3,"approx_length_m":73,"platform":false}},{"type":"Feature","geometry":{"type":"Point","coordinates":[72.92905,18.93185]},"properties":{"peak_db":2.4,"area_px":3,"approx_length_m":73,"platform":false}},{"type":"Feature","geometry":{"type":"Point","coordinates":[72.86666,18.94349]},"properties":{"peak_db":-3.1,"area_px":1,"approx_length_m":42,"platform":false}},{"type":"Feature","geometry":{"type":"Point","coordinates":[72.89341,18.93774]},"properties":{"peak_db":15.2,"area_px":16,"approx_length_m":168,"platform":false}},{"type":"Feature","geometry":{"type":"Point","coordinates":[72.89266,18.93816]},"properties":{"peak_db":-3.0,"area_px":1,"approx_length_m":42,"platform":false}},{"type":"Feature","geometry":{"type":"Point","coordinates":[72.92818,18.93042]},"properties":{"peak_db":1.5,"area_px":3,"approx_length_m":73,"platform":false}},{"type":"Feature","geometry":{"type":"Point","coordinates":[72.87829,18.93958]},"properties":{"peak_db":0.5,"area_px":3,"approx_length_m":73,"platform":false}},{"type":"Feature","geometry":{"type":"Point","coordinates":[71.58528,19.17177]},"properties":{"peak_db":-7.1,"area_px":3,"approx_length_m":73,"platform":false}},{"type":"Feature","geometry":{"type":"Point","coordinates":[71.57821,19.17273]},"properties":{"peak_db":-7.7,"area_px":1,"approx_length_m":42,"platform":false}},{"type":"Feature","geometry":{"type":"Point","coordinates":[72.92659,18.92912]},"properties":{"peak_db":8.5,"area_px":19,"approx_length_m":183,"platform":false}},{"type":"Feature","geometry":{"type":"Point","coordinates":[71.57818,19.17106]},"properties":{"peak_db":-7.1,"area_px":3,"approx_length_m":73,"platform":false}},{"type":"Feature","geometry":{"type":"Point","coordinates":[72.88685,18.93514]},"properties":{"peak_db":11.3,"area_px":15,"approx_length_m":163,"platform":false}},{"type":"Feature","geometry":{"type":"Point","coordinates":[72.86438,18.93942]},"properties":{"peak_db":-0.5,"area_px":1,"approx_length_m":42,"platform":false}},{"type":"Feature","geometry":{"type":"Point","coordinates":[71.57753,19.16922]},"properties":{"peak_db":-3.2,"area_px":5,"approx_length_m":94,"platform":false}},{"type":"Feature","geometry":{"type":"Point","coordinates":[72.87349,18.9355]},"properties":{"peak_db":-4.1,"area_px":1,"approx_length_m":42,"platform":false}},{"type":"Feature","geometry":{"type":"Point","coordinates":[72.87934,18.93391]},"properties":{"peak_db":5.6,"area_px":6,"approx_length_m":103,"platform":false}},{"type":"Feature","geometry":{"type":"Point","coordinates":[72.86252,18.93667]},"properties":{"peak_db":6.1,"area_px":6,"approx_length_m":103,"platform":false}},{"type":"Feature","geometry":{"type":"Point","coordinates":[72.86452,18.93621]},"properties":{"peak_db":6.7,"area_px":3,"approx_length_m":73,"platform":false}},{"type":"Feature","geometry":{"type":"Point","coordinates":[71.72595,19.14024]},"properties":{"peak_db":-7.9,"area_px":1,"approx_length_m":42,"platform":false}},{"type":"Feature","geometry":{"type":"Point","coordinates":[72.86427,18.93452]},"properties":{"peak_db":-1.5,"area_px":2,"approx_length_m":59,"platform":false}},{"type":"Feature","geometry":{"type":"Point","coordinates":[72.86092,18.93425]},"properties":{"peak_db":2.0,"area_px":3,"approx_length_m":73,"platform":false}},{"type":"Feature","geometry":{"type":"Point","coordinates":[72.86604,18.93231]},"properties":{"peak_db":6.1,"area_px":5,"approx_length_m":94,"platform":false}},{"type":"Feature","geometry":{"type":"Point","coordinates":[72.86115,18.93252]},"properties":{"peak_db":3.0,"area_px":3,"approx_length_m":73,"platform":false}},{"type":"Feature","geometry":{"type":"Point","coordinates":[72.8639,18.93122]},"properties":{"peak_db":-1.4,"area_px":2,"approx_length_m":59,"platform":false}},{"type":"Feature","geometry":{"type":"Point","coordinates":[72.86526,18.92928]},"properties":{"peak_db":1.9,"area_px":2,"approx_length_m":59,"platform":false}},{"type":"Feature","geometry":{"type":"Point","coordinates":[72.8629,18.92916]},"properties":{"peak_db":-0.7,"area_px":2,"approx_length_m":59,"platform":false}},{"type":"Feature","geometry":{"type":"Point","coordinates":[72.8649,18.92752]},"properties":{"peak_db":-4.5,"area_px":1,"approx_length_m":42,"platform":false}},{"type":"Feature","geometry":{"type":"Point","coordinates":[72.86303,18.92618]},"properties":{"peak_db":5.7,"area_px":6,"approx_length_m":103,"platform":false}},{"type":"Feature","geometry":{"type":"Point","coordinates":[72.87845,18.91886]},"properties":{"peak_db":1.3,"area_px":6,"approx_length_m":103,"platform":false}},{"type":"Feature","geometry":{"type":"Point","coordinates":[72.87129,18.91551]},"properties":{"peak_db":16.9,"area_px":17,"approx_length_m":173,"platform":false}},{"type":"Feature","geometry":{"type":"Point","coordinates":[71.88661,19.09316]},"properties":{"peak_db":1.8,"area_px":7,"approx_length_m":111,"platform":false}},{"type":"Feature","geometry":{"type":"Point","coordinates":[72.87772,18.91335]},"properties":{"peak_db":6.8,"area_px":11,"approx_length_m":139,"platform":false}},{"type":"Feature","geometry":{"type":"Point","coordinates":[72.6888,18.94722]},"properties":{"peak_db":11.7,"area_px":15,"approx_length_m":163,"platform":false}},{"type":"Feature","geometry":{"type":"Point","coordinates":[72.87552,18.91083]},"properties":{"peak_db":-0.3,"area_px":2,"approx_length_m":59,"platform":false}},{"type":"Feature","geometry":{"type":"Point","coordinates":[72.87516,18.91047]},"properties":{"peak_db":1.2,"area_px":1,"approx_length_m":42,"platform":false}},{"type":"Feature","geometry":{"type":"Point","coordinates":[72.70677,18.94011]},"properties":{"peak_db":13.9,"area_px":20,"approx_length_m":188,"platform":false}},{"type":"Feature","geometry":{"type":"Point","coordinates":[72.86944,18.91073]},"properties":{"peak_db":20.0,"area_px":6,"approx_length_m":103,"platform":false}},{"type":"Feature","geometry":{"type":"Point","coordinates":[72.84944,18.9143]},"properties":{"peak_db":9.2,"area_px":11,"approx_length_m":139,"platform":false}},{"type":"Feature","geometry":{"type":"Point","coordinates":[72.85358,18.91317]},"properties":{"peak_db":0.1,"area_px":2,"approx_length_m":59,"platform":false}},{"type":"Feature","geometry":{"type":"Point","coordinates":[72.86961,18.90967]},"properties":{"peak_db":13.1,"area_px":4,"approx_length_m":84,"platform":false}},{"type":"Feature","geometry":{"type":"Point","coordinates":[72.87719,18.90773]},"properties":{"peak_db":5.1,"area_px":7,"approx_length_m":111,"platform":false}},{"type":"Feature","geometry":{"type":"Point","coordinates":[72.8706,18.90808]},"properties":{"peak_db":14.3,"area_px":2,"approx_length_m":59,"platform":false}},{"type":"Feature","geometry":{"type":"Point","coordinates":[72.86079,18.90901]},"properties":{"peak_db":7.1,"area_px":18,"approx_length_m":178,"platform":false}},{"type":"Feature","geometry":{"type":"Point","coordinates":[72.85556,18.91016]},"properties":{"peak_db":9.5,"area_px":18,"approx_length_m":178,"platform":false}},{"type":"Feature","geometry":{"type":"Point","coordinates":[72.87135,18.90625]},"properties":{"peak_db":18.5,"area_px":19,"approx_length_m":183,"platform":false}},{"type":"Feature","geometry":{"type":"Point","coordinates":[72.85203,18.91051]},"properties":{"peak_db":-0.2,"area_px":2,"approx_length_m":59,"platform":false}},{"type":"Feature","geometry":{"type":"Point","coordinates":[72.86572,18.90565]},"properties":{"peak_db":20.9,"area_px":11,"approx_length_m":139,"platform":false}},{"type":"Feature","geometry":{"type":"Point","coordinates":[72.84551,18.90872]},"properties":{"peak_db":6.6,"area_px":5,"approx_length_m":94,"platform":false}},{"type":"Feature","geometry":{"type":"Point","coordinates":[72.71128,18.93223]},"properties":{"peak_db":15.1,"area_px":17,"approx_length_m":173,"platform":false}},{"type":"Feature","geometry":{"type":"Point","coordinates":[72.69554,18.93441]},"properties":{"peak_db":9.8,"area_px":19,"approx_length_m":183,"platform":false}},{"type":"Feature","geometry":{"type":"Point","coordinates":[72.8531,18.90427]},"properties":{"peak_db":12.3,"area_px":16,"approx_length_m":168,"platform":false}},{"type":"Feature","geometry":{"type":"Point","coordinates":[72.86842,18.9016]},"properties":{"peak_db":8.0,"area_px":1,"approx_length_m":42,"platform":false}},{"type":"Feature","geometry":{"type":"Point","coordinates":[72.8686,18.9003]},"properties":{"peak_db":4.9,"area_px":4,"approx_length_m":84,"platform":false}},{"type":"Feature","geometry":{"type":"Point","coordinates":[72.87246,18.89777]},"properties":{"peak_db":-6.6,"area_px":2,"approx_length_m":59,"platform":false}},{"type":"Feature","geometry":{"type":"Point","coordinates":[72.86172,18.89905]},"properties":{"peak_db":9.2,"area_px":19,"approx_length_m":183,"platform":false}},{"type":"Feature","geometry":{"type":"Point","coordinates":[72.84996,18.90021]},"properties":{"peak_db":8.5,"area_px":18,"approx_length_m":178,"platform":false}},{"type":"Feature","geometry":{"type":"Point","coordinates":[72.84519,18.89984]},"properties":{"peak_db":3.5,"area_px":7,"approx_length_m":111,"platform":false}},{"type":"Feature","geometry":{"type":"Point","coordinates":[72.83671,18.90123]},"properties":{"peak_db":-6.2,"area_px":1,"approx_length_m":42,"platform":false}},{"type":"Feature","geometry":{"type":"Point","coordinates":[71.4738,19.14491]},"properties":{"peak_db":-6.9,"area_px":1,"approx_length_m":42,"platform":false}},{"type":"Feature","geometry":{"type":"Point","coordinates":[72.83633,18.89934]},"properties":{"peak_db":-7.0,"area_px":3,"approx_length_m":73,"platform":false}},{"type":"Feature","geometry":{"type":"Point","coordinates":[72.86959,18.89221]},"properties":{"peak_db":12.0,"area_px":12,"approx_length_m":145,"platform":false}},{"type":"Feature","geometry":{"type":"Point","coordinates":[72.69812,18.92243]},"properties":{"peak_db":8.2,"area_px":21,"approx_length_m":192,"platform":false}},{"type":"Feature","geometry":{"type":"Point","coordinates":[72.88075,18.88908]},"properties":{"peak_db":-6.5,"area_px":2,"approx_length_m":59,"platform":false}},{"type":"Feature","geometry":{"type":"Point","coordinates":[72.86635,18.89131]},"properties":{"peak_db":-3.0,"area_px":1,"approx_length_m":42,"platform":false}},{"type":"Feature","geometry":{"type":"Point","coordinates":[72.8708,18.8896]},"properties":{"peak_db":7.0,"area_px":11,"approx_length_m":139,"platform":false}},{"type":"Feature","geometry":{"type":"Point","coordinates":[72.1988,19.01083]},"properties":{"peak_db":2.3,"area_px":8,"approx_length_m":119,"platform":false}},{"type":"Feature","geometry":{"type":"Point","coordinates":[72.70577,18.91698]},"properties":{"peak_db":12.7,"area_px":21,"approx_length_m":192,"platform":false}},{"type":"Feature","geometry":{"type":"Point","coordinates":[72.87601,18.88201]},"properties":{"peak_db":-4.9,"area_px":5,"approx_length_m":94,"platform":false}},{"type":"Feature","geometry":{"type":"Point","coordinates":[72.68531,18.91552]},"properties":{"peak_db":16.1,"area_px":18,"approx_length_m":178,"platform":false}},{"type":"Feature","geometry":{"type":"Point","coordinates":[72.86383,18.88325]},"properties":{"peak_db":11.8,"area_px":9,"approx_length_m":126,"platform":false}},{"type":"Feature","geometry":{"type":"Point","coordinates":[72.875,18.8812]},"properties":{"peak_db":-4.2,"area_px":3,"approx_length_m":73,"platform":false}},{"type":"Feature","geometry":{"type":"Point","coordinates":[72.86612,18.88191]},"properties":{"peak_db":5.4,"area_px":10,"approx_length_m":133,"platform":false}},{"type":"Feature","geometry":{"type":"Point","coordinates":[72.84983,18.88434]},"properties":{"peak_db":8.1,"area_px":15,"approx_length_m":163,"platform":false}},{"type":"Feature","geometry":{"type":"Point","coordinates":[72.87379,18.8782]},"properties":{"peak_db":1.1,"area_px":5,"approx_length_m":94,"platform":false}},{"type":"Feature","geometry":{"type":"Point","coordinates":[72.83691,18.88461]},"properties":{"peak_db":14.1,"area_px":19,"approx_length_m":183,"platform":false}},{"type":"Feature","geometry":{"type":"Point","coordinates":[72.87622,18.87742]},"properties":{"peak_db":-0.1,"area_px":4,"approx_length_m":84,"platform":false}},{"type":"Feature","geometry":{"type":"Point","coordinates":[72.15089,19.00798]},"properties":{"peak_db":-0.6,"area_px":8,"approx_length_m":119,"platform":false}},{"type":"Feature","geometry":{"type":"Point","coordinates":[72.87402,18.87586]},"properties":{"peak_db":-4.8,"area_px":1,"approx_length_m":42,"platform":false}},{"type":"Feature","geometry":{"type":"Point","coordinates":[72.85677,18.87821]},"properties":{"peak_db":9.3,"area_px":8,"approx_length_m":119,"platform":false}},{"type":"Feature","geometry":{"type":"Point","coordinates":[72.8519,18.87768]},"properties":{"peak_db":8.2,"area_px":20,"approx_length_m":188,"platform":false}},{"type":"Feature","geometry":{"type":"Point","coordinates":[72.86077,18.87537]},"properties":{"peak_db":16.4,"area_px":22,"approx_length_m":197,"platform":false}},{"type":"Feature","geometry":{"type":"Point","coordinates":[72.80343,18.88541]},"properties":{"peak_db":-2.4,"area_px":1,"approx_length_m":42,"platform":false}},{"type":"Feature","geometry":{"type":"Point","coordinates":[72.80294,18.88438]},"properties":{"peak_db":-2.9,"area_px":1,"approx_length_m":42,"platform":false}},{"type":"Feature","geometry":{"type":"Point","coordinates":[72.8755,18.87019]},"properties":{"peak_db":0.0,"area_px":5,"approx_length_m":94,"platform":false}},{"type":"Feature","geometry":{"type":"Point","coordinates":[72.87124,18.87122]},"properties":{"peak_db":-6.5,"area_px":3,"approx_length_m":73,"platform":false}},{"type":"Feature","geometry":{"type":"Point","coordinates":[72.83931,18.87569]},"properties":{"peak_db":-1.4,"area_px":4,"approx_length_m":84,"platform":false}},{"type":"Feature","geometry":{"type":"Point","coordinates":[72.80177,18.88291]},"properties":{"peak_db":-3.6,"area_px":1,"approx_length_m":42,"platform":false}},{"type":"Feature","geometry":{"type":"Point","coordinates":[72.80065,18.88312]},"properties":{"peak_db":-2.7,"area_px":1,"approx_length_m":42,"platform":false}},{"type":"Feature","geometry":{"type":"Point","coordinates":[72.80099,18.88193]},"properties":{"peak_db":-4.4,"area_px":1,"approx_length_m":42,"platform":false}},{"type":"Feature","geometry":{"type":"Point","coordinates":[72.8566,18.87105]},"properties":{"peak_db":-5.5,"area_px":4,"approx_length_m":84,"platform":false}},{"type":"Feature","geometry":{"type":"Point","coordinates":[72.84584,18.87188]},"properties":{"peak_db":3.7,"area_px":17,"approx_length_m":173,"platform":false}},{"type":"Feature","geometry":{"type":"Point","coordinates":[72.87047,18.86634]},"properties":{"peak_db":-1.5,"area_px":5,"approx_length_m":94,"platform":false}},{"type":"Feature","geometry":{"type":"Point","coordinates":[72.86538,18.86574]},"properties":{"peak_db":-1.8,"area_px":3,"approx_length_m":73,"platform":false}},{"type":"Feature","geometry":{"type":"Point","coordinates":[72.88537,18.86141]},"properties":{"peak_db":-7.7,"area_px":1,"approx_length_m":42,"platform":false}},{"type":"Feature","geometry":{"type":"Point","coordinates":[72.87129,18.86231]},"properties":{"peak_db":-6.0,"area_px":1,"approx_length_m":42,"platform":false}},{"type":"Feature","geometry":{"type":"Point","coordinates":[72.87263,18.86146]},"properties":{"peak_db":5.8,"area_px":6,"approx_length_m":103,"platform":false}},{"type":"Feature","geometry":{"type":"Point","coordinates":[72.84646,18.86552]},"properties":{"peak_db":12.2,"area_px":21,"approx_length_m":192,"platform":false}},{"type":"Feature","geometry":{"type":"Point","coordinates":[72.76198,18.88122]},"properties":{"peak_db":-4.9,"area_px":1,"approx_length_m":42,"platform":false}},{"type":"Feature","geometry":{"type":"Point","coordinates":[72.8649,18.86189]},"properties":{"peak_db":1.7,"area_px":3,"approx_length_m":73,"platform":false}},{"type":"Feature","geometry":{"type":"Point","coordinates":[72.76218,18.88076]},"properties":{"peak_db":-4.2,"area_px":2,"approx_length_m":59,"platform":false}},{"type":"Feature","geometry":{"type":"Point","coordinates":[72.88398,18.85816]},"properties":{"peak_db":-3.5,"area_px":4,"approx_length_m":84,"platform":false}},{"type":"Feature","geometry":{"type":"Point","coordinates":[72.82574,18.86818]},"properties":{"peak_db":11.3,"area_px":12,"approx_length_m":145,"platform":false}},{"type":"Feature","geometry":{"type":"Point","coordinates":[72.86881,18.8601]},"properties":{"peak_db":2.6,"area_px":2,"approx_length_m":59,"platform":false}},{"type":"Feature","geometry":{"type":"Point","coordinates":[72.83593,18.86571]},"properties":{"peak_db":-1.9,"area_px":5,"approx_length_m":94,"platform":false}},{"type":"Feature","geometry":{"type":"Point","coordinates":[72.86582,18.85826]},"properties":{"peak_db":-1.1,"area_px":7,"approx_length_m":111,"platform":false}},{"type":"Feature","geometry":{"type":"Point","coordinates":[72.86217,18.85858]},"properties":{"peak_db":0.2,"area_px":4,"approx_length_m":84,"platform":false}},{"type":"Feature","geometry":{"type":"Point","coordinates":[72.83541,18.86314]},"properties":{"peak_db":-4.1,"area_px":4,"approx_length_m":84,"platform":false}},{"type":"Feature","geometry":{"type":"Point","coordinates":[72.86527,18.85696]},"properties":{"peak_db":3.2,"area_px":5,"approx_length_m":94,"platform":false}},{"type":"Feature","geometry":{"type":"Point","coordinates":[72.87021,18.85549]},"properties":{"peak_db":-7.7,"area_px":1,"approx_length_m":42,"platform":false}},{"type":"Feature","geometry":{"type":"Point","coordinates":[72.83483,18.8617]},"properties":{"peak_db":-7.6,"area_px":1,"approx_length_m":42,"platform":false}},{"type":"Feature","geometry":{"type":"Point","coordinates":[72.75217,18.87572]},"properties":{"peak_db":-7.7,"area_px":1,"approx_length_m":42,"platform":false}},{"type":"Feature","geometry":{"type":"Point","coordinates":[72.86832,18.85366]},"properties":{"peak_db":-2.4,"area_px":4,"approx_length_m":84,"platform":false}},{"type":"Feature","geometry":{"type":"Point","coordinates":[72.82666,18.86137]},"properties":{"peak_db":-7.6,"area_px":2,"approx_length_m":59,"platform":false}},{"type":"Feature","geometry":{"type":"Point","coordinates":[72.96582,18.83509]},"properties":{"peak_db":-7.6,"area_px":1,"approx_length_m":42,"platform":false}},{"type":"Feature","geometry":{"type":"Point","coordinates":[72.96549,18.83487]},"properties":{"peak_db":-6.4,"area_px":1,"approx_length_m":42,"platform":false}},{"type":"Feature","geometry":{"type":"Point","coordinates":[72.82623,18.85951]},"properties":{"peak_db":-3.0,"area_px":5,"approx_length_m":94,"platform":false}},{"type":"Feature","geometry":{"type":"Point","coordinates":[72.85593,18.85357]},"properties":{"peak_db":4.2,"area_px":11,"approx_length_m":139,"platform":false}},{"type":"Feature","geometry":{"type":"Point","coordinates":[72.87238,18.84891]},"properties":{"peak_db":-7.3,"area_px":1,"approx_length_m":42,"platform":false}},{"type":"Feature","geometry":{"type":"Point","coordinates":[72.84741,18.85209]},"properties":{"peak_db":4.9,"area_px":9,"approx_length_m":126,"platform":false}},{"type":"Feature","geometry":{"type":"Point","coordinates":[72.82846,18.85534]},"properties":{"peak_db":2.4,"area_px":5,"approx_length_m":94,"platform":false}},{"type":"Feature","geometry":{"type":"Point","coordinates":[72.88125,18.8452]},"properties":{"peak_db":1.7,"area_px":5,"approx_length_m":94,"platform":false}},{"type":"Feature","geometry":{"type":"Point","coordinates":[72.91829,18.83794]},"properties":{"peak_db":-8.0,"area_px":1,"approx_length_m":42,"platform":false}},{"type":"Feature","geometry":{"type":"Point","coordinates":[72.89033,18.84203]},"properties":{"peak_db":-4.6,"area_px":4,"approx_length_m":84,"platform":false}},{"type":"Feature","geometry":{"type":"Point","coordinates":[72.90851,18.83833]},"properties":{"peak_db":-6.2,"area_px":1,"approx_length_m":42,"platform":false}},{"type":"Feature","geometry":{"type":"Point","coordinates":[72.85194,18.84859]},"properties":{"peak_db":-2.6,"area_px":2,"approx_length_m":59,"platform":false}},{"type":"Feature","geometry":{"type":"Point","coordinates":[72.90792,18.8376]},"properties":{"peak_db":-6.9,"area_px":2,"approx_length_m":59,"platform":false}},{"type":"Feature","geometry":{"type":"Point","coordinates":[72.87793,18.84246]},"properties":{"peak_db":-7.1,"area_px":3,"approx_length_m":73,"platform":false}},{"type":"Feature","geometry":{"type":"Point","coordinates":[72.93343,18.83159]},"properties":{"peak_db":-4.9,"area_px":3,"approx_length_m":73,"platform":false}},{"type":"Feature","geometry":{"type":"Point","coordinates":[72.93217,18.83108]},"properties":{"peak_db":-7.5,"area_px":3,"approx_length_m":73,"platform":false}},{"type":"Feature","geometry":{"type":"Point","coordinates":[72.78963,18.85589]},"properties":{"peak_db":-1.9,"area_px":6,"approx_length_m":103,"platform":false}},{"type":"Feature","geometry":{"type":"Point","coordinates":[72.77927,18.858]},"properties":{"peak_db":-4.8,"area_px":5,"approx_length_m":94,"platform":false}},{"type":"Feature","geometry":{"type":"Point","coordinates":[72.7843,18.85506]},"properties":{"peak_db":-3.3,"area_px":5,"approx_length_m":94,"platform":false}},{"type":"Feature","geometry":{"type":"Point","coordinates":[72.26503,18.94876]},"properties":{"peak_db":2.2,"area_px":9,"approx_length_m":126,"platform":false}},{"type":"Feature","geometry":{"type":"Point","coordinates":[72.78101,18.85415]},"properties":{"peak_db":-2.0,"area_px":4,"approx_length_m":84,"platform":false}},{"type":"Feature","geometry":{"type":"Point","coordinates":[72.81354,18.8465]},"properties":{"peak_db":1.6,"area_px":7,"approx_length_m":111,"platform":false}},{"type":"Feature","geometry":{"type":"Point","coordinates":[71.77969,19.02786]},"properties":{"peak_db":0.0,"area_px":8,"approx_length_m":119,"platform":false}},{"type":"Feature","geometry":{"type":"Point","coordinates":[72.30493,18.93182]},"properties":{"peak_db":-1.2,"area_px":8,"approx_length_m":119,"platform":false}},{"type":"Feature","geometry":{"type":"Point","coordinates":[72.17986,18.95213]},"properties":{"peak_db":1.4,"area_px":9,"approx_length_m":126,"platform":false}},{"type":"Feature","geometry":{"type":"Point","coordinates":[72.81715,18.82857]},"properties":{"peak_db":-4.9,"area_px":4,"approx_length_m":84,"platform":false}},{"type":"Feature","geometry":{"type":"Point","coordinates":[72.22064,18.937]},"properties":{"peak_db":-5.8,"area_px":4,"approx_length_m":84,"platform":false}},{"type":"Feature","geometry":{"type":"Point","coordinates":[72.56093,18.87389]},"properties":{"peak_db":11.6,"area_px":21,"approx_length_m":192,"platform":false}},{"type":"Feature","geometry":{"type":"Point","coordinates":[71.78336,19.01006]},"properties":{"peak_db":10.1,"area_px":24,"approx_length_m":206,"platform":false}},{"type":"Feature","geometry":{"type":"Point","coordinates":[71.78353,19.00758]},"properties":{"peak_db":1.2,"area_px":4,"approx_length_m":84,"platform":false}},{"type":"Feature","geometry":{"type":"Point","coordinates":[72.06071,18.95334]},"properties":{"peak_db":5.4,"area_px":6,"approx_length_m":103,"platform":false}},{"type":"Feature","geometry":{"type":"Point","coordinates":[72.56181,18.86148]},"properties":{"peak_db":7.5,"area_px":18,"approx_length_m":178,"platform":false}},{"type":"Feature","geometry":{"type":"Point","coordinates":[71.76883,19.00292]},"properties":{"peak_db":9.9,"area_px":16,"approx_length_m":168,"platform":false}},{"type":"Feature","geometry":{"type":"Point","coordinates":[71.54252,19.03185]},"properties":{"peak_db":2.1,"area_px":8,"approx_length_m":119,"platform":false}},{"type":"Feature","geometry":{"type":"Point","coordinates":[71.53762,19.02883]},"properties":{"peak_db":-7.3,"area_px":1,"approx_length_m":42,"platform":false}},{"type":"Feature","geometry":{"type":"Point","coordinates":[72.0403,18.92643]},"properties":{"peak_db":14.5,"area_px":30,"approx_length_m":230,"platform":false}},{"type":"Feature","geometry":{"type":"Point","coordinates":[72.2134,18.89476]},"properties":{"peak_db":7.3,"area_px":31,"approx_length_m":234,"platform":false}},{"type":"Feature","geometry":{"type":"Point","coordinates":[72.24834,18.88805]},"properties":{"peak_db":-3.3,"area_px":7,"approx_length_m":111,"platform":false}},{"type":"Feature","geometry":{"type":"Point","coordinates":[72.24558,18.88863]},"properties":{"peak_db":-3.9,"area_px":4,"approx_length_m":84,"platform":false}},{"type":"Feature","geometry":{"type":"Point","coordinates":[72.24635,18.88849]},"properties":{"peak_db":-6.4,"area_px":1,"approx_length_m":42,"platform":false}},{"type":"Feature","geometry":{"type":"Point","coordinates":[72.04111,18.92004]},"properties":{"peak_db":-2.6,"area_px":6,"approx_length_m":103,"platform":false}},{"type":"Feature","geometry":{"type":"Point","coordinates":[71.42609,19.02911]},"properties":{"peak_db":4.2,"area_px":8,"approx_length_m":119,"platform":false}},{"type":"Feature","geometry":{"type":"Point","coordinates":[71.63967,18.9876]},"properties":{"peak_db":2.3,"area_px":4,"approx_length_m":84,"platform":false}},{"type":"Feature","geometry":{"type":"Point","coordinates":[72.67523,18.79747]},"properties":{"peak_db":6.8,"area_px":6,"approx_length_m":103,"platform":false}},{"type":"Feature","geometry":{"type":"Point","coordinates":[72.60042,18.80239]},"properties":{"peak_db":-2.6,"area_px":4,"approx_length_m":84,"platform":false}},{"type":"Feature","geometry":{"type":"Point","coordinates":[72.64096,18.79421]},"properties":{"peak_db":9.9,"area_px":16,"approx_length_m":168,"platform":false}},{"type":"Feature","geometry":{"type":"Point","coordinates":[72.61127,18.79637]},"properties":{"peak_db":17.2,"area_px":22,"approx_length_m":197,"platform":false}},{"type":"Feature","geometry":{"type":"Point","coordinates":[71.62389,18.97385]},"properties":{"peak_db":12.6,"area_px":25,"approx_length_m":210,"platform":false}},{"type":"Feature","geometry":{"type":"Point","coordinates":[72.42101,18.83028]},"properties":{"peak_db":8.6,"area_px":24,"approx_length_m":206,"platform":false}},{"type":"Feature","geometry":{"type":"Point","coordinates":[72.62619,18.78928]},"properties":{"peak_db":8.9,"area_px":15,"approx_length_m":163,"platform":false}},{"type":"Feature","geometry":{"type":"Point","coordinates":[71.62991,18.96867]},"properties":{"peak_db":4.7,"area_px":6,"approx_length_m":103,"platform":false}},{"type":"Feature","geometry":{"type":"Point","coordinates":[72.6363,18.77785]},"properties":{"peak_db":11.7,"area_px":18,"approx_length_m":178,"platform":false}},{"type":"Feature","geometry":{"type":"Point","coordinates":[72.2053,18.85287]},"properties":{"peak_db":34.1,"area_px":21,"approx_length_m":192,"platform":false}},{"type":"Feature","geometry":{"type":"Point","coordinates":[72.23917,18.84668]},"properties":{"peak_db":21.8,"area_px":29,"approx_length_m":226,"platform":false}},{"type":"Feature","geometry":{"type":"Point","coordinates":[72.21251,18.8517]},"properties":{"peak_db":-6.9,"area_px":2,"approx_length_m":59,"platform":false}},{"type":"Feature","geometry":{"type":"Point","coordinates":[72.21167,18.85185]},"properties":{"peak_db":-5.2,"area_px":2,"approx_length_m":59,"platform":false}},{"type":"Feature","geometry":{"type":"Point","coordinates":[71.4996,18.9719]},"properties":{"peak_db":4.4,"area_px":10,"approx_length_m":133,"platform":false}},{"type":"Feature","geometry":{"type":"Point","coordinates":[71.8258,18.91257]},"properties":{"peak_db":-0.8,"area_px":7,"approx_length_m":111,"platform":false}},{"type":"Feature","geometry":{"type":"Point","coordinates":[72.58821,18.76728]},"properties":{"peak_db":-7.8,"area_px":1,"approx_length_m":42,"platform":false}},{"type":"Feature","geometry":{"type":"Point","coordinates":[72.6344,18.75646]},"properties":{"peak_db":16.3,"area_px":22,"approx_length_m":197,"platform":false}},{"type":"Feature","geometry":{"type":"Point","coordinates":[72.59303,18.76201]},"properties":{"peak_db":25.4,"area_px":20,"approx_length_m":188,"platform":false}},{"type":"Feature","geometry":{"type":"Point","coordinates":[72.33353,18.80688]},"properties":{"peak_db":1.7,"area_px":8,"approx_length_m":119,"platform":false}},{"type":"Feature","geometry":{"type":"Point","coordinates":[72.59163,18.75652]},"properties":{"peak_db":10.3,"area_px":18,"approx_length_m":178,"platform":false}},{"type":"Feature","geometry":{"type":"Point","coordinates":[72.84179,18.70828]},"properties":{"peak_db":-3.9,"area_px":6,"approx_length_m":103,"platform":false}},{"type":"Feature","geometry":{"type":"Point","coordinates":[72.84063,18.70685]},"properties":{"peak_db":-7.7,"area_px":2,"approx_length_m":59,"platform":false}},{"type":"Feature","geometry":{"type":"Point","coordinates":[72.84029,18.70593]},"properties":{"peak_db":-6.3,"area_px":2,"approx_length_m":59,"platform":false}},{"type":"Feature","geometry":{"type":"Point","coordinates":[72.84015,18.70448]},"properties":{"peak_db":-4.8,"area_px":12,"approx_length_m":145,"platform":false}},{"type":"Feature","geometry":{"type":"Point","coordinates":[72.81533,18.7094]},"properties":{"peak_db":-3.9,"area_px":1,"approx_length_m":42,"platform":false}},{"type":"Feature","geometry":{"type":"Point","coordinates":[72.81254,18.70545]},"properties":{"peak_db":1.0,"area_px":9,"approx_length_m":126,"platform":false}},{"type":"Feature","geometry":{"type":"Point","coordinates":[72.81381,18.70476]},"properties":{"peak_db":-1.8,"area_px":2,"approx_length_m":59,"platform":false}},{"type":"Feature","geometry":{"type":"Point","coordinates":[72.81364,18.70366]},"properties":{"peak_db":-1.7,"area_px":11,"approx_length_m":139,"platform":false}},{"type":"Feature","geometry":{"type":"Point","coordinates":[72.81094,18.70487]},"properties":{"peak_db":-3.8,"area_px":1,"approx_length_m":42,"platform":false}},{"type":"Feature","geometry":{"type":"Point","coordinates":[72.81228,18.70434]},"properties":{"peak_db":-5.0,"area_px":1,"approx_length_m":42,"platform":false}},{"type":"Feature","geometry":{"type":"Point","coordinates":[72.81284,18.70283]},"properties":{"peak_db":-4.0,"area_px":1,"approx_length_m":42,"platform":false}},{"type":"Feature","geometry":{"type":"Point","coordinates":[72.812,18.70299]},"properties":{"peak_db":-3.6,"area_px":1,"approx_length_m":42,"platform":false}},{"type":"Feature","geometry":{"type":"Point","coordinates":[72.57497,18.74472]},"properties":{"peak_db":-6.8,"area_px":1,"approx_length_m":42,"platform":false}},{"type":"Feature","geometry":{"type":"Point","coordinates":[72.32514,18.78697]},"properties":{"peak_db":2.1,"area_px":8,"approx_length_m":119,"platform":false}},{"type":"Feature","geometry":{"type":"Point","coordinates":[72.64318,18.72599]},"properties":{"peak_db":8.1,"area_px":3,"approx_length_m":73,"platform":false}},{"type":"Feature","geometry":{"type":"Point","coordinates":[72.03244,18.83605]},"properties":{"peak_db":5.1,"area_px":10,"approx_length_m":133,"platform":false}},{"type":"Feature","geometry":{"type":"Point","coordinates":[72.64273,18.72365]},"properties":{"peak_db":14.9,"area_px":15,"approx_length_m":163,"platform":false}},{"type":"Feature","geometry":{"type":"Point","coordinates":[72.5809,18.72681]},"properties":{"peak_db":22.9,"area_px":21,"approx_length_m":192,"platform":false}},{"type":"Feature","geometry":{"type":"Point","coordinates":[72.59132,18.72406]},"properties":{"peak_db":9.5,"area_px":21,"approx_length_m":192,"platform":false}},{"type":"Feature","geometry":{"type":"Point","coordinates":[72.29895,18.76729]},"properties":{"peak_db":1.4,"area_px":9,"approx_length_m":126,"platform":false}},{"type":"Feature","geometry":{"type":"Point","coordinates":[72.3194,18.76177]},"properties":{"peak_db":4.3,"area_px":11,"approx_length_m":139,"platform":false}},{"type":"Feature","geometry":{"type":"Point","coordinates":[72.29942,18.75525]},"properties":{"peak_db":6.3,"area_px":19,"approx_length_m":183,"platform":false}},{"type":"Feature","geometry":{"type":"Point","coordinates":[72.56652,18.70477]},"properties":{"peak_db":23.3,"area_px":25,"approx_length_m":210,"platform":false}},{"type":"Feature","geometry":{"type":"Point","coordinates":[72.71777,18.67408]},"properties":{"peak_db":3.1,"area_px":8,"approx_length_m":119,"platform":false}},{"type":"Feature","geometry":{"type":"Point","coordinates":[72.32626,18.74273]},"properties":{"peak_db":0.4,"area_px":7,"approx_length_m":111,"platform":false}},{"type":"Feature","geometry":{"type":"Point","coordinates":[72.35968,18.73024]},"properties":{"peak_db":3.3,"area_px":6,"approx_length_m":103,"platform":false}},{"type":"Feature","geometry":{"type":"Point","coordinates":[72.3068,18.73594]},"properties":{"peak_db":7.9,"area_px":19,"approx_length_m":183,"platform":false}},{"type":"Feature","geometry":{"type":"Point","coordinates":[72.86354,18.63422]},"properties":{"peak_db":-2.3,"area_px":1,"approx_length_m":42,"platform":false}},{"type":"Feature","geometry":{"type":"Point","coordinates":[71.99948,18.79088]},"properties":{"peak_db":-0.3,"area_px":8,"approx_length_m":119,"platform":false}},{"type":"Feature","geometry":{"type":"Point","coordinates":[72.85712,18.634]},"properties":{"peak_db":-5.3,"area_px":1,"approx_length_m":42,"platform":false}},{"type":"Feature","geometry":{"type":"Point","coordinates":[72.86271,18.63156]},"properties":{"peak_db":-3.6,"area_px":1,"approx_length_m":42,"platform":false}},{"type":"Feature","geometry":{"type":"Point","coordinates":[72.48708,18.69934]},"properties":{"peak_db":2.2,"area_px":8,"approx_length_m":119,"platform":false}},{"type":"Feature","geometry":{"type":"Point","coordinates":[72.48508,18.69893]},"properties":{"peak_db":-0.9,"area_px":4,"approx_length_m":84,"platform":false}},{"type":"Feature","geometry":{"type":"Point","coordinates":[72.33779,18.72519]},"properties":{"peak_db":1.4,"area_px":9,"approx_length_m":126,"platform":false}},{"type":"Feature","geometry":{"type":"Point","coordinates":[72.27982,18.73424]},"properties":{"peak_db":-0.1,"area_px":8,"approx_length_m":119,"platform":false}},{"type":"Feature","geometry":{"type":"Point","coordinates":[72.56112,18.68181]},"properties":{"peak_db":21.5,"area_px":21,"approx_length_m":192,"platform":false}},{"type":"Feature","geometry":{"type":"Point","coordinates":[72.31839,18.71836]},"properties":{"peak_db":1.8,"area_px":8,"approx_length_m":119,"platform":false}},{"type":"Feature","geometry":{"type":"Point","coordinates":[72.35458,18.70975]},"properties":{"peak_db":-1.8,"area_px":4,"approx_length_m":84,"platform":false}},{"type":"Feature","geometry":{"type":"Point","coordinates":[72.33842,18.71047]},"properties":{"peak_db":5.6,"area_px":5,"approx_length_m":94,"platform":false}},{"type":"Feature","geometry":{"type":"Point","coordinates":[72.33958,18.70948]},"properties":{"peak_db":9.5,"area_px":23,"approx_length_m":201,"platform":false}},{"type":"Feature","geometry":{"type":"Point","coordinates":[72.34096,18.709]},"properties":{"peak_db":-0.2,"area_px":1,"approx_length_m":42,"platform":false}},{"type":"Feature","geometry":{"type":"Point","coordinates":[72.22718,18.72758]},"properties":{"peak_db":-1.6,"area_px":5,"approx_length_m":94,"platform":false}},{"type":"Feature","geometry":{"type":"Point","coordinates":[72.34361,18.70417]},"properties":{"peak_db":-3.9,"area_px":4,"approx_length_m":84,"platform":false}},{"type":"Feature","geometry":{"type":"Point","coordinates":[72.35287,18.69197]},"properties":{"peak_db":1.2,"area_px":11,"approx_length_m":139,"platform":false}},{"type":"Feature","geometry":{"type":"Point","coordinates":[72.34738,18.69209]},"properties":{"peak_db":2.9,"area_px":8,"approx_length_m":119,"platform":false}},{"type":"Feature","geometry":{"type":"Point","coordinates":[72.32127,18.69199]},"properties":{"peak_db":-1.4,"area_px":5,"approx_length_m":94,"platform":false}},{"type":"Feature","geometry":{"type":"Point","coordinates":[72.35705,18.67386]},"properties":{"peak_db":3.3,"area_px":8,"approx_length_m":119,"platform":false}},{"type":"Feature","geometry":{"type":"Point","coordinates":[72.33166,18.66858]},"properties":{"peak_db":-1.2,"area_px":8,"approx_length_m":119,"platform":false}},{"type":"Feature","geometry":{"type":"Point","coordinates":[72.27285,18.66757]},"properties":{"peak_db":2.3,"area_px":7,"approx_length_m":111,"platform":false}},{"type":"Feature","geometry":{"type":"Point","coordinates":[72.22594,18.66877]},"properties":{"peak_db":5.5,"area_px":10,"approx_length_m":133,"platform":false}},{"type":"Feature","geometry":{"type":"Point","coordinates":[72.90687,18.53997]},"properties":{"peak_db":-1.1,"area_px":1,"approx_length_m":42,"platform":false}},{"type":"Feature","geometry":{"type":"Point","coordinates":[72.03099,18.69712]},"properties":{"peak_db":-6.4,"area_px":1,"approx_length_m":42,"platform":false}},{"type":"Feature","geometry":{"type":"Point","coordinates":[72.2214,18.66204]},"properties":{"peak_db":3.0,"area_px":8,"approx_length_m":119,"platform":false}},{"type":"Feature","geometry":{"type":"Point","coordinates":[72.21371,18.65875]},"properties":{"peak_db":5.5,"area_px":9,"approx_length_m":126,"platform":false}},{"type":"Feature","geometry":{"type":"Point","coordinates":[72.18154,18.66406]},"properties":{"peak_db":1.8,"area_px":5,"approx_length_m":94,"platform":false}},{"type":"Feature","geometry":{"type":"Point","coordinates":[72.17845,18.66467]},"properties":{"peak_db":1.5,"area_px":2,"approx_length_m":59,"platform":false}},{"type":"Feature","geometry":{"type":"Point","coordinates":[72.17941,18.66267]},"properties":{"peak_db":8.4,"area_px":10,"approx_length_m":133,"platform":false}},{"type":"Feature","geometry":{"type":"Point","coordinates":[72.24881,18.64674]},"properties":{"peak_db":-0.9,"area_px":6,"approx_length_m":103,"platform":false}},{"type":"Feature","geometry":{"type":"Point","coordinates":[72.23346,18.63912]},"properties":{"peak_db":8.6,"area_px":21,"approx_length_m":192,"platform":false}},{"type":"Feature","geometry":{"type":"Point","coordinates":[72.23651,18.63228]},"properties":{"peak_db":4.8,"area_px":10,"approx_length_m":133,"platform":false}},{"type":"Feature","geometry":{"type":"Point","coordinates":[72.17226,18.64103]},"properties":{"peak_db":1.9,"area_px":7,"approx_length_m":111,"platform":false}},{"type":"Feature","geometry":{"type":"Point","coordinates":[72.2485,18.62081]},"properties":{"peak_db":3.4,"area_px":8,"approx_length_m":119,"platform":false}},{"type":"Feature","geometry":{"type":"Point","coordinates":[72.23881,18.61265]},"properties":{"peak_db":5.1,"area_px":6,"approx_length_m":103,"platform":false}},{"type":"Feature","geometry":{"type":"Point","coordinates":[72.26242,18.60697]},"properties":{"peak_db":13.0,"area_px":12,"approx_length_m":145,"platform":false}},{"type":"Feature","geometry":{"type":"Point","coordinates":[72.23272,18.60439]},"properties":{"peak_db":4.3,"area_px":9,"approx_length_m":126,"platform":false}},{"type":"Feature","geometry":{"type":"Point","coordinates":[72.50146,18.54537]},"properties":{"peak_db":0.6,"area_px":3,"approx_length_m":73,"platform":false}},{"type":"Feature","geometry":{"type":"Point","coordinates":[72.5013,18.54455]},"properties":{"peak_db":-7.8,"area_px":1,"approx_length_m":42,"platform":false}},{"type":"Feature","geometry":{"type":"Point","coordinates":[72.70766,18.5058]},"properties":{"peak_db":3.5,"area_px":12,"approx_length_m":145,"platform":false}},{"type":"Feature","geometry":{"type":"Point","coordinates":[72.2128,18.59598]},"properties":{"peak_db":4.5,"area_px":8,"approx_length_m":119,"platform":false}},{"type":"Feature","geometry":{"type":"Point","coordinates":[72.23916,18.58479]},"properties":{"peak_db":13.4,"area_px":18,"approx_length_m":178,"platform":false}},{"type":"Feature","geometry":{"type":"Point","coordinates":[72.24033,18.58323]},"properties":{"peak_db":8.3,"area_px":7,"approx_length_m":111,"platform":false}},{"type":"Feature","geometry":{"type":"Point","coordinates":[72.27864,18.57585]},"properties":{"peak_db":-0.5,"area_px":7,"approx_length_m":111,"platform":false}},{"type":"Feature","geometry":{"type":"Point","coordinates":[72.23878,18.5826]},"properties":{"peak_db":5.9,"area_px":3,"approx_length_m":73,"platform":false}},{"type":"Feature","geometry":{"type":"Point","coordinates":[72.24074,18.57692]},"properties":{"peak_db":-3.9,"area_px":3,"approx_length_m":73,"platform":false}},{"type":"Feature","geometry":{"type":"Point","coordinates":[72.2937,18.56264]},"properties":{"peak_db":3.3,"area_px":14,"approx_length_m":157,"platform":false}},{"type":"Feature","geometry":{"type":"Point","coordinates":[72.2235,18.56954]},"properties":{"peak_db":2.0,"area_px":8,"approx_length_m":119,"platform":false}},{"type":"Feature","geometry":{"type":"Point","coordinates":[72.24853,18.56159]},"properties":{"peak_db":0.1,"area_px":7,"approx_length_m":111,"platform":false}},{"type":"Feature","geometry":{"type":"Point","coordinates":[72.49307,18.50423]},"properties":{"peak_db":27.9,"area_px":20,"approx_length_m":188,"platform":false}},{"type":"Feature","geometry":{"type":"Point","coordinates":[72.22947,18.54591]},"properties":{"peak_db":10.9,"area_px":11,"approx_length_m":139,"platform":false}},{"type":"Feature","geometry":{"type":"Point","coordinates":[72.22357,18.54595]},"properties":{"peak_db":24.3,"area_px":18,"approx_length_m":178,"platform":false}},{"type":"Feature","geometry":{"type":"Point","coordinates":[72.25657,18.5389]},"properties":{"peak_db":2.5,"area_px":7,"approx_length_m":111,"platform":false}},{"type":"Feature","geometry":{"type":"Point","coordinates":[72.79537,18.43883]},"properties":{"peak_db":1.3,"area_px":9,"approx_length_m":126,"platform":false}},{"type":"Feature","geometry":{"type":"Point","coordinates":[72.27856,18.53164]},"properties":{"peak_db":4.2,"area_px":10,"approx_length_m":133,"platform":false}},{"type":"Feature","geometry":{"type":"Point","coordinates":[72.72629,18.44856]},"properties":{"peak_db":8.9,"area_px":11,"approx_length_m":139,"platform":false}},{"type":"Feature","geometry":{"type":"Point","coordinates":[72.2533,18.53262]},"properties":{"peak_db":2.5,"area_px":12,"approx_length_m":145,"platform":false}},{"type":"Feature","geometry":{"type":"Point","coordinates":[72.24645,18.52664]},"properties":{"peak_db":-2.3,"area_px":4,"approx_length_m":84,"platform":false}},{"type":"Feature","geometry":{"type":"Point","coordinates":[72.24112,18.52207]},"properties":{"peak_db":1.9,"area_px":6,"approx_length_m":103,"platform":false}},{"type":"Feature","geometry":{"type":"Point","coordinates":[72.48503,18.46348]},"properties":{"peak_db":-4.1,"area_px":6,"approx_length_m":103,"platform":false}},{"type":"Feature","geometry":{"type":"Point","coordinates":[72.26491,18.5023]},"properties":{"peak_db":3.3,"area_px":9,"approx_length_m":126,"platform":false}},{"type":"Feature","geometry":{"type":"Point","coordinates":[72.2425,18.50429]},"properties":{"peak_db":-3.8,"area_px":4,"approx_length_m":84,"platform":false}},{"type":"Feature","geometry":{"type":"Point","coordinates":[72.24969,18.49824]},"properties":{"peak_db":13.5,"area_px":29,"approx_length_m":226,"platform":false}},{"type":"Feature","geometry":{"type":"Point","coordinates":[72.74888,18.40043]},"properties":{"peak_db":5.0,"area_px":13,"approx_length_m":151,"platform":false}},{"type":"Feature","geometry":{"type":"Point","coordinates":[72.24545,18.49062]},"properties":{"peak_db":8.0,"area_px":18,"approx_length_m":178,"platform":false}},{"type":"Feature","geometry":{"type":"Point","coordinates":[72.25147,18.48611]},"properties":{"peak_db":-1.0,"area_px":6,"approx_length_m":103,"platform":false}},{"type":"Feature","geometry":{"type":"Point","coordinates":[71.61361,18.59399]},"properties":{"peak_db":20.2,"area_px":27,"approx_length_m":218,"platform":false}},{"type":"Feature","geometry":{"type":"Point","coordinates":[71.90796,18.5273]},"properties":{"peak_db":-7.9,"area_px":1,"approx_length_m":42,"platform":false}},{"type":"Feature","geometry":{"type":"Point","coordinates":[71.92348,18.5077]},"properties":{"peak_db":-6.1,"area_px":1,"approx_length_m":42,"platform":false}},{"type":"Feature","geometry":{"type":"Point","coordinates":[72.93127,18.32224]},"properties":{"peak_db":-3.7,"area_px":23,"approx_length_m":201,"platform":false}},{"type":"Feature","geometry":{"type":"Point","coordinates":[72.54222,18.3805]},"properties":{"peak_db":16.2,"area_px":26,"approx_length_m":214,"platform":false}},{"type":"Feature","geometry":{"type":"Point","coordinates":[71.6044,18.54354]},"properties":{"peak_db":-6.0,"area_px":3,"approx_length_m":73,"platform":false}},{"type":"Feature","geometry":{"type":"Point","coordinates":[72.7529,18.32888]},"properties":{"peak_db":-4.8,"area_px":2,"approx_length_m":59,"platform":false}},{"type":"Feature","geometry":{"type":"Point","coordinates":[72.91446,18.2724]},"properties":{"peak_db":-7.7,"area_px":1,"approx_length_m":42,"platform":false}},{"type":"Feature","geometry":{"type":"Point","coordinates":[71.92268,18.42153]},"properties":{"peak_db":-7.9,"area_px":1,"approx_length_m":42,"platform":false}},{"type":"Feature","geometry":{"type":"Point","coordinates":[71.9437,18.40652]},"properties":{"peak_db":-6.0,"area_px":1,"approx_length_m":42,"platform":false}},{"type":"Feature","geometry":{"type":"Point","coordinates":[72.55678,18.27863]},"properties":{"peak_db":7.5,"area_px":17,"approx_length_m":173,"platform":false}},{"type":"Feature","geometry":{"type":"Point","coordinates":[72.36298,18.31079]},"properties":{"peak_db":3.3,"area_px":10,"approx_length_m":133,"platform":false}},{"type":"Feature","geometry":{"type":"Point","coordinates":[72.87679,18.21235]},"properties":{"peak_db":0.8,"area_px":4,"approx_length_m":84,"platform":false}},{"type":"Feature","geometry":{"type":"Point","coordinates":[72.37913,18.27421]},"properties":{"peak_db":5.3,"area_px":19,"approx_length_m":183,"platform":false}},{"type":"Feature","geometry":{"type":"Point","coordinates":[72.27167,18.25912]},"properties":{"peak_db":7.1,"area_px":8,"approx_length_m":119,"platform":false}},{"type":"Feature","geometry":{"type":"Point","coordinates":[71.38029,18.37685]},"properties":{"peak_db":11.3,"area_px":20,"approx_length_m":188,"platform":false}},{"type":"Feature","geometry":{"type":"Point","coordinates":[72.35919,18.18457]},"properties":{"peak_db":2.1,"area_px":5,"approx_length_m":94,"platform":false}},{"type":"Feature","geometry":{"type":"Point","coordinates":[72.4208,18.13602]},"properties":{"peak_db":5.1,"area_px":8,"approx_length_m":119,"platform":false}},{"type":"Feature","geometry":{"type":"Point","coordinates":[72.36741,18.14211]},"properties":{"peak_db":12.8,"area_px":24,"approx_length_m":206,"platform":false}}],"properties":{"method":"two-window CFAR, 30 m, 9.0 dB over local background","validated":false}}