{"type":"FeatureCollection","features":[{"type":"Feature","geometry":{"type":"MultiPolygon","coordinates":[[[[72.523471,19.123737],[72.524844,19.123737],[72.524844,19.12305],[72.523471,19.12305],[72.523471,19.123737]]],[[[72.520724,19.094211],[72.521411,19.094211],[72.521411,19.092838],[72.520724,19.092838],[72.520724,19.094211]]],[[[72.513171,19.043399],[72.514545,19.043399],[72.514545,19.042712],[72.515231,19.042712],[72.515231,19.042026],[72.515918,19.042026],[72.515918,19.039279],[72.516605,19.039279],[72.516605,19.038593],[72.517291,19.038593],[72.517291,19.037219],[72.516605,19.037219],[72.516605,19.036533],[72.515918,19.036533],[72.515918,19.035846],[72.515231,19.035846],[72.515231,19.038593],[72.514545,19.038593],[72.514545,19.039966],[72.513858,19.039966],[72.513858,19.041339],[72.514545,19.041339],[72.514545,19.042026],[72.513858,19.042026],[72.513858,19.042712],[72.513171,19.042712],[72.513171,19.043399]]],[[[72.513171,19.069492],[72.513858,19.069492],[72.513858,19.068118],[72.514545,19.068118],[72.514545,19.067432],[72.515231,19.067432],[72.515231,19.066745],[72.514545,19.066745],[72.514545,19.066058],[72.513171,19.066058],[72.513171,19.069492]]],[[[72.499438,19.075671],[72.502872,19.075671],[72.502872,19.074985],[72.504245,19.074985],[72.504245,19.074298],[72.504932,19.074298],[72.504932,19.072925],[72.506305,19.072925],[72.506305,19.072238],[72.507678,19.072238],[72.507678,19.071552],[72.508365,19.071552],[72.508365,19.066745],[72.509052,19.066745],[72.509052,19.063998],[72.509738,19.063998],[72.509738,19.063312],[72.512485,19.063312],[72.512485,19.060565],[72.511111,19.060565],[72.511111,19.058505],[72.511798,19.058505],[72.511798,19.057819],[72.513171,19.057819],[72.513171,19.057132],[72.513858,19.057132],[72.513858,19.055072],[72.514545,19.055072],[72.514545,19.054385],[72.515231,19.054385],[72.515231,19.053699],[72.513858,19.053699],[72.513858,19.052325],[72.514545,19.052325],[72.514545,19.050952],[72.513858,19.050952],[72.513858,19.050266],[72.513171,19.050266],[72.513171,19.048206],[72.511111,19.048206],[72.511111,19.046832],[72.512485,19.046832],[72.512485,19.046146],[72.513171,19.046146],[72.513171,19.044772],[72.512485,19.044772],[72.512485,19.045459],[72.510425,19.045459],[72.510425,19.041339],[72.509738,19.041339],[72.509738,19.035846],[72.509052,19.035846],[72.509052,19.038593],[72.508365,19.038593],[72.508365,19.039279],[72.507678,19.039279],[72.507678,19.039966],[72.508365,19.039966],[72.508365,19.040652],[72.507678,19.040652],[72.507678,19.041339],[72.508365,19.041339],[72.508365,19.042712],[72.507678,19.042712],[72.507678,19.043399],[72.506992,19.043399],[72.506992,19.044086],[72.506305,19.044086],[72.506305,19.045459],[72.507678,19.045459],[72.507678,19.046832],[72.506305,19.046832],[72.506305,19.048206],[72.506992,19.048206],[72.506992,19.050266],[72.506305,19.050266],[72.506305,19.051639],[72.505618,19.051639],[72.505618,19.053012],[72.504932,19.053012],[72.504932,19.055759],[72.503558,19.055759],[72.503558,19.058505],[72.502872,19.058505],[72.502872,19.059192],[72.502185,19.059192],[72.502185,19.060565],[72.501498,19.060565],[72.501498,19.063312],[72.500812,19.063312],[72.500812,19.070865],[72.500125,19.070865],[72.500125,19.072238],[72.500812,19.072238],[72.500812,19.073611],[72.500125,19.073611],[72.500125,19.074985],[72.499438,19.074985],[72.499438,19.075671]],[[72.504245,19.057819],[72.504245,19.057132],[72.504932,19.057132],[72.504932,19.057819],[72.504245,19.057819]],[[72.501498,19.072238],[72.501498,19.071552],[72.502185,19.071552],[72.502185,19.072238],[72.501498,19.072238]]],[[[72.506305,19.050266],[72.506305,19.048206],[72.505618,19.048206],[72.505618,19.048892],[72.504932,19.048892],[72.504932,19.050266],[72.506305,19.050266]]],[[[72.511798,19.071552],[72.512485,19.071552],[72.512485,19.070865],[72.511798,19.070865],[72.511798,19.071552]]],[[[72.512485,19.070865],[72.513171,19.070865],[72.513171,19.070178],[72.512485,19.070178],[72.512485,19.070865]]],[[[72.509738,19.092151],[72.510425,19.092151],[72.510425,19.091464],[72.511111,19.091464],[72.511111,19.090778],[72.511798,19.090778],[72.511798,19.090091],[72.512485,19.090091],[72.512485,19.089404],[72.513171,19.089404],[72.513171,19.088718],[72.511111,19.088718],[72.511111,19.090091],[72.510425,19.090091],[72.510425,19.090778],[72.509738,19.090778],[72.509738,19.092151]]],[[[72.493259,19.11687],[72.493945,19.11687],[72.493945,19.116183],[72.494632,19.116183],[72.494632,19.11481],[72.497379,19.11481],[72.497379,19.11275],[72.498065,19.11275],[72.498065,19.111377],[72.498752,19.111377],[72.498752,19.110004],[72.499438,19.110004],[72.499438,19.109317],[72.500125,19.109317],[72.500125,19.107257],[72.500812,19.107257],[72.500812,19.105884],[72.500125,19.105884],[72.500125,19.105197],[72.500812,19.105197],[72.500812,19.103137],[72.501498,19.103137],[72.501498,19.102451],[72.502185,19.102451],[72.502185,19.101077],[72.501498,19.101077],[72.501498,19.101764],[72.500812,19.101764],[72.500812,19.102451],[72.499438,19.102451],[72.499438,19.103137],[72.498752,19.103137],[72.498752,19.107257],[72.498065,19.107257],[72.498065,19.109317],[72.497379,19.109317],[72.497379,19.11069],[72.495319,19.11069],[72.495319,19.112064],[72.493945,19.112064],[72.493945,19.11481],[72.493259,19.11481],[72.493259,19.11687]]],[[[72.477466,19.083911],[72.478152,19.083911],[72.478152,19.083224],[72.477466,19.083224],[72.477466,19.083911]]],[[[72.478152,19.083224],[72.482959,19.083224],[72.482959,19.082538],[72.483646,19.082538],[72.483646,19.081851],[72.484332,19.081851],[72.484332,19.081165],[72.485706,19.081165],[72.485706,19.080478],[72.486392,19.080478],[72.486392,19.079791],[72.487079,19.079791],[72.487079,19.079105],[72.487766,19.079105],[72.487766,19.078418],[72.488452,19.078418],[72.488452,19.077731],[72.489825,19.077731],[72.489825,19.077045],[72.491199,19.077045],[72.491199,19.076358],[72.491885,19.076358],[72.491885,19.075671],[72.492572,19.075671],[72.492572,19.074985],[72.493945,19.074985],[72.493945,19.073611],[72.496005,19.073611],[72.496005,19.074985],[72.494632,19.074985],[72.494632,19.076358],[72.493945,19.076358],[72.493945,19.077045],[72.491885,19.077045],[72.491885,19.078418],[72.493259,19.078418],[72.493259,19.079105],[72.493945,19.079105],[72.493945,19.078418],[72.494632,19.078418],[72.494632,19.077731],[72.496005,19.077731],[72.496005,19.079791],[72.496692,19.079791],[72.496692,19.079105],[72.497379,19.079105],[72.497379,19.077731],[72.496692,19.077731],[72.496692,19.076358],[72.497379,19.076358],[72.497379,19.075671],[72.498065,19.075671],[72.498065,19.074985],[72.498752,19.074985],[72.498752,19.073611],[72.498065,19.073611],[72.498065,19.071552],[72.498752,19.071552],[72.498752,19.070178],[72.499438,19.070178],[72.499438,19.069492],[72.498752,19.069492],[72.498752,19.068805],[72.499438,19.068805],[72.499438,19.066745],[72.500125,19.066745],[72.500125,19.065372],[72.499438,19.065372],[72.499438,19.064685],[72.500125,19.064685],[72.500125,19.061252],[72.499438,19.061252],[72.499438,19.061938],[72.498752,19.061938],[72.498752,19.062625],[72.498065,19.062625],[72.498065,19.063312],[72.497379,19.063312],[72.497379,19.063998],[72.496005,19.063998],[72.496005,19.064685],[72.495319,19.064685],[72.495319,19.065372],[72.493259,19.065372],[72.493259,19.066745],[72.492572,19.066745],[72.492572,19.068118],[72.491199,19.068118],[72.491199,19.068805],[72.490512,19.068805],[72.490512,19.069492],[72.488452,19.069492],[72.488452,19.070178],[72.487766,19.070178],[72.487766,19.071552],[72.487079,19.071552],[72.487079,19.072925],[72.485706,19.072925],[72.485706,19.073611],[72.485019,19.073611],[72.485019,19.076358],[72.483646,19.076358],[72.483646,19.077731],[72.482272,19.077731],[72.482272,19.079791],[72.481586,19.079791],[72.481586,19.080478],[72.480899,19.080478],[72.480899,19.081165],[72.480212,19.081165],[72.480212,19.081851],[72.478839,19.081851],[72.478839,19.082538],[72.478152,19.082538],[72.478152,19.083224]],[[72.494632,19.071552],[72.494632,19.070865],[72.495319,19.070865],[72.495319,19.071552],[72.494632,19.071552]],[[72.483646,19.079105],[72.483646,19.078418],[72.485019,19.078418],[72.485019,19.079105],[72.483646,19.079105]]],[[[72.496005,19.079791],[72.495319,19.079791],[72.495319,19.080478],[72.496005,19.080478],[72.496005,19.079791]]],[[[72.493259,19.079105],[72.492572,19.079105],[72.492572,19.079791],[72.491885,19.079791],[72.491885,19.080478],[72.491199,19.080478],[72.491199,19.081165],[72.493259,19.081165],[72.493259,19.079105]]],[[[72.491885,19.078418],[72.491199,19.078418],[72.491199,19.079105],[72.491885,19.079105],[72.491885,19.078418]]],[[[72.492572,19.118243],[72.493259,19.118243],[72.493259,19.117557],[72.492572,19.117557],[72.492572,19.118243]]],[[[72.488452,19.127856],[72.489139,19.127856],[72.489139,19.12717],[72.490512,19.12717],[72.490512,19.126483],[72.491199,19.126483],[72.491199,19.123737],[72.491885,19.123737],[72.491885,19.122363],[72.492572,19.122363],[72.492572,19.120303],[72.491885,19.120303],[72.491885,19.12099],[72.491199,19.12099],[72.491199,19.121677],[72.489825,19.121677],[72.489825,19.122363],[72.488452,19.122363],[72.488452,19.12305],[72.489139,19.12305],[72.489139,19.123737],[72.489825,19.123737],[72.489825,19.124423],[72.489139,19.124423],[72.489139,19.12511],[72.488452,19.12511],[72.488452,19.127856]]],[[[72.486392,19.130603],[72.487766,19.130603],[72.487766,19.129916],[72.486392,19.129916],[72.486392,19.130603]]],[[[72.487766,19.129916],[72.489825,19.129916],[72.489825,19.12923],[72.487766,19.12923],[72.487766,19.129916]]],[[[72.485706,19.132663],[72.486392,19.132663],[72.486392,19.131976],[72.485706,19.131976],[72.485706,19.132663]]],[[[72.486392,19.132663],[72.486392,19.13335],[72.487766,19.13335],[72.487766,19.132663],[72.486392,19.132663]]],[[[72.484332,19.137469],[72.485706,19.137469],[72.485706,19.136783],[72.484332,19.136783],[72.484332,19.137469]]],[[[72.485706,19.136783],[72.487079,19.136783],[72.487079,19.134723],[72.486392,19.134723],[72.486392,19.13541],[72.485706,19.13541],[72.485706,19.136783]]],[[[72.485019,19.141589],[72.485706,19.141589],[72.485706,19.140903],[72.485019,19.140903],[72.485019,19.141589]]],[[[72.483646,19.144336],[72.484332,19.144336],[72.484332,19.143649],[72.483646,19.143649],[72.483646,19.144336]]],[[[72.483646,19.142963],[72.484332,19.142963],[72.484332,19.142276],[72.483646,19.142276],[72.483646,19.142963]]],[[[72.479526,19.085284],[72.480212,19.085284],[72.480212,19.084598],[72.479526,19.084598],[72.479526,19.085284]]],[[[72.478839,19.304324],[72.480212,19.304324],[72.480212,19.303638],[72.478839,19.303638],[72.478839,19.304324]]],[[[72.44794,19.631854],[72.448627,19.631854],[72.448627,19.631168],[72.452747,19.631168],[72.452747,19.630481],[72.45412,19.630481],[72.45412,19.629794],[72.454807,19.629794],[72.454807,19.627734],[72.455493,19.627734],[72.455493,19.627048],[72.454807,19.627048],[72.454807,19.626361],[72.455493,19.626361],[72.455493,19.624988],[72.45618,19.624988],[72.45618,19.624301],[72.456866,19.624301],[72.456866,19.621555],[72.457553,19.621555],[72.457553,19.620181],[72.45824,19.620181],[72.45824,19.618808],[72.458926,19.618808],[72.458926,19.618121],[72.459613,19.618121],[72.459613,19.617435],[72.4603,19.617435],[72.4603,19.616061],[72.460986,19.616061],[72.460986,19.613315],[72.461673,19.613315],[72.461673,19.612628],[72.46236,19.612628],[72.46236,19.611255],[72.463046,19.611255],[72.463046,19.608508],[72.463733,19.608508],[72.463733,19.606448],[72.46442,19.606448],[72.46442,19.604388],[72.465106,19.604388],[72.465106,19.603015],[72.465793,19.603015],[72.465793,19.601642],[72.467166,19.601642],[72.467166,19.600955],[72.467853,19.600955],[72.467853,19.597522],[72.468539,19.597522],[72.468539,19.596149],[72.469226,19.596149],[72.469226,19.595462],[72.469913,19.595462],[72.469913,19.594089],[72.469226,19.594089],[72.469226,19.592715],[72.469913,19.592715],[72.469913,19.589282],[72.470599,19.589282],[72.470599,19.585162],[72.471286,19.585162],[72.471286,19.584476],[72.471973,19.584476],[72.471973,19.581042],[72.472659,19.581042],[72.472659,19.579669],[72.473346,19.579669],[72.473346,19.578983],[72.474033,19.578983],[72.474033,19.578296],[72.472659,19.578296],[72.472659,19.576923],[72.474033,19.576923],[72.474033,19.576236],[72.474719,19.576236],[72.474719,19.574863],[72.473346,19.574863],[72.473346,19.574176],[72.472659,19.574176],[72.472659,19.573489],[72.473346,19.573489],[72.473346,19.572803],[72.474719,19.572803],[72.474719,19.571429],[72.475406,19.571429],[72.475406,19.570056],[72.474719,19.570056],[72.474719,19.56937],[72.474033,19.56937],[72.474033,19.568683],[72.474719,19.568683],[72.474719,19.56525],[72.475406,19.56525],[72.475406,19.556323],[72.476093,19.556323],[72.476093,19.55083],[72.475406,19.55083],[72.475406,19.550143],[72.476093,19.550143],[72.476093,19.54259],[72.476779,19.54259],[72.476779,19.541904],[72.477466,19.541904],[72.477466,19.532291],[72.478152,19.532291],[72.478152,19.529544],[72.478839,19.529544],[72.478839,19.524051],[72.478152,19.524051],[72.478152,19.521991],[72.478839,19.521991],[72.478839,19.521304],[72.478152,19.521304],[72.478152,19.520618],[72.477466,19.520618],[72.477466,19.519244],[72.476779,19.519244],[72.476779,19.518558],[72.477466,19.518558],[72.477466,19.514438],[72.478152,19.514438],[72.478152,19.512378],[72.477466,19.512378],[72.477466,19.511691],[72.476779,19.511691],[72.476779,19.511005],[72.477466,19.511005],[72.477466,19.510318],[72.478152,19.510318],[72.478152,19.511005],[72.478839,19.511005],[72.478839,19.509631],[72.476093,19.509631],[72.476093,19.508945],[72.474719,19.508945],[72.474719,19.504825],[72.473346,19.504825],[72.473346,19.501392],[72.472659,19.501392],[72.472659,19.499332],[72.471973,19.499332],[72.471973,19.497958],[72.471286,19.497958],[72.471286,19.497272],[72.470599,19.497272],[72.470599,19.495898],[72.469913,19.495898],[72.469913,19.495212],[72.468539,19.495212],[72.468539,19.493839],[72.467853,19.493839],[72.467853,19.491779],[72.468539,19.491779],[72.468539,19.489719],[72.467853,19.489719],[72.467853,19.488345],[72.467166,19.488345],[72.467166,19.487659],[72.466479,19.487659],[72.466479,19.486285],[72.465793,19.486285],[72.465793,19.484912],[72.465106,19.484912],[72.465106,19.483539],[72.46442,19.483539],[72.46442,19.482852],[72.463733,19.482852],[72.463733,19.482166],[72.46442,19.482166],[72.46442,19.480792],[72.465106,19.480792],[72.465106,19.476672],[72.46442,19.476672],[72.46442,19.474612],[72.463733,19.474612],[72.463733,19.473926],[72.46442,19.473926],[72.46442,19.473239],[72.465106,19.473239],[72.465106,19.471866],[72.465793,19.471866],[72.465793,19.467746],[72.465106,19.467746],[72.465106,19.468433],[72.463733,19.468433],[72.463733,19.469806],[72.463046,19.469806],[72.463046,19.469119],[72.461673,19.469119],[72.461673,19.469806],[72.460986,19.469806],[72.460986,19.470493],[72.458926,19.470493],[72.458926,19.471179],[72.457553,19.471179],[72.457553,19.472552],[72.456866,19.472552],[72.456866,19.473239],[72.455493,19.473239],[72.455493,19.475986],[72.45618,19.475986],[72.45618,19.477359],[72.456866,19.477359],[72.456866,19.478732],[72.45618,19.478732],[72.45618,19.479419],[72.453433,19.479419],[72.453433,19.480792],[72.452747,19.480792],[72.452747,19.482166],[72.45412,19.482166],[72.45412,19.482852],[72.453433,19.482852],[72.453433,19.483539],[72.452747,19.483539],[72.452747,19.486285],[72.45412,19.486285],[72.45412,19.486972],[72.453433,19.486972],[72.453433,19.488345],[72.452747,19.488345],[72.452747,19.489719],[72.45412,19.489719],[72.45412,19.490405],[72.453433,19.490405],[72.453433,19.491092],[72.451373,19.491092],[72.451373,19.491779],[72.453433,19.491779],[72.453433,19.492465],[72.45206,19.492465],[72.45206,19.493839],[72.451373,19.493839],[72.451373,19.495212],[72.452747,19.495212],[72.452747,19.494525],[72.45412,19.494525],[72.45412,19.495898],[72.454807,19.495898],[72.454807,19.495212],[72.45618,19.495212],[72.45618,19.494525],[72.456866,19.494525],[72.456866,19.495212],[72.457553,19.495212],[72.457553,19.496585],[72.45824,19.496585],[72.45824,19.498645],[72.458926,19.498645],[72.458926,19.499332],[72.45824,19.499332],[72.45824,19.500018],[72.457553,19.500018],[72.457553,19.505511],[72.4603,19.505511],[72.4603,19.506198],[72.460986,19.506198],[72.460986,19.506885],[72.4603,19.506885],[72.4603,19.507571],[72.460986,19.507571],[72.460986,19.509631],[72.459613,19.509631],[72.459613,19.510318],[72.461673,19.510318],[72.461673,19.514438],[72.460986,19.514438],[72.460986,19.515125],[72.461673,19.515125],[72.461673,19.516498],[72.46236,19.516498],[72.46236,19.515811],[72.463046,19.515811],[72.463046,19.515125],[72.465106,19.515125],[72.465106,19.515811],[72.465793,19.515811],[72.465793,19.517184],[72.466479,19.517184],[72.466479,19.517871],[72.467166,19.517871],[72.467166,19.519931],[72.467853,19.519931],[72.467853,19.522678],[72.468539,19.522678],[72.468539,19.523364],[72.467853,19.523364],[72.467853,19.525424],[72.466479,19.525424],[72.466479,19.526797],[72.467166,19.526797],[72.467166,19.527484],[72.465793,19.527484],[72.465793,19.530231],[72.465106,19.530231],[72.465106,19.533664],[72.465793,19.533664],[72.465793,19.535037],[72.465106,19.535037],[72.465106,19.537784],[72.465793,19.537784],[72.465793,19.539157],[72.467166,19.539157],[72.467166,19.53847],[72.467853,19.53847],[72.467853,19.539844],[72.466479,19.539844],[72.466479,19.54053],[72.467166,19.54053],[72.467166,19.541904],[72.466479,19.541904],[72.466479,19.54259],[72.467853,19.54259],[72.467853,19.54465],[72.468539,19.54465],[72.468539,19.545337],[72.467853,19.545337],[72.467853,19.54671],[72.467166,19.54671],[72.467166,19.546024],[72.466479,19.546024],[72.466479,19.547397],[72.467853,19.547397],[72.467853,19.549457],[72.466479,19.549457],[72.466479,19.552203],[72.467166,19.552203],[72.467166,19.55289],[72.467853,19.55289],[72.467853,19.555637],[72.468539,19.555637],[72.468539,19.55701],[72.467853,19.55701],[72.467853,19.558383],[72.467166,19.558383],[72.467166,19.55907],[72.467853,19.55907],[72.467853,19.561816],[72.467166,19.561816],[72.467166,19.56319],[72.466479,19.56319],[72.466479,19.564563],[72.467166,19.564563],[72.467166,19.56525],[72.466479,19.56525],[72.466479,19.565936],[72.467853,19.565936],[72.467853,19.566623],[72.468539,19.566623],[72.468539,19.56731],[72.469226,19.56731],[72.469226,19.568683],[72.468539,19.568683],[72.468539,19.56937],[72.467853,19.56937],[72.467853,19.571429],[72.466479,19.571429],[72.466479,19.572803],[72.465793,19.572803],[72.465793,19.573489],[72.465106,19.573489],[72.465106,19.574176],[72.465793,19.574176],[72.465793,19.574863],[72.465106,19.574863],[72.465106,19.578296],[72.46442,19.578296],[72.46442,19.584476],[72.465106,19.584476],[72.465106,19.585162],[72.465793,19.585162],[72.465793,19.585849],[72.465106,19.585849],[72.465106,19.586536],[72.46442,19.586536],[72.46442,19.587909],[72.465106,19.587909],[72.465106,19.588596],[72.46442,19.588596],[72.46442,19.590656],[72.463733,19.590656],[72.463733,19.592029],[72.463046,19.592029],[72.463046,19.592715],[72.463733,19.592715],[72.463733,19.593402],[72.463046,19.593402],[72.463046,19.594089],[72.46236,19.594089],[72.46236,19.595462],[72.463046,19.595462],[72.463046,19.596149],[72.46236,19.596149],[72.46236,19.596835],[72.461673,19.596835],[72.461673,19.599582],[72.46236,19.599582],[72.46236,19.600269],[72.460986,19.600269],[72.460986,19.600955],[72.459613,19.600955],[72.459613,19.601642],[72.458926,19.601642],[72.458926,19.602328],[72.45824,19.602328],[72.45824,19.603015],[72.458926,19.603015],[72.458926,19.604388],[72.457553,19.604388],[72.457553,19.606448],[72.456866,19.606448],[72.456866,19.608508],[72.45618,19.608508],[72.45618,19.609882],[72.455493,19.609882],[72.455493,19.611255],[72.454807,19.611255],[72.454807,19.611942],[72.45412,19.611942],[72.45412,19.614688],[72.453433,19.614688],[72.453433,19.615375],[72.454807,19.615375],[72.454807,19.616061],[72.45412,19.616061],[72.45412,19.616748],[72.453433,19.616748],[72.453433,19.617435],[72.452747,19.617435],[72.452747,19.618121],[72.451373,19.618121],[72.451373,19.620868],[72.450687,19.620868],[72.450687,19.622241],[72.45,19.622241],[72.45,19.624301],[72.449313,19.624301],[72.449313,19.625674],[72.448627,19.625674],[72.448627,19.626361],[72.44794,19.626361],[72.44794,19.627048],[72.449313,19.627048],[72.449313,19.628421],[72.448627,19.628421],[72.448627,19.629794],[72.44794,19.629794],[72.44794,19.631854]],[[72.467166,19.537097],[72.467166,19.536411],[72.467853,19.536411],[72.467853,19.537097],[72.467166,19.537097]],[[72.46442,19.512378],[72.46442,19.511691],[72.465106,19.511691],[72.465106,19.512378],[72.46442,19.512378]],[[72.465106,19.512378],[72.465793,19.512378],[72.465793,19.513065],[72.465106,19.513065],[72.465106,19.512378]],[[72.46236,19.487659],[72.46236,19.486972],[72.463046,19.486972],[72.463046,19.487659],[72.46236,19.487659]],[[72.460986,19.505511],[72.460986,19.504825],[72.461673,19.504825],[72.461673,19.505511],[72.460986,19.505511]],[[72.455493,19.484225],[72.455493,19.483539],[72.454807,19.483539],[72.454807,19.482852],[72.45618,19.482852],[72.45618,19.484225],[72.455493,19.484225]]],[[[72.467853,19.55701],[72.467853,19.556323],[72.466479,19.556323],[72.466479,19.55701],[72.467853,19.55701]]],[[[72.466479,19.517871],[72.465793,19.517871],[72.465793,19.518558],[72.466479,19.518558],[72.466479,19.517871]]],[[[72.476779,19.306384],[72.477466,19.306384],[72.477466,19.305698],[72.476779,19.305698],[72.476779,19.306384]]],[[[72.476093,19.183475],[72.476779,19.183475],[72.476779,19.182101],[72.476093,19.182101],[72.476093,19.183475]]],[[[72.476779,19.182101],[72.477466,19.182101],[72.477466,19.181415],[72.476779,19.181415],[72.476779,19.182101]]],[[[72.476093,19.087344],[72.476779,19.087344],[72.476779,19.085971],[72.476093,19.085971],[72.476093,19.087344]]],[[[72.473346,19.401828],[72.474033,19.401828],[72.474033,19.401141],[72.474719,19.401141],[72.474719,19.400455],[72.475406,19.400455],[72.475406,19.399768],[72.473346,19.399768],[72.473346,19.401828]]],[[[72.452747,19.451953],[72.46442,19.451953],[72.46442,19.449207],[72.463733,19.449207],[72.463733,19.445773],[72.46442,19.445773],[72.46442,19.445087],[72.465106,19.445087],[72.465106,19.44234],[72.46442,19.44234],[72.46442,19.4341],[72.465106,19.4341],[72.465106,19.43204],[72.46442,19.43204],[72.46442,19.431354],[72.465106,19.431354],[72.465106,19.42998],[72.465793,19.42998],[72.465793,19.428607],[72.465106,19.428607],[72.465106,19.427921],[72.465793,19.427921],[72.465793,19.424487],[72.466479,19.424487],[72.466479,19.423801],[72.465793,19.423801],[72.465793,19.422427],[72.466479,19.422427],[72.466479,19.421054],[72.467166,19.421054],[72.467166,19.420367],[72.467853,19.420367],[72.467853,19.416248],[72.468539,19.416248],[72.468539,19.415561],[72.469226,19.415561],[72.469226,19.412814],[72.468539,19.412814],[72.468539,19.412128],[72.469226,19.412128],[72.469226,19.411441],[72.469913,19.411441],[72.469913,19.410754],[72.470599,19.410754],[72.470599,19.410068],[72.471286,19.410068],[72.471286,19.409381],[72.469913,19.409381],[72.469913,19.410068],[72.469226,19.410068],[72.469226,19.407321],[72.469913,19.407321],[72.469913,19.405948],[72.470599,19.405948],[72.470599,19.405261],[72.471973,19.405261],[72.471973,19.404575],[72.472659,19.404575],[72.472659,19.402515],[72.471973,19.402515],[72.471973,19.401828],[72.471286,19.401828],[72.471286,19.401141],[72.469913,19.401141],[72.469913,19.400455],[72.469226,19.400455],[72.469226,19.397021],[72.468539,19.397021],[72.468539,19.392902],[72.467166,19.392902],[72.467166,19.392215],[72.467853,19.392215],[72.467853,19.391528],[72.468539,19.391528],[72.468539,19.390155],[72.467853,19.390155],[72.467853,19.389468],[72.466479,19.389468],[72.466479,19.388095],[72.467166,19.388095],[72.467166,19.387408],[72.467853,19.387408],[72.467853,19.386722],[72.468539,19.386722],[72.468539,19.386035],[72.469226,19.386035],[72.469226,19.384662],[72.467853,19.384662],[72.467853,19.383289],[72.469226,19.383289],[72.469226,19.382602],[72.468539,19.382602],[72.468539,19.381915],[72.467853,19.381915],[72.467853,19.380542],[72.468539,19.380542],[72.468539,19.377795],[72.466479,19.377795],[72.466479,19.375049],[72.467166,19.375049],[72.467166,19.374362],[72.465106,19.374362],[72.465106,19.373676],[72.46442,19.373676],[72.46442,19.372302],[72.465106,19.372302],[72.465106,19.370929],[72.46442,19.370929],[72.46442,19.368869],[72.465106,19.368869],[72.465106,19.368182],[72.466479,19.368182],[72.466479,19.364749],[72.465793,19.364749],[72.465793,19.362003],[72.465106,19.362003],[72.465106,19.360629],[72.465793,19.360629],[72.465793,19.359943],[72.467166,19.359943],[72.467166,19.359256],[72.465793,19.359256],[72.465793,19.357883],[72.466479,19.357883],[72.466479,19.356509],[72.465793,19.356509],[72.465793,19.355823],[72.465106,19.355823],[72.465106,19.353076],[72.465793,19.353076],[72.465793,19.35239],[72.465106,19.35239],[72.465106,19.35033],[72.465793,19.35033],[72.465793,19.349643],[72.466479,19.349643],[72.466479,19.347583],[72.467166,19.347583],[72.467166,19.345523],[72.466479,19.345523],[72.466479,19.34415],[72.467166,19.34415],[72.467166,19.342776],[72.466479,19.342776],[72.466479,19.340717],[72.467166,19.340717],[72.467166,19.34003],[72.467853,19.34003],[72.467853,19.33797],[72.465793,19.33797],[72.465793,19.337283],[72.466479,19.337283],[72.466479,19.334537],[72.465793,19.334537],[72.465793,19.33385],[72.466479,19.33385],[72.466479,19.332477],[72.465106,19.332477],[72.465106,19.330417],[72.465793,19.330417],[72.465793,19.329044],[72.466479,19.329044],[72.466479,19.322177],[72.465793,19.322177],[72.465793,19.318744],[72.466479,19.318744],[72.466479,19.318057],[72.467166,19.318057],[72.467166,19.317371],[72.467853,19.317371],[72.467853,19.316684],[72.468539,19.316684],[72.468539,19.315997],[72.467853,19.315997],[72.467853,19.314624],[72.469226,19.314624],[72.469226,19.311191],[72.469913,19.311191],[72.469913,19.309818],[72.467853,19.309818],[72.467853,19.307071],[72.466479,19.307071],[72.466479,19.305698],[72.465793,19.305698],[72.465793,19.302264],[72.465106,19.302264],[72.465106,19.300891],[72.465793,19.300891],[72.465793,19.298831],[72.465106,19.298831],[72.465106,19.299518],[72.463733,19.299518],[72.463733,19.296085],[72.463046,19.296085],[72.463046,19.298145],[72.461673,19.298145],[72.461673,19.297458],[72.460986,19.297458],[72.460986,19.294025],[72.4603,19.294025],[72.4603,19.292651],[72.460986,19.292651],[72.460986,19.290591],[72.461673,19.290591],[72.461673,19.287845],[72.46236,19.287845],[72.46236,19.281665],[72.461673,19.281665],[72.461673,19.280292],[72.460986,19.280292],[72.460986,19.279605],[72.461673,19.279605],[72.461673,19.278918],[72.46236,19.278918],[72.46236,19.276172],[72.463046,19.276172],[72.463046,19.274799],[72.463733,19.274799],[72.463733,19.274112],[72.463046,19.274112],[72.463046,19.268619],[72.463733,19.268619],[72.463733,19.267245],[72.46442,19.267245],[72.46442,19.263126],[72.465106,19.263126],[72.465106,19.260379],[72.465793,19.260379],[72.465793,19.255573],[72.466479,19.255573],[72.466479,19.254886],[72.465793,19.254886],[72.465793,19.252826],[72.466479,19.252826],[72.466479,19.250766],[72.465793,19.250766],[72.465793,19.247333],[72.466479,19.247333],[72.466479,19.246646],[72.465793,19.246646],[72.465793,19.243213],[72.466479,19.243213],[72.466479,19.238406],[72.465793,19.238406],[72.465793,19.232227],[72.466479,19.232227],[72.466479,19.230167],[72.467166,19.230167],[72.467166,19.22948],[72.467853,19.22948],[72.467853,19.228107],[72.466479,19.228107],[72.466479,19.228793],[72.465106,19.228793],[72.465106,19.230167],[72.463046,19.230167],[72.463046,19.230853],[72.46236,19.230853],[72.46236,19.232913],[72.461673,19.232913],[72.461673,19.2336],[72.460986,19.2336],[72.460986,19.234286],[72.4603,19.234286],[72.4603,19.234973],[72.458926,19.234973],[72.458926,19.23566],[72.457553,19.23566],[72.457553,19.236346],[72.456866,19.236346],[72.456866,19.237033],[72.45618,19.237033],[72.45618,19.23772],[72.455493,19.23772],[72.455493,19.238406],[72.454807,19.238406],[72.454807,19.23978],[72.45412,19.23978],[72.45412,19.241153],[72.453433,19.241153],[72.453433,19.242526],[72.45412,19.242526],[72.45412,19.2439],[72.453433,19.2439],[72.453433,19.244586],[72.452747,19.244586],[72.452747,19.246646],[72.455493,19.246646],[72.455493,19.248019],[72.45618,19.248019],[72.45618,19.247333],[72.457553,19.247333],[72.457553,19.248019],[72.456866,19.248019],[72.456866,19.248706],[72.45618,19.248706],[72.45618,19.249393],[72.455493,19.249393],[72.455493,19.250079],[72.454807,19.250079],[72.454807,19.250766],[72.45412,19.250766],[72.45412,19.251453],[72.454807,19.251453],[72.454807,19.252139],[72.455493,19.252139],[72.455493,19.252826],[72.454807,19.252826],[72.454807,19.254199],[72.45412,19.254199],[72.45412,19.254886],[72.453433,19.254886],[72.453433,19.256259],[72.452747,19.256259],[72.452747,19.256946],[72.453433,19.256946],[72.453433,19.259006],[72.454807,19.259006],[72.454807,19.259692],[72.45412,19.259692],[72.45412,19.260379],[72.453433,19.260379],[72.453433,19.261066],[72.452747,19.261066],[72.452747,19.261752],[72.45206,19.261752],[72.45206,19.263812],[72.451373,19.263812],[72.451373,19.265186],[72.450687,19.265186],[72.450687,19.266559],[72.451373,19.266559],[72.451373,19.267245],[72.45206,19.267245],[72.45206,19.267932],[72.451373,19.267932],[72.451373,19.268619],[72.450687,19.268619],[72.450687,19.269305],[72.451373,19.269305],[72.451373,19.270679],[72.45,19.270679],[72.45,19.272052],[72.451373,19.272052],[72.451373,19.273425],[72.45,19.273425],[72.45,19.274112],[72.449313,19.274112],[72.449313,19.274799],[72.448627,19.274799],[72.448627,19.276859],[72.449313,19.276859],[72.449313,19.277545],[72.450687,19.277545],[72.450687,19.278232],[72.451373,19.278232],[72.451373,19.278918],[72.450687,19.278918],[72.450687,19.280292],[72.45,19.280292],[72.45,19.280978],[72.449313,19.280978],[72.449313,19.283725],[72.448627,19.283725],[72.448627,19.285098],[72.450687,19.285098],[72.450687,19.286472],[72.451373,19.286472],[72.451373,19.289905],[72.452747,19.289905],[72.452747,19.291278],[72.45206,19.291278],[72.45206,19.291965],[72.452747,19.291965],[72.452747,19.292651],[72.45206,19.292651],[72.45206,19.293338],[72.45,19.293338],[72.45,19.294025],[72.451373,19.294025],[72.451373,19.294711],[72.452747,19.294711],[72.452747,19.295398],[72.451373,19.295398],[72.451373,19.296771],[72.450687,19.296771],[72.450687,19.297458],[72.45,19.297458],[72.45,19.298145],[72.450687,19.298145],[72.450687,19.299518],[72.45,19.299518],[72.45,19.300891],[72.450687,19.300891],[72.450687,19.301578],[72.451373,19.301578],[72.451373,19.302264],[72.45206,19.302264],[72.45206,19.303638],[72.452747,19.303638],[72.452747,19.304324],[72.45206,19.304324],[72.45206,19.305698],[72.452747,19.305698],[72.452747,19.307758],[72.45206,19.307758],[72.45206,19.309131],[72.451373,19.309131],[72.451373,19.310504],[72.450687,19.310504],[72.450687,19.311191],[72.453433,19.311191],[72.453433,19.307071],[72.45412,19.307071],[72.45412,19.305011],[72.454807,19.305011],[72.454807,19.305698],[72.45618,19.305698],[72.45618,19.305011],[72.457553,19.305011],[72.457553,19.306384],[72.456866,19.306384],[72.456866,19.307071],[72.457553,19.307071],[72.457553,19.309818],[72.45824,19.309818],[72.45824,19.312564],[72.458926,19.312564],[72.458926,19.313937],[72.45824,19.313937],[72.45824,19.314624],[72.457553,19.314624],[72.457553,19.317371],[72.456866,19.317371],[72.456866,19.320117],[72.454807,19.320117],[72.454807,19.32149],[72.455493,19.32149],[72.455493,19.324237],[72.454807,19.324237],[72.454807,19.324924],[72.455493,19.324924],[72.455493,19.326297],[72.454807,19.326297],[72.454807,19.326984],[72.45412,19.326984],[72.45412,19.32767],[72.453433,19.32767],[72.453433,19.32973],[72.45412,19.32973],[72.45412,19.330417],[72.455493,19.330417],[72.455493,19.331104],[72.45412,19.331104],[72.45412,19.33179],[72.453433,19.33179],[72.453433,19.332477],[72.452747,19.332477],[72.452747,19.333163],[72.453433,19.333163],[72.453433,19.33385],[72.45412,19.33385],[72.45412,19.333163],[72.455493,19.333163],[72.455493,19.332477],[72.456866,19.332477],[72.456866,19.333163],[72.457553,19.333163],[72.457553,19.33385],[72.45618,19.33385],[72.45618,19.334537],[72.456866,19.334537],[72.456866,19.335223],[72.45618,19.335223],[72.45618,19.336597],[72.455493,19.336597],[72.455493,19.337283],[72.454807,19.337283],[72.454807,19.33797],[72.45412,19.33797],[72.45412,19.338657],[72.453433,19.338657],[72.453433,19.34003],[72.454807,19.34003],[72.454807,19.341403],[72.455493,19.341403],[72.455493,19.34209],[72.45412,19.34209],[72.45412,19.344836],[72.454807,19.344836],[72.454807,19.345523],[72.453433,19.345523],[72.453433,19.34621],[72.454807,19.34621],[72.454807,19.346896],[72.455493,19.346896],[72.455493,19.34827],[72.454807,19.34827],[72.454807,19.351016],[72.45412,19.351016],[72.45412,19.353763],[72.453433,19.353763],[72.453433,19.354449],[72.452747,19.354449],[72.452747,19.355136],[72.453433,19.355136],[72.453433,19.355823],[72.45412,19.355823],[72.45412,19.356509],[72.452747,19.356509],[72.452747,19.357883],[72.45412,19.357883],[72.45412,19.359256],[72.452747,19.359256],[72.452747,19.359943],[72.45206,19.359943],[72.45206,19.361316],[72.452747,19.361316],[72.452747,19.362689],[72.451373,19.362689],[72.451373,19.364063],[72.452747,19.364063],[72.452747,19.363376],[72.454807,19.363376],[72.454807,19.362689],[72.455493,19.362689],[72.455493,19.364063],[72.45618,19.364063],[72.45618,19.365436],[72.455493,19.365436],[72.455493,19.367496],[72.454807,19.367496],[72.454807,19.368182],[72.45412,19.368182],[72.45412,19.368869],[72.455493,19.368869],[72.455493,19.369556],[72.454807,19.369556],[72.454807,19.370242],[72.45412,19.370242],[72.45412,19.372302],[72.455493,19.372302],[72.455493,19.375049],[72.45412,19.375049],[72.45412,19.376422],[72.454807,19.376422],[72.454807,19.377109],[72.455493,19.377109],[72.455493,19.377795],[72.454807,19.377795],[72.454807,19.378482],[72.45412,19.378482],[72.45412,19.379169],[72.454807,19.379169],[72.454807,19.379855],[72.455493,19.379855],[72.455493,19.379169],[72.45618,19.379169],[72.45618,19.379855],[72.456866,19.379855],[72.456866,19.380542],[72.45618,19.380542],[72.45618,19.382602],[72.455493,19.382602],[72.455493,19.383975],[72.45618,19.383975],[72.45618,19.385349],[72.455493,19.385349],[72.455493,19.386035],[72.454807,19.386035],[72.454807,19.387408],[72.453433,19.387408],[72.453433,19.388782],[72.455493,19.388782],[72.455493,19.389468],[72.45618,19.389468],[72.45618,19.390155],[72.455493,19.390155],[72.455493,19.390842],[72.454807,19.390842],[72.454807,19.391528],[72.45206,19.391528],[72.45206,19.392215],[72.451373,19.392215],[72.451373,19.393588],[72.453433,19.393588],[72.453433,19.395648],[72.45412,19.395648],[72.45412,19.399081],[72.454807,19.399081],[72.454807,19.400455],[72.45618,19.400455],[72.45618,19.401141],[72.455493,19.401141],[72.455493,19.402515],[72.45618,19.402515],[72.45618,19.403201],[72.456866,19.403201],[72.456866,19.403888],[72.45618,19.403888],[72.45618,19.404575],[72.453433,19.404575],[72.453433,19.403888],[72.452747,19.403888],[72.452747,19.404575],[72.45206,19.404575],[72.45206,19.405948],[72.453433,19.405948],[72.453433,19.405261],[72.45412,19.405261],[72.45412,19.406635],[72.453433,19.406635],[72.453433,19.407321],[72.45206,19.407321],[72.45206,19.408008],[72.450687,19.408008],[72.450687,19.408694],[72.451373,19.408694],[72.451373,19.410068],[72.45,19.410068],[72.45,19.411441],[72.450687,19.411441],[72.450687,19.410754],[72.45206,19.410754],[72.45206,19.410068],[72.452747,19.410068],[72.452747,19.409381],[72.453433,19.409381],[72.453433,19.410068],[72.454807,19.410068],[72.454807,19.411441],[72.453433,19.411441],[72.453433,19.412128],[72.451373,19.412128],[72.451373,19.412814],[72.45,19.412814],[72.45,19.414188],[72.45206,19.414188],[72.45206,19.413501],[72.45412,19.413501],[72.45412,19.414188],[72.455493,19.414188],[72.455493,19.414874],[72.454807,19.414874],[72.454807,19.415561],[72.455493,19.415561],[72.455493,19.416934],[72.45412,19.416934],[72.45412,19.417621],[72.454807,19.417621],[72.454807,19.418307],[72.45412,19.418307],[72.45412,19.418994],[72.453433,19.418994],[72.453433,19.418307],[72.452747,19.418307],[72.452747,19.418994],[72.45206,19.418994],[72.45206,19.419681],[72.451373,19.419681],[72.451373,19.420367],[72.45206,19.420367],[72.45206,19.421054],[72.451373,19.421054],[72.451373,19.422427],[72.45206,19.422427],[72.45206,19.423114],[72.452747,19.423114],[72.452747,19.422427],[72.453433,19.422427],[72.453433,19.423114],[72.45412,19.423114],[72.45412,19.423801],[72.453433,19.423801],[72.453433,19.425174],[72.455493,19.425174],[72.455493,19.426547],[72.45412,19.426547],[72.45412,19.427234],[72.452747,19.427234],[72.452747,19.427921],[72.451373,19.427921],[72.451373,19.428607],[72.452747,19.428607],[72.452747,19.429294],[72.453433,19.429294],[72.453433,19.428607],[72.45412,19.428607],[72.45412,19.427921],[72.456866,19.427921],[72.456866,19.429294],[72.45618,19.429294],[72.45618,19.42998],[72.456866,19.42998],[72.456866,19.431354],[72.457553,19.431354],[72.457553,19.43204],[72.456866,19.43204],[72.456866,19.4341],[72.45618,19.4341],[72.45618,19.434787],[72.455493,19.434787],[72.455493,19.438907],[72.454807,19.438907],[72.454807,19.439594],[72.453433,19.439594],[72.453433,19.443027],[72.45412,19.443027],[72.45412,19.4444],[72.455493,19.4444],[72.455493,19.445773],[72.454807,19.445773],[72.454807,19.447147],[72.453433,19.447147],[72.453433,19.44646],[72.45206,19.44646],[72.45206,19.447147],[72.451373,19.447147],[72.451373,19.447833],[72.450687,19.447833],[72.450687,19.45058],[72.452747,19.45058],[72.452747,19.451953]],[[72.465106,19.355823],[72.465106,19.356509],[72.46442,19.356509],[72.46442,19.355823],[72.465106,19.355823]],[[72.45412,19.395648],[72.45412,19.394962],[72.455493,19.394962],[72.455493,19.395648],[72.45412,19.395648]],[[72.46236,19.349643],[72.46236,19.34827],[72.463046,19.34827],[72.463046,19.349643],[72.46236,19.349643]],[[72.46236,19.388782],[72.46236,19.388095],[72.463046,19.388095],[72.463046,19.388782],[72.46236,19.388782]],[[72.46236,19.399081],[72.46236,19.398395],[72.463046,19.398395],[72.463046,19.399081],[72.46236,19.399081]],[[72.46236,19.332477],[72.46236,19.33179],[72.463046,19.33179],[72.463046,19.332477],[72.46236,19.332477]],[[72.46236,19.303638],[72.46236,19.302951],[72.463046,19.302951],[72.463046,19.303638],[72.46236,19.303638]],[[72.461673,19.309131],[72.461673,19.304324],[72.463046,19.304324],[72.463046,19.308444],[72.46236,19.308444],[72.46236,19.309131],[72.461673,19.309131]],[[72.46236,19.34415],[72.46236,19.343463],[72.463046,19.343463],[72.463046,19.34415],[72.46236,19.34415]],[[72.461673,19.391528],[72.461673,19.390842],[72.46236,19.390842],[72.46236,19.391528],[72.461673,19.391528]],[[72.461673,19.300891],[72.461673,19.300204],[72.46236,19.300204],[72.46236,19.300891],[72.461673,19.300891]],[[72.460986,19.397021],[72.460986,19.396335],[72.46236,19.396335],[72.46236,19.397021],[72.460986,19.397021]],[[72.460986,19.379855],[72.460986,19.379169],[72.461673,19.379169],[72.461673,19.379855],[72.460986,19.379855]],[[72.460986,19.322177],[72.460986,19.320804],[72.461673,19.320804],[72.461673,19.322177],[72.460986,19.322177]],[[72.459613,19.362003],[72.459613,19.361316],[72.4603,19.361316],[72.4603,19.362003],[72.459613,19.362003]],[[72.4603,19.361316],[72.4603,19.360629],[72.460986,19.360629],[72.460986,19.361316],[72.4603,19.361316]],[[72.458926,19.366809],[72.458926,19.365436],[72.4603,19.365436],[72.4603,19.366809],[72.458926,19.366809]],[[72.4603,19.365436],[72.4603,19.364749],[72.460986,19.364749],[72.460986,19.365436],[72.4603,19.365436]],[[72.45824,19.378482],[72.45824,19.377109],[72.458926,19.377109],[72.458926,19.376422],[72.4603,19.376422],[72.4603,19.377109],[72.459613,19.377109],[72.459613,19.377795],[72.458926,19.377795],[72.458926,19.378482],[72.45824,19.378482]],[[72.458926,19.272052],[72.458926,19.271365],[72.459613,19.271365],[72.459613,19.272052],[72.458926,19.272052]],[[72.45824,19.276859],[72.45824,19.275485],[72.458926,19.275485],[72.458926,19.276859],[72.45824,19.276859]],[[72.45824,19.384662],[72.45824,19.383975],[72.458926,19.383975],[72.458926,19.384662],[72.45824,19.384662]],[[72.455493,19.340717],[72.455493,19.34003],[72.456866,19.34003],[72.456866,19.340717],[72.455493,19.340717]],[[72.455493,19.412814],[72.455493,19.412128],[72.45618,19.412128],[72.45618,19.412814],[72.455493,19.412814]],[[72.454807,19.392902],[72.454807,19.392215],[72.455493,19.392215],[72.455493,19.392902],[72.454807,19.392902]],[[72.454807,19.357883],[72.454807,19.357196],[72.455493,19.357196],[72.455493,19.357883],[72.454807,19.357883]],[[72.454807,19.298831],[72.454807,19.297458],[72.455493,19.297458],[72.455493,19.298831],[72.454807,19.298831]],[[72.454807,19.258319],[72.454807,19.257632],[72.455493,19.257632],[72.455493,19.258319],[72.454807,19.258319]],[[72.45412,19.273425],[72.45412,19.272052],[72.455493,19.272052],[72.455493,19.273425],[72.45412,19.273425]]],[[[72.454807,19.415561],[72.45412,19.415561],[72.45412,19.416248],[72.454807,19.416248],[72.454807,19.415561]]],[[[72.454807,19.324924],[72.45412,19.324924],[72.45412,19.32561],[72.454807,19.32561],[72.454807,19.324924]]],[[[72.467853,19.424487],[72.468539,19.424487],[72.468539,19.423801],[72.467853,19.423801],[72.467853,19.424487]]],[[[72.467166,19.332477],[72.467853,19.332477],[72.467853,19.33179],[72.467166,19.33179],[72.467166,19.332477]]],[[[72.466479,19.427234],[72.467166,19.427234],[72.467166,19.426547],[72.466479,19.426547],[72.466479,19.427234]]],[[[72.456866,19.508945],[72.457553,19.508945],[72.457553,19.508258],[72.45824,19.508258],[72.45824,19.507571],[72.456866,19.507571],[72.456866,19.508945]]],[[[72.452747,19.401141],[72.453433,19.401141],[72.453433,19.400455],[72.452747,19.400455],[72.452747,19.401141]]],[[[72.451373,19.373676],[72.45206,19.373676],[72.45206,19.372989],[72.451373,19.372989],[72.451373,19.373676]]],[[[72.45,19.485599],[72.450687,19.485599],[72.450687,19.484912],[72.45,19.484912],[72.45,19.485599]]],[[[72.449313,19.397021],[72.45,19.397021],[72.45,19.396335],[72.450687,19.396335],[72.450687,19.395648],[72.449313,19.395648],[72.449313,19.397021]]],[[[72.448627,19.289905],[72.450687,19.289905],[72.450687,19.288531],[72.449313,19.288531],[72.449313,19.289218],[72.448627,19.289218],[72.448627,19.289905]]],[[[72.449313,19.365436],[72.45,19.365436],[72.45,19.364749],[72.449313,19.364749],[72.449313,19.365436]]],[[[72.44794,19.403201],[72.448627,19.403201],[72.448627,19.402515],[72.44794,19.402515],[72.44794,19.403201]]],[[[72.448627,19.402515],[72.449313,19.402515],[72.449313,19.401828],[72.448627,19.401828],[72.448627,19.402515]]],[[[72.390948,19.330417],[72.392322,19.330417],[72.392322,19.329044],[72.391635,19.329044],[72.391635,19.32973],[72.390948,19.32973],[72.390948,19.330417]]]]},"properties":{"area_km2":54.654,"perimeter_km":221.27,"length_km":66.36,"mean_width_km":0.824,"elongation":80.6,"compactness":0.014,"components":10,"orientation_deg":174.0,"centroid":[72.4664,19.37918],"taper":"undetermined","end_width_ratio":0.82,"edge_truncated":true,"wind_speed_ms":1.6,"wind_reliability":0.54,"age_prior_h":{"min":3,"max":72,"label":"weak prior","spreading_min_h":0.6},"shape_indicator":"mixed shape: no source-type indication","cerulean_slick_id":3609503,"cerulean_machine_confidence":0.984,"cerulean_class":5,"s1_scene_id":"S1A_IW_GRDH_1SDV_20241003T010330_20241003T010355_055931_06D699_F800","source":"SkyTruth Cerulean slick polygon"}}]}