{"type":"FeatureCollection","features":[{"type":"Feature","geometry":{"type":"Polygon","coordinates":[[[68.99725197130745,16.463893485078362],[68.99734659137363,16.482511575099256],[69.014650335094,16.492747203251383],[69.02517288880176,16.492896594600207],[69.0327491801123,16.487990046501594],[69.12089541048344,16.352465155955898],[69.12330794827659,16.343368635489544],[69.1203801148681,16.33689568848558],[69.0996849411633,16.323915990767055],[69.08632725583455,16.327869234240033],[69.00884303606898,16.437925186078402],[68.99725197130745,16.463893485078362]]]},"properties":{"kind":"age","age_h":1,"in_age_prior":false}},{"type":"Feature","geometry":{"type":"Polygon","coordinates":[[[68.9971816198596,16.489063242412694],[69.01518291437961,16.50110930019287],[69.02845707710308,16.50554971589366],[69.03259472026403,16.504111014325044],[69.0707685240376,16.44416636714799],[69.1158480451099,16.381495923353736],[69.1246119967948,16.365214794386038],[69.12396747665986,16.346234525604658],[69.10048934906789,16.330408848209608],[69.08465914773315,16.330218960085976],[69.00753389722193,16.441470066358814],[68.99531958577846,16.467150447619787],[68.9971816198596,16.489063242412694]]]},"properties":{"kind":"age","age_h":2,"in_age_prior":false}},{"type":"Feature","geometry":{"type":"Polygon","coordinates":[[[68.9958374138613,16.497363174766868],[69.01201167396532,16.50902128175383],[69.02535308186903,16.51339020119284],[69.03938913280881,16.509722020147414],[69.11766305826804,16.397695386424637],[69.12679275330733,16.379009830081902],[69.12904471632812,16.35989433256889],[69.12513705775291,16.353374846734837],[69.1026841952537,16.338292428027447],[69.09249068570416,16.334205049912356],[69.08345833535093,16.334722051593232],[69.00578600573546,16.445104199373503],[68.99366819271026,16.471780684920965],[68.99212822300821,16.49135142642155],[68.9958374138613,16.497363174766868]]]},"properties":{"kind":"age","age_h":3,"in_age_prior":false}},{"type":"Feature","geometry":{"type":"Polygon","coordinates":[[[68.98790687452549,16.5002681331416],[68.99885741776107,16.534624597869602],[69.03647893836991,16.55106158366135],[69.04709214864063,16.550117723066425],[69.0589248697253,16.542817089519797],[69.1310453172278,16.428664354481388],[69.1368188429349,16.404164510687348],[69.14559670714422,16.39211974158018],[69.14250777220379,16.381819178908238],[69.13560065403951,16.37421269836731],[69.10118194987636,16.352854835794087],[69.0833545638525,16.34924835453902],[69.07823648287935,16.35092470431405],[69.05979158303224,16.38170153430824],[69.0460907933404,16.391036792718463],[69.03496957563699,16.404766608573112],[69.00363719914122,16.45643467158727],[68.99069694943122,16.484841182393556],[68.98790687452549,16.5002681331416]]]},"properties":{"kind":"age","age_h":6,"in_age_prior":true}},{"type":"Feature","geometry":{"type":"Polygon","coordinates":[[[68.99814914220266,16.54062184328961],[68.99774187690367,16.56639914329784],[69.01288227434219,16.576799285647635],[69.05594246274188,16.589781974366545],[69.0758046198493,16.586397736626328],[69.0898313534177,16.564725397834238],[69.09618804202249,16.544472594243093],[69.10784663488106,16.534934585012696],[69.14551305378875,16.472807904988855],[69.14717942492386,16.444433211038444],[69.16699514567485,16.416220960995332],[69.16459084392764,16.40565865415377],[69.15064590949922,16.3880505435499],[69.10418386851632,16.36127420288316],[69.08829339332608,16.357626209217397],[69.07949496416096,16.360848146196695],[69.06812450032828,16.380775190910693],[69.04597977622194,16.402245209401354],[69.0259760166007,16.43305041309362],[69.0171729086928,16.440989032890524],[68.99329483658119,16.492131043302575],[68.98947655070153,16.511100910775102],[68.99814914220266,16.54062184328961]]]},"properties":{"kind":"age","age_h":9,"in_age_prior":true}},{"type":"Feature","geometry":{"type":"Polygon","coordinates":[[[69.00640674816391,16.55099018255931],[69.00843331823137,16.607316321570753],[69.02483839534959,16.615864389779],[69.04379799159837,16.62247681793587],[69.07423343410325,16.627729789190113],[69.09316290470504,16.626062703692167],[69.10685807682144,16.614593879251284],[69.1671017653093,16.51998159455258],[69.17092396046932,16.4705225925666],[69.19104584708772,16.445030516794112],[69.19561578098241,16.431793000377343],[69.17904063995766,16.40535081777417],[69.15831022343329,16.404416608981734],[69.13433196802387,16.38824929076611],[69.11654067291157,16.369793741783745],[69.09914178335549,16.368207549438985],[69.08416341280507,16.373613204588654],[69.06189567065019,16.40211772033457],[69.04668412535193,16.410713023720234],[69.03852122458686,16.429754372166894],[69.02074185383545,16.44906275010771],[68.99545174309901,16.507748280210066],[68.99484459152949,16.522884400091403],[69.00640674816391,16.55099018255931]]]},"properties":{"kind":"age","age_h":12,"in_age_prior":true}},{"type":"Feature","geometry":{"type":"Polygon","coordinates":[[[69.02765816020121,16.69272779114817],[69.03228486605913,16.703288439496117],[69.0606719165196,16.712724331075957],[69.07324261557591,16.709989510128345],[69.12883043666557,16.71611926207613],[69.16480327111938,16.70480020589367],[69.19880362029127,16.65171097085189],[69.21113479299737,16.62251452458583],[69.21393428548124,16.609825369987146],[69.20625410017975,16.565504983992835],[69.25203059449109,16.48995166843372],[69.25612821054517,16.47198373827242],[69.24976574601128,16.45999259140725],[69.23714313829774,16.45467272130319],[69.19271902363029,16.465805057196494],[69.1577965102312,16.4421449108407],[69.12385737971772,16.40689638469206],[69.10808815246507,16.40445480946956],[69.09321611874496,16.409780877789423],[69.05359728234468,16.44273499818361],[69.01848210448082,16.50049666566448],[69.00529830739362,16.544803898255118],[69.00563206955519,16.55328887210833],[69.0260128708326,16.59630563543596],[69.02521480118318,16.61746320990871],[69.03256632896111,16.630070986263853],[69.04119921426482,16.667389701700788],[69.02765816020121,16.69272779114817]]]},"properties":{"kind":"age","age_h":18,"in_age_prior":true}},{"type":"Feature","geometry":{"type":"Polygon","coordinates":[[[69.04217300807574,16.77133157143464],[69.04262602061624,16.793311519681257],[69.0471193937452,16.798867225439746],[69.0843687169984,16.80493513034854],[69.1640717782802,16.796800127666817],[69.18392939537935,16.79196474692313],[69.21319524328354,16.77797288255899],[69.22276334731067,16.768636572147493],[69.239214448759,16.74312403716216],[69.25001580818237,16.713342952478406],[69.24902561803312,16.64412965982164],[69.28187271935765,16.558783208588668],[69.30329699167469,16.514736217273406],[69.30358901685851,16.5093840515495],[69.29618167896362,16.498926374020574],[69.281173163613,16.487882649336104],[69.20763569355937,16.510767814197393],[69.16826103919789,16.491233753097408],[69.11504393875796,16.43501725007018],[69.09893141758756,16.4303440448184],[69.07840043538677,16.43507704276857],[69.04185790047033,16.46226589862124],[69.0007248446956,16.543222310673215],[68.99925468088172,16.57353656709147],[69.03426394155962,16.640986429766677],[69.03066274154591,16.663407841137126],[69.03632416463502,16.671098763389505],[69.0566173821671,16.73452888884346],[69.04217300807574,16.77133157143464]]]},"properties":{"kind":"age","age_h":24,"in_age_prior":true}},{"type":"Feature","geometry":{"type":"Polygon","coordinates":[[[69.11430848807993,16.913461995382793],[69.13135186242093,16.939087802772374],[69.14713353982584,16.948019442218683],[69.28221642934498,16.932785436690125],[69.30174217237443,16.926104245235813],[69.34150541571974,16.90476455899836],[69.35413801116559,16.86507680723465],[69.35006919215184,16.856210541293876],[69.33626292031289,16.841958832330516],[69.31144804335807,16.841125659162635],[69.20284023906287,16.80145656764451],[69.27194046915788,16.705497103224356],[69.37539855904556,16.69897747426544],[69.38524022067094,16.692477067170863],[69.42040513008767,16.57519581838894],[69.42066481505714,16.555548882570758],[69.40450690488244,16.531018706435468],[69.29755919234331,16.553345186536237],[69.2086581827687,16.504676905960384],[69.1321777902871,16.456091890730885],[69.1102915536567,16.445530688898103],[69.09033942914775,16.45437431254928],[69.05372431420483,16.482082180013748],[69.0323829906864,16.52057090614065],[69.02460271990134,16.54330397160802],[69.02288493590792,16.585028300121134],[69.09921043096864,16.685615317585537],[69.09956696097453,16.704775994602258],[69.13140443841574,16.832394397335417],[69.12773731582709,16.85400914492795],[69.1146039874719,16.892526885338256],[69.11430848807993,16.913461995382793]]]},"properties":{"kind":"age","age_h":36,"in_age_prior":true}},{"type":"Feature","geometry":{"type":"Polygon","coordinates":[[[69.20963575758724,17.13942407386601],[69.22105989906798,17.15731801717133],[69.23369587981958,17.160712700424046],[69.37981932216411,17.1562268453783],[69.42333739815874,17.142936481053166],[69.43499362228513,17.133321986731495],[69.45081516304165,17.091433792485645],[69.43838972690052,17.07331987332835],[69.43024736498735,17.067130423724585],[69.41346411191257,17.06562693917467],[69.28000313978332,17.012379963373647],[69.26767327489173,16.995712191518045],[69.2502967300902,16.839973108251236],[69.37479750395867,16.825954110254624],[69.52297792949612,16.8241278310108],[69.55521211752266,16.702159851268803],[69.55460950372891,16.683086982410412],[69.53646240255397,16.65218061604368],[69.32672268786855,16.63171007799935],[69.30685121621039,16.612064127630514],[69.17538148964789,16.533117059231305],[69.1496162878297,16.526662348504633],[69.12255142621296,16.536825395651128],[69.0951911253312,16.563344504115253],[69.08126188081586,16.593714361651088],[69.0737971090881,16.618992674336056],[69.08340823896671,16.64971477779703],[69.09048709681498,16.65558174940521],[69.20292718867223,16.821824017629126],[69.23549545312929,16.99984439043838],[69.21720786453177,17.03665813270105],[69.20078236576605,17.094170979475045],[69.2013059486766,17.118490537900136],[69.20963575758724,17.13942407386601]]]},"properties":{"kind":"age","age_h":48,"in_age_prior":true}},{"type":"Feature","geometry":{"type":"Polygon","coordinates":[[[69.24010901001968,17.34101927651048],[69.24978931531909,17.36276339256454],[69.25397867048345,17.365070957215025],[69.43857155829551,17.360987665393456],[69.48321771569054,17.349304584566415],[69.4958806514332,17.340905604380946],[69.51545653329843,17.302475083195333],[69.4900074744678,17.272092006760445],[69.30549267591876,17.19582984216981],[69.31349772618293,16.957514546241683],[69.46112505321172,16.93235113505571],[69.6238210525518,16.93304247939641],[69.63010135318173,16.92337591078568],[69.66015353824032,16.801151111567687],[69.6602518887804,16.78343875186411],[69.64301479947626,16.745773290865476],[69.36926023953792,16.704406165932376],[69.23161009921637,16.605196367106277],[69.19375407032868,16.583438298398487],[69.16376832785586,16.593956815907596],[69.1346526823295,16.62085751235932],[69.1178894540451,16.67036076999456],[69.1375731066366,16.69783735899924],[69.26724343238807,16.93199744359119],[69.28222369986719,17.19896797475463],[69.2693358586313,17.215603840953325],[69.23775070999675,17.294824599810692],[69.24010901001968,17.34101927651048]]]},"properties":{"kind":"age","age_h":60,"in_age_prior":false}},{"type":"Feature","geometry":{"type":"Polygon","coordinates":[[[69.27459109445583,17.53493943244347],[69.30512823485239,17.577422653693763],[69.53920742252373,17.57392808480476],[69.59163121280893,17.55526812984064],[69.6080236607865,17.52154119214116],[69.5900789202373,17.50039047023857],[69.57267248191971,17.492940039600146],[69.56355433498234,17.493697598627865],[69.34684084085987,17.416765324503444],[69.37791671930836,17.114086908930595],[69.56846459308616,17.08573539576262],[69.74180042550462,17.07949671005537],[69.74637319602687,17.07166845675104],[69.75320371211514,17.032200778256914],[69.76641551588186,16.92769494372784],[69.74634481844463,16.891408157470963],[69.43508845453069,16.83729530091366],[69.2563927222501,16.66962629924282],[69.23140253917313,16.654029396832673],[69.20796022640232,16.662309482007426],[69.1821650478377,16.683673794853892],[69.17055639710908,16.700217054820182],[69.16856431614079,16.733656844303646],[69.18394696929364,16.760595314046697],[69.3158553553809,17.045290673869683],[69.33083374294144,17.084583375897395],[69.34752582940308,17.10608785495842],[69.32139073411321,17.415888217618743],[69.29741815426334,17.455364869836675],[69.27459109445583,17.53493943244347]]]},"properties":{"kind":"age","age_h":72,"in_age_prior":false}},{"type":"Feature","geometry":{"type":"Polygon","coordinates":[[[69.13045175409697,16.367136512294188],[69.11015950348671,16.353157541207317],[69.08467130718422,16.34366401808048],[69.07999409604662,16.34463659706586],[69.06833922360639,16.36346909855663],[69.0363722326024,16.399975833298353],[69.00750670837986,16.44621705916378],[68.99057724925561,16.485337872566113],[68.98791352973805,16.501081652690225],[68.99626461933394,16.535713222603817],[68.99582008031437,16.577730619877613],[69.00829916435625,16.59766962300993],[69.00725247300116,16.605391508130218],[69.01220847917274,16.609470513339236],[69.01044593840302,16.615824319007917],[69.01768930367045,16.62276944471669],[69.01506308718038,16.631557903201376],[69.0228428140793,16.638937906841985],[69.02026205069423,16.648396148712962],[69.02653321961428,16.654255132915157],[69.0228183988209,16.664550039345674],[69.02928350609976,16.67014727031872],[69.0243845026804,16.68020236004237],[69.03123450187931,16.686035722354372],[69.02713939043936,16.694955553950056],[69.0334640221963,16.703862336055828],[69.0299113860858,16.712360688959944],[69.03439190974458,16.718235549049037],[69.03169709720994,16.72681741840106],[69.03621485829584,16.73333064230982],[69.03258588293815,16.740992098665462],[69.03681437097555,16.747665859969434],[69.04751570284355,16.820729813806892],[69.07210439970311,16.866882632931663],[69.13253384407226,16.93995512164234],[69.152958431176,16.97521073963381],[69.18443651074814,17.053122803784134],[69.20153334059505,17.119246204148777],[69.20980222464495,17.13978982144429],[69.22105989906798,17.15731801717133],[69.23369587981958,17.160712700424046],[69.37981932216411,17.1562268453783],[69.42291968850854,17.14309628122888],[69.43549249023452,17.13254090877032],[69.45069407335188,17.09012229826337],[69.44291777079594,17.0791264314636],[69.44474786935122,17.071478358697227],[69.43707249267295,17.060530278108807],[69.43956992954479,17.0528221699195],[69.43207694735939,17.04185879346246],[69.43428069517202,17.03297369180294],[69.42536241009,17.02151034764509],[69.42678133480482,17.014530550489518],[69.4181645045163,17.002565844336825],[69.41952483225221,16.994662894935868],[69.41067511035787,16.983532282726003],[69.41282756739392,16.97481643216125],[69.40278525790514,16.96245876659873],[69.4043968020581,16.954428614004648],[69.3936909696137,16.94217880550621],[69.39504963338514,16.93520402346251],[69.38464886711371,16.92142091326666],[69.38552733068235,16.915413797776473],[69.37520403604759,16.900752181876534],[69.37148624959292,16.888622110026635],[69.347036689828,16.852685353992076],[69.36300054715183,16.82728246757083],[69.52372722943744,16.82366866204896],[69.55521211752266,16.702159851268803],[69.55429550816841,16.681627112664284],[69.5394512770592,16.654135470908862],[69.51867520712622,16.632385120618732],[69.5050148789241,16.612126390487486],[69.49912405186438,16.6107733593079],[69.49299425402666,16.599640840349352],[69.48691620339498,16.599327990219813],[69.48151431590296,16.58949684412546],[69.4758304751663,16.58815874375779],[69.45938169581939,16.56767845621063],[69.45266655774712,16.568077696615592],[69.44636967165307,16.55855938315692],[69.44006417352955,16.558907854964435],[69.43306544633506,16.54852343693386],[69.42553222123244,16.54825684082919],[69.41785351093297,16.538601545240013],[69.41028754286903,16.53934192928257],[69.4037397932396,16.53057918247016],[69.39433756048042,16.531686376814392],[69.38974420789808,16.526652995731407],[69.3825471610768,16.527222788893784],[69.37603666312272,16.52127008649185],[69.36889887653382,16.522481407972233],[69.36311070956644,16.51706366483712],[69.35582757391533,16.518009147841084],[69.3510997004719,16.514351194045926],[69.31629869086298,16.50831147987557],[69.29549021083685,16.4976102124528],[69.27803110242836,16.484407239397612],[69.26092412790487,16.464055822397437],[69.25297820238234,16.465451038679024],[69.21637714191847,16.42918829631556],[69.20881602332011,16.427613215515162],[69.18660909155135,16.40919776372821],[69.17131173094646,16.404120402394966],[69.15512333576375,16.393515286407332],[69.13045175409697,16.367136512294188]]]},"properties":{"kind":"release_corridor","age_prior_h":{"min":5,"max":48,"label":"weak prior","spreading_min_h":5.4}}},{"type":"Feature","geometry":{"type":"Polygon","coordinates":[[[68.94146406725856,16.49453104462194],[68.94971694290695,16.542050757520137],[68.94978054060985,16.585958616973535],[68.97596885540376,16.66288177481241],[68.98651496158035,16.74905459507759],[69.0036374130355,16.83650825276778],[69.03367268873875,16.89271096878395],[69.10372387242963,16.981439806637383],[69.13985094626263,17.067024518754387],[69.15787982475297,17.13559582787476],[69.18168213913141,17.182033527133612],[69.20442256099949,17.199879088598895],[69.2351784984103,17.205908610882812],[69.38697724020724,17.200913892217926],[69.45336602191085,17.177816374910112],[69.47861351450803,17.15015930591238],[69.49539525935216,17.105695978770388],[69.49741467624001,17.086538791676865],[69.45693266916294,16.95963927313681],[69.4144221083769,16.87050623930353],[69.52122562575039,16.870584873427966],[69.54615944502255,16.863415174600256],[69.56410094669066,16.847102956319674],[69.60193479275176,16.70571034260843],[69.59896982028813,16.668082328004065],[69.5770321565304,16.62716094094071],[69.52682128783576,16.56830495694407],[69.46122275449171,16.51239253084393],[69.42123025987289,16.488631912219095],[69.31951163437668,16.458306059545553],[69.2920339684829,16.430262070070153],[69.2743551754057,16.420447710336287],[69.24175723387832,16.39118944541047],[69.18418089019023,16.35656045358692],[69.14608147015745,16.32129614574475],[69.09251933183812,16.29903950244069],[69.07211727770867,16.29937586510162],[69.05019530137878,16.309755470157],[68.99800651718456,16.374033341817647],[68.94901827758599,16.461797369893564],[68.94146406725856,16.49453104462194]]]},"properties":{"kind":"expanded_corridor_for_veto","margin_km":5.0}}],"properties":{"physics":{"formula":"V_oil = V_current + V_tide + V_Stokes + alpha * V_wind10","current_source":"CMEMS SMOC (uo+utide, vo+vtide)","stokes_source":"CMEMS SMOC (vsdx, vsdy)","wind_source":"ERA5 10 m (u10, v10)","alpha":0.02,"alpha_range":[0.01,0.03],"current_scale_sd":0.15,"wind_rotation_sd_deg":10.0,"current_error_sd_ms":0.1,"diffusion_m2s":1.0,"time_step_s":900,"backward_members":10,"backward_particles":500,"forward_members":5,"max_age_h":72}}}