{"type":"FeatureCollection","features":[{"type":"Feature","geometry":{"type":"Polygon","coordinates":[[[68.98792605658699,16.300051323071703],[68.9762543181989,16.34149269851005],[68.98628845895131,16.352253297614464],[69.00852099789805,16.358151135763585],[69.02029773865095,16.349212207640797],[69.03705478586085,16.316226642885102],[69.04815722673617,16.303282347207173],[69.05757531029467,16.263111283646545],[69.06474124954407,16.247584603675875],[69.0749491446129,16.195446391971934],[69.07188485926422,16.179589502589913],[69.06507157499874,16.174134197218706],[69.05117481166839,16.16943365956656],[69.02968644874011,16.17588618011591],[69.00775229686626,16.259432398313884],[68.98792605658699,16.300051323071703]]]},"properties":{"kind":"forecast_envelope","hours":24,"active_fraction":1.0}},{"type":"Feature","geometry":{"type":"Polygon","coordinates":[[[68.93177504423483,16.207908635614093],[68.93889636709328,16.225637876858002],[68.97584659726374,16.222316654873943],[68.99187844603186,16.166634608875786],[68.97412600020387,16.136989065837152],[68.97881162069302,16.115152124054298],[68.96206047164017,16.069640884129413],[68.95466799628902,16.035482887881177],[68.93019107983955,16.02116381956898],[68.91025466519761,16.02619901819433],[68.90374902964523,16.036571897935897],[68.90343384440787,16.052572427436324],[68.90814108294826,16.08773415364924],[68.91744961110156,16.11746574757703],[68.93177504423483,16.207908635614093]]]},"properties":{"kind":"forecast_envelope","hours":48,"active_fraction":1.0}},{"type":"Feature","geometry":{"type":"Polygon","coordinates":[[[68.775898449082,16.06213297356289],[68.78606179459695,16.07448772068321],[68.80066736931607,16.07715869916016],[68.8227254399163,16.068468531125205],[68.8270502306921,16.06136567456315],[68.8212117002715,16.015526704219088],[68.79733127876224,15.956617268945056],[68.78363401687479,15.902913134504384],[68.75484076039659,15.892722438596959],[68.73565214357646,15.896752498882663],[68.72513238128704,15.902280392041247],[68.71130031259923,15.925712517305138],[68.72364708233428,15.945357065792109],[68.72586603751172,15.973032008503179],[68.775898449082,16.06213297356289]]]},"properties":{"kind":"forecast_envelope","hours":72,"active_fraction":1.0}}],"properties":{"model":"OpenDrift OpenOil","oil_type":"GENERIC INTERMEDIATE FUEL OIL 180","hours":72,"coastal_impact":false,"stranded_elements":0,"elements":1500,"mass_budget_fraction":{"mass_oil":[1.0,0.9763000011444092,0.9584000110626221,0.9405999779701233,0.9212999939918518,0.8985999822616577,0.8723999857902527,0.8474000096321106,0.8235999941825867,0.8012999892234802,0.7809000015258789,0.7623000144958496,0.7473000288009644,0.7350000143051147,0.722599983215332,0.7069000005722046,0.6873000264167786,0.6657999753952026,0.6449999809265137,0.6261000037193298,0.6086999773979187,0.5938000082969666,0.582099974155426,0.5722000002861023,0.5638999938964844,0.5587000250816345,0.5544000267982483,0.5509999990463257,0.548799991607666,0.5468000173568726,0.5447999835014343,0.5430999994277954,0.5418999791145325,0.5408999919891357,0.5396999716758728,0.5378000140190125,0.5342000126838684,0.5289000272750854,0.5224999785423279,0.5153999924659729,0.5066999793052673,0.49619999527931213,0.48489999771118164,0.4763000011444092,0.4697999954223633,0.4650999903678894,0.4620000123977661,0.4584999978542328,0.454800009727478,0.4514000117778778,0.44839999079704285,0.4458000063896179,0.44290000200271606,0.4397999942302704,0.4368000030517578,0.4341999888420105,0.4320000112056732,0.42980000376701355,0.4275999963283539,0.42489999532699585,0.421999990940094,0.4185999929904938,0.4147999882698059,0.4104999899864197,0.40630000829696655,0.40230000019073486,0.39899998903274536,0.39649999141693115,0.3944999873638153,0.3928999900817871,0.391400009393692,0.3894999921321869,0.38600000739097595],"mass_evaporated":[0.0,0.014999999664723873,0.02449999935925007,0.03350000083446503,0.041999999433755875,0.05009999871253967,0.05779999867081642,0.06499999761581421,0.07180000096559525,0.07819999754428864,0.08420000225305557,0.08980000019073486,0.09489999711513519,0.09969999641180038,0.10419999808073044,0.10869999974966049,0.11309999972581863,0.11729999631643295,0.12110000103712082,0.12470000237226486,0.12800000607967377,0.13099999725818634,0.13379999995231628,0.1362999975681305,0.13860000669956207,0.13860000669956207,0.13860000669956207,0.13860000669956207,0.13860000669956207,0.13860000669956207,0.13860000669956207,0.13860000669956207,0.13860000669956207,0.13860000669956207,0.13860000669956207,0.13860000669956207,0.13860000669956207,0.13860000669956207,0.13860000669956207,0.13860000669956207,0.13860000669956207,0.13860000669956207,0.13860000669956207,0.13860000669956207,0.13860000669956207,0.13860000669956207,0.13860000669956207,0.13860000669956207,0.13860000669956207,0.13860000669956207,0.13860000669956207,0.13860000669956207,0.13860000669956207,0.13860000669956207,0.13860000669956207,0.13860000669956207,0.13860000669956207,0.13860000669956207,0.13860000669956207,0.13860000669956207,0.13860000669956207,0.13860000669956207,0.13860000669956207,0.13860000669956207,0.13860000669956207,0.13860000669956207,0.13860000669956207,0.13860000669956207,0.13860000669956207,0.13860000669956207,0.13860000669956207,0.13860000669956207,0.13860000669956207],"mass_dispersed":[0.0,0.008700000122189522,0.01720000058412552,0.02590000070631504,0.03669999912381172,0.05130000039935112,0.06989999860525131,0.08760000020265579,0.10459999740123749,0.12049999833106995,0.13490000367164612,0.14800000190734863,0.15780000388622284,0.16529999673366547,0.17319999635219574,0.18440000712871552,0.1996999979019165,0.21699999272823334,0.23389999568462372,0.2492000013589859,0.26330000162124634,0.2752000093460083,0.2842000126838684,0.2915000021457672,0.29750001430511475,0.3025999963283539,0.3070000112056732,0.31040000915527344,0.3125999867916107,0.31459999084472656,0.3165999948978424,0.3183000087738037,0.31949999928474426,0.320499986410141,0.32170000672340393,0.32359999418258667,0.3271999955177307,0.33250001072883606,0.33889999985694885,0.34599998593330383,0.3546999990940094,0.365200012922287,0.3765000104904175,0.38510000705718994,0.39160001277923584,0.39629998803138733,0.399399995803833,0.40290001034736633,0.4065999984741211,0.4099999964237213,0.4129999876022339,0.4156000018119812,0.41850000619888306,0.42160001397132874,0.4246000051498413,0.42719998955726624,0.4293999969959259,0.43160000443458557,0.43380001187324524,0.43650001287460327,0.43939998745918274,0.44279998540878296,0.4465999901294708,0.45089998841285706,0.45509999990463257,0.45910000801086426,0.46230000257492065,0.4648999869823456,0.4668999910354614,0.4684999883174896,0.4699999988079071,0.47189998626708984,0.47540000081062317]}}}