{"type":"FeatureCollection","features":[{"type":"Feature","geometry":{"type":"Polygon","coordinates":[[[69.10151050497188,16.320049997603945],[69.10151050497188,16.32231092693634],[69.0921169390674,16.32231092693634],[69.0921169390674,16.32457185626873],[69.08976854759128,16.32457185626873],[69.08976854759128,16.329093714933517],[69.08742015611516,16.329093714933517],[69.08742015611516,16.331354644265907],[69.08507176463903,16.331354644265907],[69.08507176463903,16.335876502930695],[69.0827233731629,16.335876502930695],[69.0827233731629,16.34039836159548],[69.08037498168679,16.34039836159548],[69.08037498168679,16.344920220260267],[69.07802659021067,16.344920220260267],[69.07802659021067,16.347181149592657],[69.07567819873455,16.347181149592657],[69.07567819873455,16.34944207892505],[69.07332980725843,16.34944207892505],[69.07332980725843,16.351703008257445],[69.0709814157823,16.351703008257445],[69.0709814157823,16.35622486692223],[69.06863302430618,16.35622486692223],[69.06863302430618,16.360746725587013],[69.06628463283006,16.360746725587013],[69.06628463283006,16.363007654919407],[69.06393624135394,16.363007654919407],[69.06393624135394,16.367529513584195],[69.06158784987782,16.367529513584195],[69.06158784987782,16.37205137224898],[69.0592394584017,16.37205137224898],[69.0592394584017,16.374312301581373],[69.05689106692557,16.374312301581373],[69.05689106692557,16.378834160246157],[69.05454267544945,16.378834160246157],[69.05454267544945,16.38335601891094],[69.05219428397334,16.38335601891094],[69.05219428397334,16.385616948243335],[69.04984589249722,16.385616948243335],[69.04984589249722,16.390138806908123],[69.0474975010211,16.390138806908123],[69.0474975010211,16.392399736240513],[69.04514910954498,16.392399736240513],[69.04514910954498,16.394660665572907],[69.04280071806885,16.394660665572907],[69.04280071806885,16.39918252423769],[69.04045232659273,16.39918252423769],[69.04045232659273,16.401443453570085],[69.03810393511661,16.401443453570085],[69.03810393511661,16.40370438290248],[69.03575554364049,16.40370438290248],[69.03575554364049,16.410487170899657],[69.03340715216437,16.410487170899657],[69.03340715216437,16.41274810023205],[69.03105876068825,16.41274810023205],[69.03105876068825,16.41500902956444],[69.02871036921212,16.41500902956444],[69.02871036921212,16.424052746894013],[69.026361977736,16.424052746894013],[69.026361977736,16.43083553489119],[69.02166519478376,16.43083553489119],[69.02166519478376,16.433096464223585],[69.01696841183153,16.433096464223585],[69.01696841183153,16.435357393555975],[69.0146200203554,16.435357393555975],[69.0146200203554,16.439879252220763],[69.01227162887928,16.439879252220763],[69.01227162887928,16.444401110885547],[69.00992323740316,16.444401110885547],[69.00992323740316,16.44666204021794],[69.00757484592704,16.44666204021794],[69.00757484592704,16.45344482821512],[69.00522645445092,16.45344482821512],[69.00522645445092,16.457966686879907],[69.00757484592704,16.457966686879907],[69.00757484592704,16.46248854554469],[69.00522645445092,16.46248854554469],[69.00522645445092,16.460227616212297],[69.0028780629748,16.460227616212297],[69.0028780629748,16.46248854554469],[69.00052967149867,16.46248854554469],[69.00052967149867,16.471532262874263],[68.99818128002255,16.471532262874263],[68.99818128002255,16.482836909536225],[69.00052967149867,16.482836909536225],[69.00052967149867,16.48509783886862],[69.0028780629748,16.48509783886862],[69.0028780629748,16.487358768201013],[69.01696841183153,16.487358768201013],[69.01696841183153,16.48509783886862],[69.01931680330765,16.48509783886862],[69.01931680330765,16.482836909536225],[69.02166519478376,16.482836909536225],[69.02166519478376,16.476054121539047],[69.02401358625988,16.476054121539047],[69.02401358625988,16.46927133354187],[69.026361977736,16.46927133354187],[69.026361977736,16.467010404209475],[69.02871036921212,16.467010404209475],[69.02871036921212,16.457966686879907],[69.03105876068825,16.457966686879907],[69.03105876068825,16.455705757547513],[69.03340715216437,16.455705757547513],[69.03340715216437,16.45344482821512],[69.03575554364049,16.45344482821512],[69.03575554364049,16.448922969550335],[69.03810393511661,16.448922969550335],[69.03810393511661,16.44666204021794],[69.04045232659273,16.44666204021794],[69.04045232659273,16.444401110885547],[69.04280071806885,16.444401110885547],[69.04280071806885,16.442140181553157],[69.04514910954498,16.442140181553157],[69.04514910954498,16.43761832288837],[69.0474975010211,16.43761832288837],[69.0474975010211,16.433096464223585],[69.04984589249722,16.433096464223585],[69.04984589249722,16.428574605558797],[69.05219428397334,16.428574605558797],[69.05219428397334,16.424052746894013],[69.05454267544945,16.424052746894013],[69.05454267544945,16.42179181756162],[69.05689106692557,16.42179181756162],[69.05689106692557,16.417269958896835],[69.0592394584017,16.417269958896835],[69.0592394584017,16.41500902956444],[69.06158784987782,16.41500902956444],[69.06158784987782,16.41274810023205],[69.06393624135394,16.41274810023205],[69.06393624135394,16.40596531223487],[69.06628463283006,16.40596531223487],[69.06628463283006,16.40370438290248],[69.06863302430618,16.40370438290248],[69.06863302430618,16.401443453570085],[69.0709814157823,16.401443453570085],[69.0709814157823,16.3969215949053],[69.07332980725843,16.3969215949053],[69.07332980725843,16.394660665572907],[69.07567819873455,16.394660665572907],[69.07567819873455,16.392399736240513],[69.07802659021067,16.392399736240513],[69.07802659021067,16.385616948243335],[69.08037498168679,16.385616948243335],[69.08037498168679,16.38335601891094],[69.0827233731629,16.38335601891094],[69.0827233731629,16.38109508957855],[69.08507176463903,16.38109508957855],[69.08507176463903,16.376573230913763],[69.08742015611516,16.376573230913763],[69.08742015611516,16.37205137224898],[69.08976854759128,16.37205137224898],[69.08976854759128,16.367529513584195],[69.0921169390674,16.367529513584195],[69.0921169390674,16.3652685842518],[69.09446533054351,16.3652685842518],[69.09446533054351,16.363007654919407],[69.09681372201963,16.363007654919407],[69.09681372201963,16.358485796254623],[69.09916211349575,16.358485796254623],[69.09916211349575,16.353963937589835],[69.10151050497188,16.353963937589835],[69.10151050497188,16.351703008257445],[69.103858896448,16.351703008257445],[69.103858896448,16.34944207892505],[69.10620728792412,16.34944207892505],[69.10620728792412,16.344920220260267],[69.10855567940024,16.344920220260267],[69.10855567940024,16.342659290927873],[69.11090407087636,16.342659290927873],[69.11090407087636,16.338137432263085],[69.11325246235248,16.338137432263085],[69.11325246235248,16.32457185626873],[69.11090407087636,16.32457185626873],[69.11090407087636,16.32231092693634],[69.10855567940024,16.32231092693634],[69.10855567940024,16.320049997603945],[69.10151050497188,16.320049997603945]]]},"properties":{"area_km2":54.295,"perimeter_km":62.58,"length_km":21.67,"mean_width_km":2.505,"elongation":8.6,"compactness":0.1742,"components":1,"orientation_deg":148.4,"centroid":[69.05449,16.40283],"taper":"undetermined","end_width_ratio":0.99,"edge_truncated":false,"wind_speed_ms":6.4,"wind_reliability":1.0,"age_prior_h":{"min":5,"max":48,"label":"weak prior","spreading_min_h":5.4},"shape_indicator":"elongated, few parts: consistent with a moving vessel","simulated":true,"source":"Simulated with truth physics (synthetic scenario)"}}]}