{"type":"FeatureCollection","features":[{"type":"Feature","geometry":{"type":"Polygon","coordinates":[[[-92.72952630038874,27.135112884770262],[-92.73705968229008,27.173721613654173],[-92.72766211888748,27.177463695809806],[-92.69263189994008,27.139918562814042],[-92.66855500105646,27.136417736592858],[-92.61679605307107,27.117522732332073],[-92.61008486745959,27.11748215072134],[-92.57237213264504,27.097758201007508],[-92.56030949619316,27.08256289922476],[-92.55234092843284,27.046371907291523],[-92.5641051258111,27.03486297278349],[-92.60408379128233,27.041945783230243],[-92.65596279980302,27.078539120136654],[-92.68712177047192,27.088278591186363],[-92.71611366294324,27.10903057828778],[-92.72952630038874,27.135112884770262]]]},"properties":{"kind":"age","age_h":1,"in_age_prior":false}},{"type":"Feature","geometry":{"type":"Polygon","coordinates":[[[-92.72687899502104,27.13422427934615],[-92.73290083920561,27.175550574139365],[-92.7212699219324,27.18097188056426],[-92.70409513384128,27.16164518955271],[-92.65633648951132,27.13682050209241],[-92.61078526591353,27.120449839554226],[-92.60109974414023,27.120374204923692],[-92.56664042233335,27.101592532073987],[-92.54517045113126,27.076731428086017],[-92.53998828890872,27.048941104278324],[-92.54309148442134,27.03611244589831],[-92.55011305353146,27.027749177612744],[-92.55590889007895,27.026673456117773],[-92.59661748824458,27.035507607826464],[-92.63164442833539,27.056372643888803],[-92.65018804287585,27.072065835319812],[-92.6814819606132,27.08133879719034],[-92.7106079608804,27.104157448056238],[-92.72687899502104,27.13422427934615]]]},"properties":{"kind":"age","age_h":2,"in_age_prior":true}},{"type":"Feature","geometry":{"type":"Polygon","coordinates":[[[-92.72212074252037,27.127634409861663],[-92.73082164087253,27.177713659346324],[-92.71642068232589,27.185135134246654],[-92.69541308361073,27.162221612647016],[-92.55913273170253,27.10558048246806],[-92.52944311914572,27.070836643435918],[-92.52420792568407,27.04767780936945],[-92.53072310958483,27.031196035950718],[-92.54505772937024,27.01864351628504],[-92.58907696042738,27.028973342820077],[-92.67448507831791,27.074442189335286],[-92.70594436454778,27.097703331964098],[-92.72212074252037,27.127634409861663]]]},"properties":{"kind":"age","age_h":3,"in_age_prior":true}},{"type":"Feature","geometry":{"type":"Polygon","coordinates":[[[-92.71219616064364,27.113657835844467],[-92.72337146238704,27.15489210964079],[-92.70496178734388,27.173167931988374],[-92.70029266862164,27.174454118432834],[-92.66684846028481,27.157915327492844],[-92.6403645096576,27.15066291939766],[-92.54742626275707,27.112755228985538],[-92.52969698535622,27.10144630849166],[-92.50006846165526,27.06492338355202],[-92.48051641610988,27.05002078814718],[-92.47999822141999,27.043837432022876],[-92.48909950179856,27.01968524065179],[-92.51120769693406,26.993508127372316],[-92.52525207600986,26.992131737453878],[-92.57016411112326,27.003484066302693],[-92.6057741848282,27.02402331793293],[-92.62761978644964,27.041080899859217],[-92.65813969680458,27.05117139771942],[-92.69203316158189,27.072436129923553],[-92.71219616064364,27.113657835844467]]]},"properties":{"kind":"age","age_h":6,"in_age_prior":true}},{"type":"Feature","geometry":{"type":"Polygon","coordinates":[[[-92.7060780212277,27.134625651590955],[-92.70344477802291,27.141932435096752],[-92.67824789762501,27.16285772862657],[-92.66664792226182,27.16460663977941],[-92.64841762673053,27.156065457296382],[-92.62038969693116,27.148951426895124],[-92.59843518851201,27.135432414141214],[-92.5696988636248,27.125159377115402],[-92.55649142050378,27.12548398327904],[-92.50293673914544,27.10033402576743],[-92.50055938537963,27.096971603961507],[-92.50028448966424,27.06814207194671],[-92.46981287264553,27.054702446461317],[-92.42905197686727,27.0459812081053],[-92.43743414613425,26.99532639006938],[-92.44224040109101,26.985865751072208],[-92.46376511869055,26.956453057271784],[-92.50011766579713,26.9600061783401],[-92.57622326698097,26.98887265456159],[-92.61241400358138,27.01269378098843],[-92.64184246692156,27.02056102502389],[-92.6748763160663,27.041803566353515],[-92.69154748361218,27.068438733773206],[-92.69666626869791,27.083167931985678],[-92.69425631697081,27.11349221229901],[-92.7060780212277,27.134625651590955]]]},"properties":{"kind":"age","age_h":9,"in_age_prior":true}},{"type":"Feature","geometry":{"type":"Polygon","coordinates":[[[-92.67509492485758,27.114317921479138],[-92.67189804681983,27.12454729176293],[-92.6412208385782,27.14961896838234],[-92.62395523011196,27.15717218732364],[-92.59090710732428,27.147649081600875],[-92.56904600008757,27.13401029864558],[-92.52625437289117,27.123036922247117],[-92.47087693837547,27.098546268854115],[-92.45923940809931,27.065538953289277],[-92.43471238006825,27.05369938687618],[-92.38413243739708,27.042588952547327],[-92.38162501190024,27.00453719400337],[-92.37172041220366,26.99549209490002],[-92.37983870139433,26.96501848890482],[-92.3943259942289,26.941223322012632],[-92.41148826293212,26.920654259969268],[-92.41909842163419,26.918120948288053],[-92.51370178943758,26.944042762205395],[-92.54532915116053,26.959139662497112],[-92.57426426826042,26.978301164836466],[-92.60768192811123,26.989398812511787],[-92.64910191102139,27.00888237172366],[-92.66625677576118,27.03029715835457],[-92.67206117161771,27.045104541874576],[-92.67155677361306,27.09730934536264],[-92.67509492485758,27.114317921479138]]]},"properties":{"kind":"age","age_h":12,"in_age_prior":true}},{"type":"Feature","geometry":{"type":"Polygon","coordinates":[[[-92.60087536448745,27.099984197699555],[-92.60293582465849,27.119767926673102],[-92.55930207489122,27.15095294161874],[-92.55276517693402,27.158943995041433],[-92.52490703163315,27.169642320960488],[-92.49646522561252,27.155596973107723],[-92.44999715315384,27.142130792995534],[-92.39161058250087,27.115419196062078],[-92.36599605425889,27.081973246552124],[-92.34077366023604,27.07228641045789],[-92.29111100867962,27.061777266890804],[-92.2906951422897,27.05751635906343],[-92.2939438302219,27.05495224378795],[-92.31473783109827,27.049274559656773],[-92.33094916823599,27.050625740795173],[-92.3405306131257,27.009920454239694],[-92.28562568836543,26.996329876150725],[-92.25520901484326,26.971187189800354],[-92.22764143498189,26.954015035955738],[-92.22089796751553,26.94515154486742],[-92.21625293138591,26.92879160325009],[-92.22510611365851,26.903630986099806],[-92.25286051759775,26.86676372747544],[-92.26311117610067,26.85982072131233],[-92.29850677695005,26.872138917999628],[-92.34166898088209,26.879370096690444],[-92.3796046419259,26.894662549173642],[-92.42828959197396,26.90259453558474],[-92.49374312907202,26.93822085210532],[-92.53748828173572,26.951715419369307],[-92.5707103173038,26.96953294482612],[-92.58769586087615,26.983880748611046],[-92.59263125665353,26.992532688965166],[-92.59582892277865,27.00114139549819],[-92.5922756727469,27.014262887062248],[-92.57041610081457,27.046116622631978],[-92.58765422971581,27.089753057694843],[-92.60087536448745,27.099984197699555]]]},"properties":{"kind":"age","age_h":18,"in_age_prior":true}},{"type":"Feature","geometry":{"type":"Polygon","coordinates":[[[-92.54555020033976,27.146375958983125],[-92.47028862763916,27.199490867945507],[-92.46387074121233,27.202284187290843],[-92.44182058282455,27.201805929636507],[-92.34212570944608,27.16494343991006],[-92.31697905200856,27.15119067956858],[-92.28544471509514,27.119700375291895],[-92.20712522050978,27.096924433982984],[-92.1735293311183,26.999831419166856],[-92.09556300254269,26.938712478738875],[-92.02258337105351,26.888197339148793],[-92.02162104467749,26.879988593920558],[-92.04790807995704,26.821015474870276],[-92.05583943319006,26.81114076626101],[-92.07769073014528,26.804843075334425],[-92.22890297751545,26.845814028687116],[-92.32712978506592,26.87676583033304],[-92.43578244312741,26.92301257474287],[-92.5014179066507,26.955016310103684],[-92.50760991218803,26.968401813642238],[-92.50811489889595,26.982133416929344],[-92.47808126454315,27.030543364438476],[-92.51257481164191,27.108847381469328],[-92.54814417051891,27.13437012987731],[-92.54555020033976,27.146375958983125]]]},"properties":{"kind":"age","age_h":24,"in_age_prior":true}},{"type":"Feature","geometry":{"type":"Polygon","coordinates":[[[-92.4229511952693,27.138025171477874],[-92.42250585829562,27.148110326789688],[-92.33331823622531,27.224829606500425],[-92.31789841293237,27.233255092791737],[-92.28664611069946,27.226811421524864],[-92.2258518622489,27.205502449688176],[-92.03195395774446,27.129247155902565],[-91.905139083091,26.958527316026647],[-91.7440851036169,26.84870589458397],[-91.60725680296092,26.783443432896604],[-91.56919180301993,26.710495549521923],[-91.59324874981075,26.62572752056716],[-91.59856490513617,26.62153008709418],[-91.61429716344108,26.623898169815075],[-91.66392186706032,26.648935743048575],[-92.24012894096042,26.85080904142236],[-92.27988052858686,26.878637962060804],[-92.27718180257676,26.89090616500413],[-92.36449331797672,27.097284643526915],[-92.39993120657083,27.114871677164118],[-92.4229511952693,27.138025171477874]]]},"properties":{"kind":"age","age_h":36,"in_age_prior":true}},{"type":"Feature","geometry":{"type":"Polygon","coordinates":[[[-92.24277622672153,27.06903807690735],[-92.24545167395247,27.074013140108708],[-92.211009739805,27.220314837820876],[-92.20363763120355,27.227749537629368],[-92.1927731047471,27.232251867298814],[-92.14002312769102,27.225048005201998],[-91.86315864744978,27.14884070195215],[-91.68685485805374,26.93733141673595],[-91.60596147125611,26.931841795498773],[-91.3774858641904,26.767129978815444],[-91.31227365893103,26.734853032623842],[-91.24109340376465,26.704697581371615],[-91.19914762167241,26.573066603079592],[-91.15189973863629,26.381001458997442],[-91.15639396495244,26.378550208254868],[-91.17462681711034,26.38196159379244],[-91.30604510844113,26.459627828548797],[-91.54809883872151,26.573493417952704],[-91.76118503882084,26.662512663412805],[-91.92953045919765,26.726928257777534],[-91.96179873212479,26.74514929598639],[-92.10214716587642,27.010676215011586],[-92.18055844512241,27.039634380726003],[-92.24277622672153,27.06903807690735]]]},"properties":{"kind":"age","age_h":48,"in_age_prior":true}},{"type":"Feature","geometry":{"type":"Polygon","coordinates":[[[-92.0937314236545,27.175671145402564],[-92.0744735348761,27.193449453839477],[-91.74840401630696,27.160530469959276],[-91.53293917267011,26.93783743036429],[-91.39774040847803,26.950196728003757],[-91.1673946532612,26.746928262415533],[-91.06210140624667,26.730068289028384],[-90.96999011435186,26.699172534657546],[-90.92154365626781,26.5430814811334],[-90.83830372888603,26.224568815494433],[-90.85388647718804,26.217098141004747],[-90.90693208439814,26.23428151912443],[-91.18373856006447,26.353380044837298],[-91.5385299806262,26.530010751673203],[-91.56335856254559,26.54622351231844],[-91.5690870741657,26.553307501653087],[-91.57064695052735,26.561098469551627],[-91.54289724209175,26.69443715187901],[-91.75897518767101,26.898923767989363],[-91.88591994127859,26.915751784936727],[-91.97486290964376,26.941897423681564],[-92.09360820512568,27.169957226778713],[-92.0937314236545,27.175671145402564]]]},"properties":{"kind":"age","age_h":60,"in_age_prior":false}},{"type":"Feature","geometry":{"type":"Polygon","coordinates":[[[-91.96001973911838,27.055750913641898],[-91.94223862390888,27.068041987901157],[-91.64811186983944,27.090911958303383],[-91.28295148463624,26.928027017744572],[-91.26890358482243,26.890564036127472],[-90.8965733464833,26.694820990914053],[-90.83699041689063,26.682932276140978],[-90.82788984194404,26.678729180697815],[-90.77261788600669,26.513456352745855],[-90.76666416119696,26.466684777350416],[-90.67834997240871,26.13695234479373],[-90.57718388308022,26.063081257901768],[-90.57613923227612,26.05904166459253],[-90.58293718895646,26.04244895399894],[-90.5958909001925,26.03132258499161],[-90.61980941146894,26.026679347280353],[-90.91741240132488,26.07930536636236],[-90.9550285934724,26.091670154314656],[-91.00115283014617,26.11695731827331],[-91.2092899914461,26.24445477654895],[-91.23027559274882,26.260181443686673],[-91.24492174344755,26.28043279586622],[-91.24962200970599,26.292807418461848],[-91.24408795567975,26.493140880951717],[-91.59172520742577,26.742435643575824],[-91.64315438111767,26.74711505502039],[-91.6686605161737,26.753296278129476],[-91.96363383025557,27.040584356562537],[-91.96659114251669,27.04669568155985],[-91.96001973911838,27.055750913641898]]]},"properties":{"kind":"age","age_h":72,"in_age_prior":false}},{"type":"Feature","geometry":{"type":"Polygon","coordinates":[[[-92.6065724859532,27.15222194837819],[-92.5598276066679,27.158410958850734],[-92.51651139559452,27.17394716654922],[-92.44502713539684,27.21367983671641],[-92.39446364534352,27.230752781558607],[-92.38550778314915,27.228441453214774],[-92.355668027748,27.233737557352335],[-92.336721187575,27.23058787827795],[-92.2329595156498,27.23864354237094],[-92.14002312769102,27.225048005201998],[-91.86360915351761,27.149094302320613],[-91.68710644733606,26.937633781045886],[-91.60596147125611,26.931841795498773],[-91.3774858641904,26.767129978815444],[-91.31227365893103,26.734853032623842],[-91.24109340376465,26.704697581371615],[-91.19914762167241,26.573066603079592],[-91.15189973863629,26.381001458997442],[-91.15639396495244,26.378550208254868],[-91.17377628890347,26.381654356880173],[-91.20130182951165,26.397123323621887],[-91.21019347876683,26.39891754406776],[-91.23871591113023,26.41563439389442],[-91.24721381889995,26.41704938734763],[-91.27473659069747,26.43471352575697],[-91.2845648936306,26.436098691849615],[-91.40171389075714,26.504631812884625],[-91.62221610053587,26.605603165502387],[-91.92953045919765,26.726928257777534],[-92.04800114606232,26.77960148062482],[-92.14844956075557,26.818462480259342],[-92.24932208770177,26.851422301707192],[-92.46041933612906,26.913462598822374],[-92.62626941434453,26.993034224529197],[-92.66019677041426,27.019258378274465],[-92.69886507441795,27.07998048740561],[-92.72687899502104,27.13422427934615],[-92.73347768814908,27.17430718339462],[-92.71817416536958,27.185493993283742],[-92.68256281002733,27.16717916199908],[-92.64569172095612,27.1579379605755],[-92.62344928715255,27.15709858453995],[-92.6065724859532,27.15222194837819]]]},"properties":{"kind":"release_corridor","age_prior_h":{"min":2,"max":48,"label":"weak prior","spreading_min_h":0.6}}},{"type":"Feature","geometry":{"type":"Polygon","coordinates":[[[-92.7691249570536,27.207101870611872],[-92.74241498034792,27.225886937073707],[-92.7167777861376,27.230695259853043],[-92.632032322524,27.201946289335737],[-92.59012173044523,27.19982432075094],[-92.53858015312717,27.21488499070123],[-92.46851826901222,27.253698647008004],[-92.40593736438396,27.274786705066315],[-92.23388018520419,27.283854600602414],[-92.12772929498863,27.268903802715286],[-91.8367715481644,27.187385717732827],[-91.82157094395129,27.17487814480282],[-91.66028233855862,26.981038735508225],[-91.60189193094945,26.97740771395597],[-91.58066926011102,26.97096898143133],[-91.34926442168702,26.804818161910607],[-91.21913546501031,26.745895090434537],[-91.20270204729775,26.734039239837884],[-91.19239327295081,26.717543503107258],[-91.14993389070767,26.583039187254695],[-91.10175675697,26.391831424971766],[-91.10594861786619,26.362324601889018],[-91.11889877524733,26.346398360194392],[-91.14254248419002,26.334908815791106],[-91.16450090233194,26.333871406414726],[-91.19518109327323,26.340663066383446],[-91.31217468064371,26.398250777239486],[-91.42843743263809,26.46613355295637],[-91.64368349609639,26.56467858801887],[-92.17132688028609,26.777961800672323],[-92.48047036604582,26.871967882361453],[-92.65126336778289,26.953750446190714],[-92.70176872154327,26.993628695294515],[-92.74365130026341,27.059154553476667],[-92.77299351754893,27.11581393391345],[-92.78407824034244,27.173213131174872],[-92.77992146752501,27.192098178295844],[-92.7691249570536,27.207101870611872]]]},"properties":{"kind":"expanded_corridor_for_veto","margin_km":5.0}}],"properties":{"physics":{"formula":"V_oil = V_current + V_tide + V_Stokes + alpha * V_wind10","current_source":"CMEMS SMOC (uo+utide, vo+vtide)","stokes_source":"CMEMS SMOC (vsdx, vsdy)","wind_source":"ERA5 10 m (u10, v10)","alpha":0.02,"alpha_range":[0.01,0.03],"current_scale_sd":0.15,"wind_rotation_sd_deg":10.0,"current_error_sd_ms":0.1,"diffusion_m2s":1.0,"time_step_s":900,"backward_members":10,"backward_particles":500,"forward_members":5,"max_age_h":72}}}