{"type":"FeatureCollection","features":[{"type":"Feature","geometry":{"type":"Polygon","coordinates":[[[-92.90767123656546,27.32345651508434],[-92.89030019534908,27.36979894830391],[-92.88428087833604,27.371461954515112],[-92.87565641304336,27.357493673878583],[-92.8594288511495,27.340723822351315],[-92.83388627020231,27.33846347764925],[-92.79540233658602,27.326541005797946],[-92.77566373207601,27.31568822914941],[-92.76736806124103,27.30103973204652],[-92.77471883175922,27.287908887373035],[-92.77949188314928,27.26467096693667],[-92.76353061834179,27.253988825749083],[-92.75706779361178,27.246044023871566],[-92.7575880984159,27.241414610955747],[-92.77073779347852,27.23024654335521],[-92.78294466890347,27.228549198347704],[-92.82365575139498,27.237603742211373],[-92.84333113888101,27.25993014823536],[-92.8798314987819,27.283296722964476],[-92.8939049071297,27.297467923881822],[-92.90767123656546,27.32345651508434]]]},"properties":{"kind":"forecast_envelope","hours":24,"active_fraction":1.0}},{"type":"Feature","geometry":{"type":"Polygon","coordinates":[[[-93.01255778041478,27.494477244823035],[-92.98198418797651,27.528994903639262],[-92.9774443665794,27.53026141419958],[-92.97357514335161,27.527167464819545],[-92.9701189689449,27.51186071040241],[-92.94936676169189,27.498626828082344],[-92.92364475058916,27.505131824602106],[-92.89442618028828,27.502973125320235],[-92.87522926736578,27.488381169759727],[-92.8745567585304,27.48310302192297],[-92.89522288259,27.455869127502122],[-92.90219234432664,27.429946652435206],[-92.89929356899597,27.40598786660888],[-92.92383569684452,27.391327198194883],[-92.93462037204395,27.388579695958647],[-92.95665860116102,27.390171891854838],[-92.97140759520131,27.396195533929415],[-92.98457825122209,27.417833138764063],[-93.02356399980745,27.44363083883663],[-93.01974542986703,27.473509584596798],[-93.01255778041478,27.494477244823035]]]},"properties":{"kind":"forecast_envelope","hours":48,"active_fraction":1.0}},{"type":"Feature","geometry":{"type":"Polygon","coordinates":[[[-93.13558419154624,27.61191534516863],[-93.10949040381138,27.642323858684527],[-93.09397788859496,27.64606035304621],[-93.08666676828713,27.656614517617665],[-93.07263797707843,27.66099085628372],[-93.06258876310709,27.679153239419932],[-93.04989316362293,27.680617676167085],[-93.04519426519153,27.676726868740495],[-93.0477598795702,27.66086093993601],[-93.03559145314225,27.650332885524328],[-92.99587723567751,27.655376415287435],[-92.98183011069106,27.62350294735403],[-92.98909583684618,27.611835873734975],[-93.00697857044582,27.597307520509275],[-93.01532862366751,27.584499068741028],[-93.00517536739825,27.56718624494272],[-93.01122635775074,27.55628889394589],[-93.051867928691,27.540391236178472],[-93.09793265451788,27.5480221341626],[-93.13437805675079,27.585981381459394],[-93.13558419154624,27.61191534516863]]]},"properties":{"kind":"forecast_envelope","hours":72,"active_fraction":1.0}}],"properties":{"model":"OpenDrift OpenOil","oil_type":"GENERIC INTERMEDIATE FUEL OIL 180","hours":72,"coastal_impact":false,"stranded_elements":0,"elements":1500,"mass_budget_fraction":{"mass_oil":[1.0,0.9865999817848206,0.9794999957084656,0.9732999801635742,0.9678000211715698,0.9629999995231628,0.9581999778747559,0.9531999826431274,0.9478999972343445,0.9426000118255615,0.9376000165939331,0.9329000115394592,0.9283999800682068,0.9236999750137329,0.9186999797821045,0.9135000109672546,0.9083999991416931,0.9036999940872192,0.8989999890327454,0.8942999839782715,0.8895000219345093,0.8845000267028809,0.8797000050544739,0.8751000165939331,0.8707000017166138,0.8707000017166138,0.8707000017166138,0.8707000017166138,0.8707000017166138,0.8707000017166138,0.8707000017166138,0.8707000017166138,0.8707000017166138,0.8707000017166138,0.8707000017166138,0.8707000017166138,0.8707000017166138,0.8707000017166138,0.8707000017166138,0.8707000017166138,0.8707000017166138,0.8707000017166138,0.8707000017166138,0.8707000017166138,0.8707000017166138,0.8707000017166138,0.8707000017166138,0.8707000017166138,0.8707000017166138,0.8707000017166138,0.8707000017166138,0.8707000017166138,0.8707000017166138,0.8707000017166138,0.8707000017166138,0.8707000017166138,0.8707000017166138,0.8707000017166138,0.8707000017166138,0.8707000017166138,0.8707000017166138,0.8707000017166138,0.8707000017166138,0.8707000017166138,0.8707000017166138,0.8707000017166138,0.8707000017166138,0.8707000017166138,0.8707000017166138,0.8707000017166138,0.8707000017166138,0.8707000017166138],"mass_evaporated":[0.0,0.013399999588727951,0.020600000396370888,0.02669999934732914,0.03220000118017197,0.03700000047683716,0.04179999977350235,0.046799998730421066,0.05209999904036522,0.05739999935030937,0.06239999830722809,0.06710000336170197,0.07159999758005142,0.0763000026345253,0.08129999786615372,0.08649999648332596,0.09160000085830688,0.09640000015497208,0.10100000351667404,0.10570000112056732,0.11050000041723251,0.11550000309944153,0.12030000239610672,0.12489999830722809,0.12929999828338623,0.12929999828338623,0.12929999828338623,0.12929999828338623,0.12929999828338623,0.12929999828338623,0.12929999828338623,0.12929999828338623,0.12929999828338623,0.12929999828338623,0.12929999828338623,0.12929999828338623,0.12929999828338623,0.12929999828338623,0.12929999828338623,0.12929999828338623,0.12929999828338623,0.12929999828338623,0.12929999828338623,0.12929999828338623,0.12929999828338623,0.12929999828338623,0.12929999828338623,0.12929999828338623,0.12929999828338623,0.12929999828338623,0.12929999828338623,0.12929999828338623,0.12929999828338623,0.12929999828338623,0.12929999828338623,0.12929999828338623,0.12929999828338623,0.12929999828338623,0.12929999828338623,0.12929999828338623,0.12929999828338623,0.12929999828338623,0.12929999828338623,0.12929999828338623,0.12929999828338623,0.12929999828338623,0.12929999828338623,0.12929999828338623,0.12929999828338623,0.12929999828338623,0.12929999828338623,0.12929999828338623],"mass_dispersed":[0.0,0.0,0.0,0.0,0.0,0.0,0.0,0.0,0.0,0.0,0.0,0.0,0.0,0.0,0.0,0.0,0.0,0.0,0.0,0.0,0.0,0.0,0.0,0.0,0.0,0.0,0.0,0.0,0.0,0.0,0.0,0.0,0.0,0.0,0.0,0.0,0.0,0.0,0.0,0.0,0.0,0.0,0.0,0.0,0.0,0.0,0.0,0.0,0.0,0.0,0.0,0.0,0.0,0.0,0.0,0.0,0.0,0.0,0.0,0.0,0.0,0.0,0.0,0.0,0.0,0.0,0.0,0.0,0.0,0.0,0.0,0.0]}}}