{"type":"FeatureCollection","features":[{"type":"Feature","geometry":{"type":"Point","coordinates":[-92.54722,26.42239]},"properties":{"peak_db":12.3,"area_px":20,"approx_length_m":188,"platform":false}},{"type":"Feature","geometry":{"type":"Point","coordinates":[-92.18934,26.50017]},"properties":{"peak_db":7.0,"area_px":10,"approx_length_m":133,"platform":false}},{"type":"Feature","geometry":{"type":"Point","coordinates":[-92.26408,26.96136]},"properties":{"peak_db":9.3,"area_px":18,"approx_length_m":178,"platform":false}},{"type":"Feature","geometry":{"type":"Point","coordinates":[-94.52422,26.63806]},"properties":{"peak_db":13.4,"area_px":35,"approx_length_m":248,"platform":false}},{"type":"Feature","geometry":{"type":"Point","coordinates":[-92.51842,27.01413]},"properties":{"peak_db":9.8,"area_px":7,"approx_length_m":111,"platform":false}},{"type":"Feature","geometry":{"type":"Point","coordinates":[-93.44306,26.95358]},"properties":{"peak_db":8.2,"area_px":8,"approx_length_m":119,"platform":false}},{"type":"Feature","geometry":{"type":"Point","coordinates":[-92.19978,27.19508]},"properties":{"peak_db":4.5,"area_px":4,"approx_length_m":84,"platform":false}},{"type":"Feature","geometry":{"type":"Point","coordinates":[-92.19982,27.19605]},"properties":{"peak_db":-5.6,"area_px":1,"approx_length_m":42,"platform":false}},{"type":"Feature","geometry":{"type":"Point","coordinates":[-92.20272,27.20403]},"properties":{"peak_db":11.9,"area_px":22,"approx_length_m":197,"platform":true}},{"type":"Feature","geometry":{"type":"Point","coordinates":[-92.56829,27.22936]},"properties":{"peak_db":14.0,"area_px":25,"approx_length_m":210,"platform":false}},{"type":"Feature","geometry":{"type":"Point","coordinates":[-94.34139,26.94321]},"properties":{"peak_db":12.3,"area_px":20,"approx_length_m":188,"platform":false}},{"type":"Feature","geometry":{"type":"Point","coordinates":[-94.41335,26.99303]},"properties":{"peak_db":14.9,"area_px":20,"approx_length_m":188,"platform":false}},{"type":"Feature","geometry":{"type":"Point","coordinates":[-92.22671,27.36154]},"properties":{"peak_db":10.6,"area_px":16,"approx_length_m":168,"platform":false}},{"type":"Feature","geometry":{"type":"Point","coordinates":[-94.6356,26.96633]},"properties":{"peak_db":6.2,"area_px":4,"approx_length_m":84,"platform":false}},{"type":"Feature","geometry":{"type":"Point","coordinates":[-93.96582,27.14782]},"properties":{"peak_db":10.3,"area_px":23,"approx_length_m":201,"platform":false}},{"type":"Feature","geometry":{"type":"Point","coordinates":[-93.59132,27.23747]},"properties":{"peak_db":11.9,"area_px":23,"approx_length_m":201,"platform":false}},{"type":"Feature","geometry":{"type":"Point","coordinates":[-93.5384,27.30411]},"properties":{"peak_db":8.3,"area_px":19,"approx_length_m":183,"platform":true}},{"type":"Feature","geometry":{"type":"Point","coordinates":[-92.26369,27.51111]},"properties":{"peak_db":13.9,"area_px":22,"approx_length_m":197,"platform":false}},{"type":"Feature","geometry":{"type":"Point","coordinates":[-92.19843,27.52952]},"properties":{"peak_db":4.6,"area_px":6,"approx_length_m":103,"platform":false}},{"type":"Feature","geometry":{"type":"Point","coordinates":[-94.05242,27.23262]},"properties":{"peak_db":7.7,"area_px":20,"approx_length_m":188,"platform":false}},{"type":"Feature","geometry":{"type":"Point","coordinates":[-92.44353,27.54625]},"properties":{"peak_db":10.1,"area_px":26,"approx_length_m":214,"platform":true}},{"type":"Feature","geometry":{"type":"Point","coordinates":[-92.39505,27.56913]},"properties":{"peak_db":10.3,"area_px":25,"approx_length_m":210,"platform":false}},{"type":"Feature","geometry":{"type":"Point","coordinates":[-94.05462,27.34512]},"properties":{"peak_db":14.7,"area_px":25,"approx_length_m":210,"platform":false}},{"type":"Feature","geometry":{"type":"Point","coordinates":[-94.46542,27.35395]},"properties":{"peak_db":6.6,"area_px":8,"approx_length_m":119,"platform":false}},{"type":"Feature","geometry":{"type":"Point","coordinates":[-94.48427,27.36287]},"properties":{"peak_db":5.3,"area_px":8,"approx_length_m":119,"platform":false}},{"type":"Feature","geometry":{"type":"Point","coordinates":[-94.46754,27.36752]},"properties":{"peak_db":7.6,"area_px":19,"approx_length_m":183,"platform":true}},{"type":"Feature","geometry":{"type":"Point","coordinates":[-92.44996,27.69886]},"properties":{"peak_db":9.9,"area_px":21,"approx_length_m":192,"platform":false}},{"type":"Feature","geometry":{"type":"Point","coordinates":[-94.46978,27.37094]},"properties":{"peak_db":3.2,"area_px":5,"approx_length_m":94,"platform":true}},{"type":"Feature","geometry":{"type":"Point","coordinates":[-94.62536,27.35356]},"properties":{"peak_db":6.4,"area_px":17,"approx_length_m":173,"platform":true}},{"type":"Feature","geometry":{"type":"Point","coordinates":[-92.44183,27.71605]},"properties":{"peak_db":6.8,"area_px":12,"approx_length_m":145,"platform":false}},{"type":"Feature","geometry":{"type":"Point","coordinates":[-94.37236,27.44205]},"properties":{"peak_db":19.6,"area_px":21,"approx_length_m":192,"platform":false}},{"type":"Feature","geometry":{"type":"Point","coordinates":[-94.24411,27.50929]},"properties":{"peak_db":11.7,"area_px":15,"approx_length_m":163,"platform":false}},{"type":"Feature","geometry":{"type":"Point","coordinates":[-92.32975,27.87364]},"properties":{"peak_db":9.8,"area_px":17,"approx_length_m":173,"platform":false}},{"type":"Feature","geometry":{"type":"Point","coordinates":[-93.18782,27.7883]},"properties":{"peak_db":4.1,"area_px":12,"approx_length_m":145,"platform":true}},{"type":"Feature","geometry":{"type":"Point","coordinates":[-92.53571,27.91851]},"properties":{"peak_db":6.3,"area_px":5,"approx_length_m":94,"platform":false}},{"type":"Feature","geometry":{"type":"Point","coordinates":[-92.55064,27.92188]},"properties":{"peak_db":3.3,"area_px":3,"approx_length_m":73,"platform":true}},{"type":"Feature","geometry":{"type":"Point","coordinates":[-92.55403,27.92277]},"properties":{"peak_db":13.5,"area_px":22,"approx_length_m":197,"platform":true}},{"type":"Feature","geometry":{"type":"Point","coordinates":[-92.52796,27.96951]},"properties":{"peak_db":4.9,"area_px":8,"approx_length_m":119,"platform":true}},{"type":"Feature","geometry":{"type":"Point","coordinates":[-92.87728,27.9438]},"properties":{"peak_db":8.6,"area_px":15,"approx_length_m":163,"platform":true}},{"type":"Feature","geometry":{"type":"Point","coordinates":[-92.96394,27.93892]},"properties":{"peak_db":12.9,"area_px":17,"approx_length_m":173,"platform":true}}],"properties":{"method":"two-window CFAR, 30 m, 9.0 dB over local background","validated":false}}