{"type":"FeatureCollection","features":[{"type":"Feature","geometry":{"type":"MultiPolygon","coordinates":[[[[-92.51109,27.035953],[-92.50903,27.035953],[-92.50903,27.035266],[-92.51109,27.035266],[-92.51109,27.035953]]],[[[-92.512463,27.036639],[-92.511777,27.036639],[-92.511777,27.035953],[-92.512463,27.035953],[-92.512463,27.036639]]],[[[-92.51727,27.038013],[-92.515897,27.038013],[-92.515897,27.037326],[-92.51521,27.037326],[-92.51521,27.036639],[-92.51315,27.036639],[-92.51315,27.035953],[-92.513837,27.035953],[-92.513837,27.035266],[-92.514523,27.035266],[-92.514523,27.035953],[-92.515897,27.035953],[-92.515897,27.036639],[-92.51727,27.036639],[-92.51727,27.038013]]],[[[-92.620953,27.075778],[-92.620267,27.075778],[-92.620267,27.075092],[-92.620953,27.075092],[-92.620953,27.075778]]],[[[-92.620267,27.075092],[-92.618893,27.075092],[-92.618893,27.073718],[-92.616833,27.073718],[-92.616833,27.073032],[-92.614774,27.073032],[-92.614774,27.071658],[-92.6134,27.071658],[-92.6134,27.070972],[-92.612027,27.070972],[-92.612027,27.070285],[-92.61134,27.070285],[-92.61134,27.069598],[-92.610654,27.069598],[-92.610654,27.068912],[-92.609967,27.068912],[-92.609967,27.068225],[-92.60928,27.068225],[-92.60928,27.067538],[-92.607907,27.067538],[-92.607907,27.066852],[-92.60722,27.066852],[-92.60722,27.066165],[-92.606534,27.066165],[-92.606534,27.065479],[-92.605847,27.065479],[-92.605847,27.064792],[-92.604474,27.064792],[-92.604474,27.064105],[-92.603101,27.064105],[-92.603101,27.062732],[-92.601041,27.062732],[-92.601041,27.062045],[-92.598981,27.062045],[-92.598981,27.061359],[-92.597607,27.061359],[-92.597607,27.059985],[-92.595547,27.059985],[-92.595547,27.059299],[-92.594861,27.059299],[-92.594861,27.058612],[-92.593488,27.058612],[-92.593488,27.057925],[-92.590741,27.057925],[-92.590741,27.057239],[-92.590054,27.057239],[-92.590054,27.056552],[-92.589368,27.056552],[-92.589368,27.055865],[-92.586621,27.055865],[-92.586621,27.054492],[-92.585934,27.054492],[-92.585934,27.053806],[-92.586621,27.053806],[-92.586621,27.053119],[-92.587308,27.053119],[-92.587308,27.053806],[-92.588681,27.053806],[-92.588681,27.053119],[-92.590054,27.053119],[-92.590054,27.053806],[-92.591428,27.053806],[-92.591428,27.054492],[-92.592114,27.054492],[-92.592114,27.055179],[-92.594174,27.055179],[-92.594174,27.055865],[-92.594861,27.055865],[-92.594861,27.056552],[-92.595547,27.056552],[-92.595547,27.057239],[-92.596234,27.057239],[-92.596234,27.058612],[-92.598981,27.058612],[-92.598981,27.059299],[-92.600354,27.059299],[-92.600354,27.059985],[-92.602414,27.059985],[-92.602414,27.060672],[-92.603101,27.060672],[-92.603101,27.061359],[-92.604474,27.061359],[-92.604474,27.062045],[-92.605847,27.062045],[-92.605847,27.062732],[-92.606534,27.062732],[-92.606534,27.064105],[-92.608594,27.064105],[-92.608594,27.064792],[-92.60928,27.064792],[-92.60928,27.065479],[-92.609967,27.065479],[-92.609967,27.066165],[-92.610654,27.066165],[-92.610654,27.066852],[-92.612027,27.066852],[-92.612027,27.067538],[-92.612714,27.067538],[-92.612714,27.068225],[-92.614087,27.068225],[-92.614087,27.068912],[-92.61546,27.068912],[-92.61546,27.070972],[-92.616147,27.070972],[-92.616147,27.071658],[-92.616833,27.071658],[-92.616833,27.072345],[-92.618893,27.072345],[-92.618893,27.073032],[-92.61958,27.073032],[-92.61958,27.074405],[-92.620267,27.074405],[-92.620267,27.075092]]],[[[-92.585934,27.053806],[-92.584561,27.053806],[-92.584561,27.053119],[-92.581815,27.053119],[-92.581815,27.052432],[-92.581128,27.052432],[-92.581128,27.051746],[-92.578381,27.051746],[-92.578381,27.051059],[-92.577695,27.051059],[-92.577695,27.050372],[-92.577008,27.050372],[-92.577008,27.049686],[-92.574948,27.049686],[-92.574948,27.048999],[-92.572888,27.048999],[-92.572888,27.048312],[-92.572202,27.048312],[-92.572202,27.047626],[-92.570142,27.047626],[-92.570142,27.046939],[-92.569455,27.046939],[-92.569455,27.046252],[-92.568082,27.046252],[-92.568082,27.045566],[-92.565335,27.045566],[-92.565335,27.044879],[-92.564648,27.044879],[-92.564648,27.044193],[-92.563962,27.044193],[-92.563962,27.042819],[-92.563275,27.042819],[-92.563275,27.042133],[-92.562589,27.042133],[-92.562589,27.042819],[-92.561215,27.042819],[-92.561215,27.042133],[-92.559842,27.042133],[-92.559842,27.041446],[-92.557782,27.041446],[-92.557782,27.040759],[-92.556409,27.040759],[-92.556409,27.040073],[-92.555722,27.040073],[-92.555722,27.039386],[-92.555035,27.039386],[-92.555035,27.038699],[-92.552975,27.038699],[-92.552975,27.038013],[-92.550916,27.038013],[-92.550916,27.036639],[-92.548856,27.036639],[-92.548856,27.035953],[-92.546109,27.035953],[-92.546109,27.035266],[-92.545422,27.035266],[-92.545422,27.034579],[-92.544049,27.034579],[-92.544049,27.033893],[-92.542676,27.033893],[-92.542676,27.033206],[-92.539243,27.033206],[-92.539243,27.03252],[-92.537869,27.03252],[-92.537869,27.031833],[-92.535809,27.031833],[-92.535809,27.031146],[-92.530316,27.031146],[-92.530316,27.029773],[-92.52551,27.029773],[-92.52551,27.029086],[-92.524136,27.029086],[-92.524136,27.0284],[-92.522076,27.0284],[-92.522076,27.027713],[-92.517957,27.027713],[-92.517957,27.02634],[-92.518643,27.02634],[-92.518643,27.027026],[-92.52345,27.027026],[-92.52345,27.02634],[-92.524136,27.02634],[-92.524136,27.027026],[-92.526883,27.027026],[-92.526883,27.027713],[-92.533063,27.027713],[-92.533063,27.0284],[-92.534436,27.0284],[-92.534436,27.029086],[-92.535809,27.029086],[-92.535809,27.029773],[-92.541989,27.029773],[-92.541989,27.031146],[-92.544049,27.031146],[-92.544049,27.031833],[-92.545422,27.031833],[-92.545422,27.03252],[-92.548856,27.03252],[-92.548856,27.033206],[-92.549542,27.033206],[-92.549542,27.033893],[-92.550916,27.033893],[-92.550916,27.034579],[-92.551602,27.034579],[-92.551602,27.035266],[-92.552289,27.035266],[-92.552289,27.035953],[-92.552975,27.035953],[-92.552975,27.036639],[-92.555722,27.036639],[-92.555722,27.037326],[-92.556409,27.037326],[-92.556409,27.038013],[-92.557095,27.038013],[-92.557095,27.038699],[-92.558469,27.038699],[-92.558469,27.039386],[-92.561215,27.039386],[-92.561215,27.040073],[-92.561902,27.040073],[-92.561902,27.040759],[-92.563275,27.040759],[-92.563275,27.041446],[-92.565335,27.041446],[-92.565335,27.042133],[-92.566708,27.042133],[-92.566708,27.042819],[-92.568082,27.042819],[-92.568082,27.044193],[-92.568768,27.044193],[-92.568768,27.044879],[-92.570828,27.044879],[-92.570828,27.045566],[-92.572202,27.045566],[-92.572202,27.046252],[-92.572888,27.046252],[-92.572888,27.046939],[-92.576321,27.046939],[-92.576321,27.047626],[-92.577695,27.047626],[-92.577695,27.048312],[-92.578381,27.048312],[-92.578381,27.048999],[-92.581128,27.048999],[-92.581128,27.049686],[-92.582501,27.049686],[-92.582501,27.050372],[-92.583188,27.050372],[-92.583188,27.051059],[-92.583875,27.051059],[-92.583875,27.051746],[-92.585248,27.051746],[-92.585248,27.053119],[-92.585934,27.053119],[-92.585934,27.053806]]],[[[-92.51933,27.038013],[-92.518643,27.038013],[-92.518643,27.037326],[-92.51933,27.037326],[-92.51933,27.038013]]],[[[-92.584561,27.087451],[-92.581815,27.087451],[-92.581815,27.085391],[-92.582501,27.085391],[-92.582501,27.086078],[-92.583875,27.086078],[-92.583875,27.086765],[-92.584561,27.086765],[-92.584561,27.087451]]],[[[-92.612714,27.102557],[-92.612027,27.102557],[-92.612027,27.101871],[-92.61134,27.101871],[-92.61134,27.101184],[-92.609967,27.101184],[-92.609967,27.100497],[-92.60928,27.100497],[-92.60928,27.099811],[-92.608594,27.099811],[-92.608594,27.099124],[-92.605847,27.099124],[-92.605847,27.098438],[-92.605161,27.098438],[-92.605161,27.097751],[-92.604474,27.097751],[-92.604474,27.097064],[-92.603787,27.097064],[-92.603787,27.096378],[-92.603101,27.096378],[-92.603101,27.095691],[-92.601041,27.095691],[-92.601041,27.095004],[-92.598981,27.095004],[-92.598981,27.095691],[-92.597607,27.095691],[-92.597607,27.095004],[-92.596921,27.095004],[-92.596921,27.094318],[-92.596234,27.094318],[-92.596234,27.095004],[-92.594861,27.095004],[-92.594861,27.094318],[-92.592114,27.094318],[-92.592114,27.093631],[-92.590741,27.093631],[-92.590741,27.092944],[-92.590054,27.092944],[-92.590054,27.092258],[-92.588681,27.092258],[-92.588681,27.091571],[-92.587308,27.091571],[-92.587308,27.090884],[-92.585934,27.090884],[-92.585934,27.090198],[-92.584561,27.090198],[-92.584561,27.088824],[-92.585248,27.088824],[-92.585248,27.088138],[-92.586621,27.088138],[-92.586621,27.087451],[-92.588681,27.087451],[-92.588681,27.088138],[-92.590054,27.088138],[-92.590054,27.088824],[-92.590741,27.088824],[-92.590741,27.089511],[-92.591428,27.089511],[-92.591428,27.090198],[-92.592114,27.090198],[-92.592114,27.090884],[-92.592801,27.090884],[-92.592801,27.091571],[-92.595547,27.091571],[-92.595547,27.092258],[-92.596921,27.092258],[-92.596921,27.092944],[-92.598294,27.092944],[-92.598294,27.093631],[-92.600354,27.093631],[-92.600354,27.094318],[-92.601727,27.094318],[-92.601727,27.095004],[-92.604474,27.095004],[-92.604474,27.095691],[-92.605161,27.095691],[-92.605161,27.095004],[-92.606534,27.095004],[-92.606534,27.095691],[-92.60722,27.095691],[-92.60722,27.096378],[-92.608594,27.096378],[-92.608594,27.097751],[-92.60928,27.097751],[-92.60928,27.098438],[-92.609967,27.098438],[-92.609967,27.099124],[-92.610654,27.099124],[-92.610654,27.099811],[-92.612027,27.099811],[-92.612027,27.101184],[-92.612714,27.101184],[-92.612714,27.102557]]],[[[-92.600354,27.097751],[-92.599667,27.097751],[-92.599667,27.096378],[-92.600354,27.096378],[-92.600354,27.097751]]],[[[-92.605161,27.100497],[-92.604474,27.100497],[-92.604474,27.099811],[-92.605161,27.099811],[-92.605161,27.100497]]],[[[-92.604474,27.099811],[-92.603787,27.099811],[-92.603787,27.099124],[-92.604474,27.099124],[-92.604474,27.099811]]],[[[-92.60722,27.101871],[-92.606534,27.101871],[-92.606534,27.101184],[-92.60722,27.101184],[-92.60722,27.101871]]],[[[-92.736996,27.171909],[-92.73631,27.171909],[-92.73631,27.170535],[-92.735623,27.170535],[-92.735623,27.168475],[-92.73631,27.168475],[-92.73631,27.167789],[-92.735623,27.167789],[-92.735623,27.166415],[-92.734937,27.166415],[-92.734937,27.163669],[-92.73425,27.163669],[-92.73425,27.160236],[-92.733563,27.160236],[-92.733563,27.159549],[-92.732877,27.159549],[-92.732877,27.158176],[-92.733563,27.158176],[-92.733563,27.156116],[-92.732877,27.156116],[-92.732877,27.155429],[-92.73219,27.155429],[-92.73219,27.151996],[-92.731503,27.151996],[-92.731503,27.149249],[-92.730817,27.149249],[-92.730817,27.148563],[-92.73013,27.148563],[-92.73013,27.147876],[-92.72807,27.147876],[-92.72807,27.145816],[-92.727383,27.145816],[-92.727383,27.145129],[-92.726697,27.145129],[-92.726697,27.145816],[-92.725323,27.145816],[-92.725323,27.145129],[-92.724637,27.145129],[-92.724637,27.145816],[-92.72395,27.145816],[-92.72395,27.146503],[-92.723264,27.146503],[-92.723264,27.144443],[-92.722577,27.144443],[-92.722577,27.143756],[-92.72189,27.143756],[-92.72189,27.141696],[-92.721204,27.141696],[-92.721204,27.14101],[-92.719144,27.14101],[-92.719144,27.140323],[-92.718457,27.140323],[-92.718457,27.139636],[-92.717084,27.139636],[-92.717084,27.13895],[-92.71571,27.13895],[-92.71571,27.138263],[-92.712964,27.138263],[-92.712964,27.137576],[-92.711591,27.137576],[-92.711591,27.138263],[-92.710904,27.138263],[-92.710904,27.137576],[-92.710217,27.137576],[-92.710217,27.135516],[-92.709531,27.135516],[-92.709531,27.13483],[-92.708157,27.13483],[-92.708157,27.134143],[-92.707471,27.134143],[-92.707471,27.133456],[-92.705411,27.133456],[-92.705411,27.13277],[-92.702664,27.13277],[-92.702664,27.132083],[-92.701978,27.132083],[-92.701978,27.131396],[-92.701291,27.131396],[-92.701291,27.13071],[-92.700604,27.13071],[-92.700604,27.130023],[-92.697858,27.130023],[-92.697858,27.12865],[-92.696484,27.12865],[-92.696484,27.127963],[-92.695798,27.127963],[-92.695798,27.127277],[-92.693738,27.127277],[-92.693738,27.12659],[-92.691678,27.12659],[-92.691678,27.125903],[-92.690991,27.125903],[-92.690991,27.12659],[-92.687558,27.12659],[-92.687558,27.125903],[-92.686871,27.125903],[-92.686871,27.12659],[-92.684811,27.12659],[-92.684811,27.127277],[-92.681378,27.127277],[-92.681378,27.127963],[-92.675198,27.127963],[-92.675198,27.127277],[-92.672452,27.127277],[-92.672452,27.12659],[-92.671765,27.12659],[-92.671765,27.125903],[-92.671078,27.125903],[-92.671078,27.12453],[-92.669705,27.12453],[-92.669705,27.123157],[-92.669019,27.123157],[-92.669019,27.12247],[-92.668332,27.12247],[-92.668332,27.121783],[-92.666272,27.121783],[-92.666272,27.121097],[-92.665585,27.121097],[-92.665585,27.12041],[-92.664212,27.12041],[-92.664212,27.119724],[-92.662839,27.119724],[-92.662839,27.119037],[-92.661465,27.119037],[-92.661465,27.11835],[-92.660779,27.11835],[-92.660779,27.117664],[-92.660092,27.117664],[-92.660092,27.116977],[-92.658719,27.116977],[-92.658719,27.11629],[-92.658032,27.11629],[-92.658032,27.115604],[-92.656659,27.115604],[-92.656659,27.114917],[-92.655972,27.114917],[-92.655972,27.11423],[-92.655286,27.11423],[-92.655286,27.113544],[-92.654599,27.113544],[-92.654599,27.112857],[-92.653912,27.112857],[-92.653912,27.11217],[-92.652539,27.11217],[-92.652539,27.111484],[-92.651852,27.111484],[-92.651852,27.110797],[-92.650479,27.110797],[-92.650479,27.109424],[-92.649792,27.109424],[-92.649792,27.108737],[-92.648419,27.108737],[-92.648419,27.108051],[-92.646359,27.108051],[-92.646359,27.107364],[-92.644986,27.107364],[-92.644986,27.106677],[-92.644299,27.106677],[-92.644299,27.105991],[-92.643613,27.105991],[-92.643613,27.105304],[-92.641553,27.105304],[-92.641553,27.104617],[-92.640866,27.104617],[-92.640866,27.103931],[-92.640179,27.103931],[-92.640179,27.103244],[-92.639493,27.103244],[-92.639493,27.102557],[-92.63812,27.102557],[-92.63812,27.101871],[-92.637433,27.101871],[-92.637433,27.101184],[-92.636746,27.101184],[-92.636746,27.099811],[-92.635373,27.099811],[-92.635373,27.099124],[-92.632626,27.099124],[-92.632626,27.098438],[-92.63194,27.098438],[-92.63194,27.097751],[-92.631253,27.097751],[-92.631253,27.097064],[-92.630566,27.097064],[-92.630566,27.096378],[-92.62988,27.096378],[-92.62988,27.095691],[-92.628506,27.095691],[-92.628506,27.093631],[-92.629193,27.093631],[-92.629193,27.092944],[-92.62988,27.092944],[-92.62988,27.093631],[-92.630566,27.093631],[-92.630566,27.094318],[-92.631253,27.094318],[-92.631253,27.093631],[-92.634686,27.093631],[-92.634686,27.091571],[-92.635373,27.091571],[-92.635373,27.089511],[-92.63606,27.089511],[-92.63606,27.088824],[-92.63812,27.088824],[-92.63812,27.089511],[-92.638806,27.089511],[-92.638806,27.090198],[-92.639493,27.090198],[-92.639493,27.090884],[-92.640866,27.090884],[-92.640866,27.091571],[-92.641553,27.091571],[-92.641553,27.092258],[-92.642926,27.092258],[-92.642926,27.092944],[-92.644299,27.092944],[-92.644299,27.093631],[-92.644986,27.093631],[-92.644986,27.092944],[-92.645673,27.092944],[-92.645673,27.093631],[-92.646359,27.093631],[-92.646359,27.094318],[-92.648419,27.094318],[-92.648419,27.095004],[-92.649106,27.095004],[-92.649106,27.096378],[-92.650479,27.096378],[-92.650479,27.097751],[-92.651166,27.097751],[-92.651166,27.098438],[-92.651852,27.098438],[-92.651852,27.099124],[-92.652539,27.099124],[-92.652539,27.100497],[-92.655286,27.100497],[-92.655286,27.101184],[-92.655972,27.101184],[-92.655972,27.102557],[-92.656659,27.102557],[-92.656659,27.103244],[-92.657346,27.103244],[-92.657346,27.103931],[-92.658719,27.103931],[-92.658719,27.105304],[-92.659406,27.105304],[-92.659406,27.105991],[-92.660779,27.105991],[-92.660779,27.106677],[-92.662839,27.106677],[-92.662839,27.107364],[-92.663525,27.107364],[-92.663525,27.108051],[-92.664212,27.108051],[-92.664212,27.108737],[-92.664899,27.108737],[-92.664899,27.109424],[-92.666272,27.109424],[-92.666272,27.110797],[-92.666959,27.110797],[-92.666959,27.111484],[-92.667645,27.111484],[-92.667645,27.11217],[-92.669019,27.11217],[-92.669019,27.112857],[-92.670392,27.112857],[-92.670392,27.113544],[-92.671078,27.113544],[-92.671078,27.11423],[-92.671765,27.11423],[-92.671765,27.114917],[-92.674512,27.114917],[-92.674512,27.115604],[-92.675198,27.115604],[-92.675198,27.117664],[-92.675885,27.117664],[-92.675885,27.11835],[-92.678632,27.11835],[-92.678632,27.117664],[-92.679318,27.117664],[-92.679318,27.116977],[-92.680005,27.116977],[-92.680005,27.11629],[-92.678632,27.11629],[-92.678632,27.115604],[-92.677945,27.115604],[-92.677945,27.114917],[-92.677258,27.114917],[-92.677258,27.113544],[-92.675885,27.113544],[-92.675885,27.112857],[-92.675198,27.112857],[-92.675198,27.11217],[-92.674512,27.11217],[-92.674512,27.111484],[-92.673825,27.111484],[-92.673825,27.110797],[-92.672452,27.110797],[-92.672452,27.109424],[-92.671765,27.109424],[-92.671765,27.108051],[-92.671078,27.108051],[-92.671078,27.107364],[-92.669705,27.107364],[-92.669705,27.106677],[-92.669019,27.106677],[-92.669019,27.105991],[-92.668332,27.105991],[-92.668332,27.105304],[-92.666272,27.105304],[-92.666272,27.104617],[-92.664899,27.104617],[-92.664899,27.102557],[-92.664212,27.102557],[-92.664212,27.101871],[-92.662152,27.101871],[-92.662152,27.101184],[-92.661465,27.101184],[-92.661465,27.100497],[-92.660779,27.100497],[-92.660779,27.099811],[-92.659406,27.099811],[-92.659406,27.099124],[-92.658032,27.099124],[-92.658032,27.098438],[-92.657346,27.098438],[-92.657346,27.097064],[-92.658032,27.097064],[-92.658032,27.097751],[-92.659406,27.097751],[-92.659406,27.096378],[-92.660092,27.096378],[-92.660092,27.097064],[-92.660779,27.097064],[-92.660779,27.097751],[-92.661465,27.097751],[-92.661465,27.098438],[-92.664212,27.098438],[-92.664212,27.099124],[-92.664899,27.099124],[-92.664899,27.099811],[-92.665585,27.099811],[-92.665585,27.100497],[-92.668332,27.100497],[-92.668332,27.101184],[-92.669705,27.101184],[-92.669705,27.102557],[-92.670392,27.102557],[-92.670392,27.103931],[-92.671078,27.103931],[-92.671078,27.102557],[-92.671765,27.102557],[-92.671765,27.101871],[-92.671078,27.101871],[-92.671078,27.101184],[-92.670392,27.101184],[-92.670392,27.100497],[-92.669019,27.100497],[-92.669019,27.099811],[-92.667645,27.099811],[-92.667645,27.099124],[-92.666272,27.099124],[-92.666272,27.098438],[-92.665585,27.098438],[-92.665585,27.097751],[-92.664899,27.097751],[-92.664899,27.097064],[-92.664212,27.097064],[-92.664212,27.095691],[-92.662839,27.095691],[-92.662839,27.094318],[-92.661465,27.094318],[-92.661465,27.093631],[-92.660779,27.093631],[-92.660779,27.092258],[-92.659406,27.092258],[-92.659406,27.091571],[-92.657346,27.091571],[-92.657346,27.090884],[-92.660779,27.090884],[-92.660779,27.090198],[-92.661465,27.090198],[-92.661465,27.089511],[-92.662839,27.089511],[-92.662839,27.090884],[-92.663525,27.090884],[-92.663525,27.091571],[-92.664212,27.091571],[-92.664212,27.092258],[-92.665585,27.092258],[-92.665585,27.092944],[-92.666272,27.092944],[-92.666272,27.093631],[-92.667645,27.093631],[-92.667645,27.095004],[-92.669019,27.095004],[-92.669019,27.095691],[-92.670392,27.095691],[-92.670392,27.096378],[-92.671765,27.096378],[-92.671765,27.098438],[-92.673138,27.098438],[-92.673138,27.097751],[-92.673825,27.097751],[-92.673825,27.098438],[-92.675885,27.098438],[-92.675885,27.101184],[-92.677945,27.101184],[-92.677945,27.104617],[-92.679318,27.104617],[-92.679318,27.105991],[-92.681378,27.105991],[-92.681378,27.106677],[-92.682065,27.106677],[-92.682065,27.107364],[-92.684125,27.107364],[-92.684125,27.108051],[-92.684811,27.108051],[-92.684811,27.107364],[-92.689618,27.107364],[-92.689618,27.106677],[-92.690991,27.106677],[-92.690991,27.107364],[-92.691678,27.107364],[-92.691678,27.106677],[-92.694424,27.106677],[-92.694424,27.105991],[-92.696484,27.105991],[-92.696484,27.107364],[-92.697171,27.107364],[-92.697171,27.108051],[-92.696484,27.108051],[-92.696484,27.114917],[-92.697858,27.114917],[-92.697858,27.11423],[-92.698544,27.11423],[-92.698544,27.114917],[-92.699231,27.114917],[-92.699231,27.115604],[-92.700604,27.115604],[-92.700604,27.11629],[-92.701978,27.11629],[-92.701978,27.117664],[-92.703351,27.117664],[-92.703351,27.11835],[-92.704037,27.11835],[-92.704037,27.119037],[-92.704724,27.119037],[-92.704724,27.119724],[-92.706784,27.119724],[-92.706784,27.12041],[-92.708157,27.12041],[-92.708157,27.121097],[-92.709531,27.121097],[-92.709531,27.121783],[-92.711591,27.121783],[-92.711591,27.12247],[-92.712277,27.12247],[-92.712277,27.123843],[-92.713651,27.123843],[-92.713651,27.12453],[-92.715024,27.12453],[-92.715024,27.125217],[-92.716397,27.125217],[-92.716397,27.125903],[-92.71777,27.125903],[-92.71777,27.12659],[-92.720517,27.12659],[-92.720517,27.127277],[-92.72189,27.127277],[-92.72189,27.127963],[-92.72395,27.127963],[-92.72395,27.12865],[-92.725323,27.12865],[-92.725323,27.129337],[-92.72807,27.129337],[-92.72807,27.130023],[-92.726697,27.130023],[-92.726697,27.13071],[-92.72601,27.13071],[-92.72601,27.130023],[-92.72395,27.130023],[-92.72395,27.129337],[-92.722577,27.129337],[-92.722577,27.13071],[-92.72189,27.13071],[-92.72189,27.130023],[-92.720517,27.130023],[-92.720517,27.129337],[-92.71983,27.129337],[-92.71983,27.12865],[-92.716397,27.12865],[-92.716397,27.127963],[-92.71571,27.127963],[-92.71571,27.127277],[-92.713651,27.127277],[-92.713651,27.129337],[-92.710904,27.129337],[-92.710904,27.12865],[-92.709531,27.12865],[-92.709531,27.127963],[-92.708844,27.127963],[-92.708844,27.129337],[-92.709531,27.129337],[-92.709531,27.13071],[-92.710217,27.13071],[-92.710217,27.131396],[-92.710904,27.131396],[-92.710904,27.132083],[-92.711591,27.132083],[-92.711591,27.133456],[-92.715024,27.133456],[-92.715024,27.134143],[-92.716397,27.134143],[-92.716397,27.13483],[-92.717084,27.13483],[-92.717084,27.135516],[-92.71777,27.135516],[-92.71777,27.136203],[-92.71983,27.136203],[-92.71983,27.13689],[-92.720517,27.13689],[-92.720517,27.137576],[-92.721204,27.137576],[-92.721204,27.138263],[-92.722577,27.138263],[-92.722577,27.13895],[-92.724637,27.13895],[-92.724637,27.139636],[-92.727383,27.139636],[-92.727383,27.140323],[-92.72807,27.140323],[-92.72807,27.14101],[-92.728757,27.14101],[-92.728757,27.141696],[-92.73013,27.141696],[-92.73013,27.142383],[-92.730817,27.142383],[-92.730817,27.144443],[-92.73219,27.144443],[-92.73219,27.145816],[-92.732877,27.145816],[-92.732877,27.147189],[-92.733563,27.147189],[-92.733563,27.149249],[-92.73425,27.149249],[-92.73425,27.151996],[-92.734937,27.151996],[-92.734937,27.158176],[-92.73425,27.158176],[-92.73425,27.159549],[-92.734937,27.159549],[-92.734937,27.160236],[-92.735623,27.160236],[-92.735623,27.160922],[-92.734937,27.160922],[-92.734937,27.162982],[-92.735623,27.162982],[-92.735623,27.165729],[-92.73631,27.165729],[-92.73631,27.166415],[-92.736996,27.166415],[-92.736996,27.167102],[-92.737683,27.167102],[-92.737683,27.168475],[-92.736996,27.168475],[-92.736996,27.171909]],[[-92.671765,27.102557],[-92.671765,27.104617],[-92.672452,27.104617],[-92.672452,27.105304],[-92.673825,27.105304],[-92.673825,27.105991],[-92.675198,27.105991],[-92.675198,27.105304],[-92.674512,27.105304],[-92.674512,27.103931],[-92.673825,27.103931],[-92.673825,27.102557],[-92.671765,27.102557]],[[-92.639493,27.095691],[-92.639493,27.095004],[-92.638806,27.095004],[-92.638806,27.095691],[-92.639493,27.095691]],[[-92.641553,27.096378],[-92.641553,27.095691],[-92.640866,27.095691],[-92.640866,27.096378],[-92.641553,27.096378]],[[-92.677945,27.108051],[-92.677945,27.107364],[-92.677258,27.107364],[-92.677258,27.106677],[-92.676572,27.106677],[-92.676572,27.105991],[-92.675885,27.105991],[-92.675885,27.107364],[-92.676572,27.107364],[-92.676572,27.108051],[-92.677945,27.108051]],[[-92.677258,27.123843],[-92.677258,27.12247],[-92.675885,27.12247],[-92.675885,27.123843],[-92.677258,27.123843]],[[-92.681378,27.12453],[-92.681378,27.123843],[-92.682065,27.123843],[-92.682065,27.12247],[-92.678632,27.12247],[-92.678632,27.123843],[-92.680005,27.123843],[-92.680005,27.12453],[-92.681378,27.12453]],[[-92.684125,27.112857],[-92.684125,27.11217],[-92.688245,27.11217],[-92.688245,27.111484],[-92.686185,27.111484],[-92.686185,27.110797],[-92.685498,27.110797],[-92.685498,27.111484],[-92.683438,27.111484],[-92.683438,27.110797],[-92.682065,27.110797],[-92.682065,27.109424],[-92.680692,27.109424],[-92.680692,27.11011],[-92.680005,27.11011],[-92.680005,27.109424],[-92.679318,27.109424],[-92.679318,27.108737],[-92.678632,27.108737],[-92.678632,27.11011],[-92.679318,27.11011],[-92.679318,27.111484],[-92.680005,27.111484],[-92.680005,27.110797],[-92.681378,27.110797],[-92.681378,27.11217],[-92.682751,27.11217],[-92.682751,27.112857],[-92.684125,27.112857]],[[-92.684125,27.121097],[-92.684125,27.12041],[-92.683438,27.12041],[-92.683438,27.121097],[-92.684125,27.121097]],[[-92.693051,27.11217],[-92.693051,27.111484],[-92.692365,27.111484],[-92.692365,27.11217],[-92.693051,27.11217]],[[-92.692365,27.111484],[-92.692365,27.110797],[-92.690305,27.110797],[-92.690305,27.111484],[-92.692365,27.111484]],[[-92.691678,27.12041],[-92.691678,27.119724],[-92.690991,27.119724],[-92.690991,27.12041],[-92.691678,27.12041]],[[-92.701291,27.121783],[-92.701291,27.121097],[-92.699231,27.121097],[-92.699231,27.121783],[-92.701291,27.121783]],[[-92.699231,27.121097],[-92.699231,27.11835],[-92.697858,27.11835],[-92.697858,27.117664],[-92.697171,27.117664],[-92.697171,27.11629],[-92.696484,27.11629],[-92.696484,27.119724],[-92.698544,27.119724],[-92.698544,27.121097],[-92.699231,27.121097]],[[-92.703351,27.125903],[-92.703351,27.125217],[-92.701978,27.125217],[-92.701978,27.125903],[-92.703351,27.125903]],[[-92.701978,27.125217],[-92.701978,27.12453],[-92.701291,27.12453],[-92.701291,27.123843],[-92.699231,27.123843],[-92.699231,27.12247],[-92.697171,27.12247],[-92.697171,27.121783],[-92.696484,27.121783],[-92.696484,27.123843],[-92.697171,27.123843],[-92.697171,27.12453],[-92.697858,27.12453],[-92.697858,27.125217],[-92.699231,27.125217],[-92.699231,27.125903],[-92.700604,27.125903],[-92.700604,27.125217],[-92.701978,27.125217]],[[-92.708844,27.127277],[-92.708844,27.125217],[-92.707471,27.125217],[-92.707471,27.12659],[-92.708157,27.12659],[-92.708157,27.127277],[-92.708844,27.127277]],[[-92.707471,27.125217],[-92.707471,27.12453],[-92.706097,27.12453],[-92.706097,27.125217],[-92.707471,27.125217]]],[[[-92.72807,27.129337],[-92.72807,27.12865],[-92.729443,27.12865],[-92.729443,27.129337],[-92.73013,27.129337],[-92.73013,27.130023],[-92.728757,27.130023],[-92.728757,27.129337],[-92.72807,27.129337]]],[[[-92.697171,27.108051],[-92.697858,27.108051],[-92.697858,27.108737],[-92.699231,27.108737],[-92.699231,27.109424],[-92.697171,27.109424],[-92.697171,27.108051]]],[[[-92.657346,27.090884],[-92.656659,27.090884],[-92.656659,27.090198],[-92.655972,27.090198],[-92.655972,27.088138],[-92.655286,27.088138],[-92.655286,27.086765],[-92.654599,27.086765],[-92.654599,27.085391],[-92.653226,27.085391],[-92.653226,27.084705],[-92.651852,27.084705],[-92.651852,27.084018],[-92.650479,27.084018],[-92.650479,27.082645],[-92.649792,27.082645],[-92.649792,27.081958],[-92.648419,27.081958],[-92.648419,27.081271],[-92.647733,27.081271],[-92.647733,27.080585],[-92.646359,27.080585],[-92.646359,27.079898],[-92.645673,27.079898],[-92.645673,27.079211],[-92.644299,27.079211],[-92.644299,27.078525],[-92.643613,27.078525],[-92.643613,27.077838],[-92.642926,27.077838],[-92.642926,27.076465],[-92.641553,27.076465],[-92.641553,27.075092],[-92.640179,27.075092],[-92.640179,27.074405],[-92.638806,27.074405],[-92.638806,27.073718],[-92.63812,27.073718],[-92.63812,27.073032],[-92.637433,27.073032],[-92.637433,27.072345],[-92.636746,27.072345],[-92.636746,27.071658],[-92.63606,27.071658],[-92.63606,27.070972],[-92.634,27.070972],[-92.634,27.069598],[-92.63194,27.069598],[-92.63194,27.068912],[-92.631253,27.068912],[-92.631253,27.068225],[-92.62988,27.068225],[-92.62988,27.067538],[-92.628506,27.067538],[-92.628506,27.066852],[-92.626447,27.066852],[-92.626447,27.066165],[-92.62576,27.066165],[-92.62576,27.065479],[-92.624387,27.065479],[-92.624387,27.064792],[-92.623013,27.064792],[-92.623013,27.064105],[-92.622327,27.064105],[-92.622327,27.062732],[-92.620953,27.062732],[-92.620953,27.062045],[-92.61958,27.062045],[-92.61958,27.061359],[-92.618207,27.061359],[-92.618207,27.060672],[-92.61752,27.060672],[-92.61752,27.059985],[-92.61546,27.059985],[-92.61546,27.059299],[-92.614087,27.059299],[-92.614087,27.058612],[-92.612714,27.058612],[-92.612714,27.057925],[-92.61134,27.057925],[-92.61134,27.057239],[-92.610654,27.057239],[-92.610654,27.056552],[-92.609967,27.056552],[-92.609967,27.055865],[-92.60928,27.055865],[-92.60928,27.055179],[-92.608594,27.055179],[-92.608594,27.054492],[-92.607907,27.054492],[-92.607907,27.053806],[-92.609967,27.053806],[-92.609967,27.054492],[-92.612027,27.054492],[-92.612027,27.055179],[-92.612714,27.055179],[-92.612714,27.055865],[-92.614087,27.055865],[-92.614087,27.056552],[-92.616833,27.056552],[-92.616833,27.057239],[-92.61752,27.057239],[-92.61752,27.058612],[-92.618893,27.058612],[-92.618893,27.059299],[-92.620953,27.059299],[-92.620953,27.059985],[-92.622327,27.059985],[-92.622327,27.061359],[-92.6237,27.061359],[-92.6237,27.062045],[-92.625073,27.062045],[-92.625073,27.062732],[-92.62576,27.062732],[-92.62576,27.064105],[-92.627133,27.064105],[-92.627133,27.064792],[-92.62988,27.064792],[-92.62988,27.065479],[-92.630566,27.065479],[-92.630566,27.066165],[-92.631253,27.066165],[-92.631253,27.066852],[-92.632626,27.066852],[-92.632626,27.067538],[-92.634,27.067538],[-92.634,27.068225],[-92.634686,27.068225],[-92.634686,27.068912],[-92.635373,27.068912],[-92.635373,27.069598],[-92.637433,27.069598],[-92.637433,27.070285],[-92.63812,27.070285],[-92.63812,27.071658],[-92.638806,27.071658],[-92.638806,27.072345],[-92.640179,27.072345],[-92.640179,27.073032],[-92.642239,27.073032],[-92.642239,27.074405],[-92.642926,27.074405],[-92.642926,27.075092],[-92.643613,27.075092],[-92.643613,27.075778],[-92.644986,27.075778],[-92.644986,27.076465],[-92.645673,27.076465],[-92.645673,27.077838],[-92.646359,27.077838],[-92.646359,27.078525],[-92.647733,27.078525],[-92.647733,27.079211],[-92.648419,27.079211],[-92.648419,27.079898],[-92.649106,27.079898],[-92.649106,27.080585],[-92.649792,27.080585],[-92.649792,27.081271],[-92.651166,27.081271],[-92.651166,27.081958],[-92.652539,27.081958],[-92.652539,27.082645],[-92.653912,27.082645],[-92.653912,27.084018],[-92.654599,27.084018],[-92.654599,27.084705],[-92.655286,27.084705],[-92.655286,27.085391],[-92.655972,27.085391],[-92.655972,27.086078],[-92.656659,27.086078],[-92.656659,27.086765],[-92.657346,27.086765],[-92.657346,27.087451],[-92.656659,27.087451],[-92.656659,27.088824],[-92.657346,27.088824],[-92.657346,27.090884]]],[[[-92.61134,27.104617],[-92.60928,27.104617],[-92.60928,27.103931],[-92.608594,27.103931],[-92.608594,27.102557],[-92.610654,27.102557],[-92.610654,27.103244],[-92.61134,27.103244],[-92.61134,27.104617]]],[[[-92.614087,27.106677],[-92.612714,27.106677],[-92.612714,27.105991],[-92.614087,27.105991],[-92.614087,27.106677]]],[[[-92.61546,27.104617],[-92.614774,27.104617],[-92.614774,27.103931],[-92.614087,27.103931],[-92.614087,27.102557],[-92.616147,27.102557],[-92.616147,27.103931],[-92.61546,27.103931],[-92.61546,27.104617]]],[[[-92.62164,27.111484],[-92.620953,27.111484],[-92.620953,27.110797],[-92.62164,27.110797],[-92.62164,27.111484]]],[[[-92.620953,27.110797],[-92.618893,27.110797],[-92.618893,27.109424],[-92.616833,27.109424],[-92.616833,27.108737],[-92.616147,27.108737],[-92.616147,27.108051],[-92.61546,27.108051],[-92.61546,27.107364],[-92.616833,27.107364],[-92.616833,27.108051],[-92.61752,27.108051],[-92.61752,27.108737],[-92.61958,27.108737],[-92.61958,27.109424],[-92.620953,27.109424],[-92.620953,27.110797]]],[[[-92.622327,27.078525],[-92.62164,27.078525],[-92.62164,27.077838],[-92.622327,27.077838],[-92.622327,27.078525]]],[[[-92.624387,27.110797],[-92.623013,27.110797],[-92.623013,27.109424],[-92.6237,27.109424],[-92.6237,27.11011],[-92.624387,27.11011],[-92.624387,27.110797]]],[[[-92.62576,27.084705],[-92.625073,27.084705],[-92.625073,27.082645],[-92.6237,27.082645],[-92.6237,27.081271],[-92.623013,27.081271],[-92.623013,27.079211],[-92.6237,27.079211],[-92.6237,27.080585],[-92.624387,27.080585],[-92.624387,27.081271],[-92.625073,27.081271],[-92.625073,27.081958],[-92.62576,27.081958],[-92.62576,27.084705]]],[[[-92.696484,27.101184],[-92.695798,27.101184],[-92.695798,27.100497],[-92.690305,27.100497],[-92.690305,27.101184],[-92.688931,27.101184],[-92.688931,27.100497],[-92.687558,27.100497],[-92.687558,27.099811],[-92.691678,27.099811],[-92.691678,27.099124],[-92.692365,27.099124],[-92.692365,27.098438],[-92.693738,27.098438],[-92.693738,27.099124],[-92.696484,27.099124],[-92.696484,27.101184]]],[[[-92.721204,27.119724],[-92.717084,27.119724],[-92.717084,27.119037],[-92.71571,27.119037],[-92.71571,27.11835],[-92.714337,27.11835],[-92.714337,27.117664],[-92.712277,27.117664],[-92.712277,27.116977],[-92.711591,27.116977],[-92.711591,27.115604],[-92.710217,27.115604],[-92.710217,27.114917],[-92.707471,27.114917],[-92.707471,27.115604],[-92.706784,27.115604],[-92.706784,27.114917],[-92.705411,27.114917],[-92.705411,27.11423],[-92.706784,27.11423],[-92.706784,27.113544],[-92.706097,27.113544],[-92.706097,27.112857],[-92.705411,27.112857],[-92.705411,27.11217],[-92.702664,27.11217],[-92.702664,27.111484],[-92.701978,27.111484],[-92.701978,27.110797],[-92.701291,27.110797],[-92.701291,27.109424],[-92.702664,27.109424],[-92.702664,27.11011],[-92.703351,27.11011],[-92.703351,27.110797],[-92.704037,27.110797],[-92.704037,27.111484],[-92.706097,27.111484],[-92.706097,27.11217],[-92.708157,27.11217],[-92.708157,27.112857],[-92.709531,27.112857],[-92.709531,27.113544],[-92.710217,27.113544],[-92.710217,27.11423],[-92.713651,27.11423],[-92.713651,27.114917],[-92.714337,27.114917],[-92.714337,27.115604],[-92.715024,27.115604],[-92.715024,27.11629],[-92.716397,27.11629],[-92.716397,27.116977],[-92.717084,27.116977],[-92.717084,27.117664],[-92.718457,27.117664],[-92.718457,27.11835],[-92.719144,27.11835],[-92.719144,27.119037],[-92.721204,27.119037],[-92.721204,27.119724]]],[[[-92.733563,27.131396],[-92.732877,27.131396],[-92.732877,27.13071],[-92.733563,27.13071],[-92.733563,27.131396]]],[[[-92.732877,27.13071],[-92.731503,27.13071],[-92.731503,27.129337],[-92.73219,27.129337],[-92.73219,27.130023],[-92.732877,27.130023],[-92.732877,27.13071]]]]},"properties":{"area_km2":21.75,"perimeter_km":161.87,"length_km":27.14,"mean_width_km":0.801,"elongation":33.9,"compactness":0.0104,"components":5,"orientation_deg":120.8,"centroid":[-92.65921,27.10272],"taper":"clear","end_width_ratio":0.37,"fresh_end_bearing_deg":120.8,"edge_truncated":false,"wind_speed_ms":3.8,"wind_reliability":1.0,"age_prior_h":{"min":2,"max":48,"label":"weak prior","spreading_min_h":0.6},"shape_indicator":"mixed shape: no source-type indication","cerulean_slick_id":3511734,"cerulean_machine_confidence":0.965,"cerulean_class":5,"s1_scene_id":"S1A_IW_GRDH_1SDV_20240928T001807_20240928T001833_055858_06D3AB_BA4E","source":"SkyTruth Cerulean slick polygon"}}]}